complete_address,address,label,building,house_details,locality,pincode,city,state
"62, Guha Zila, Opposite Mall, Pune, Maharashtra - 515733","62, Guha Zila, Opposite Mall, Pune, Maharashtra - 515733",0,,62,Guha Zilla,411533,Pune,Maharashtra
"41/935 Sha Path, Opposite Mall, Ahmedabad, Gujarat - 783648","41/935 Opposite Mall, Ahmedabad, 783648",1,,41/935,,382648,Ahmedabad,
"26/36 Soman Marg, Behind School, Hyderabad, Telangana - 999606","26/36 Soman Marg, Behind School, Hyderabad, Telangana - 999606",0,,26/36,,500006,Hyderabad,Telangana
"525, Khalsa Nagar, Behind School, Varanasi, Uttar Pradesh - 512489","525, Khalsa Nagar, Behind School, Varanasi, Uttar Pradesh - 512489",0,,525,Khalsa Nagar,201489,Varanasi,Uttar Pradesh
"H.No. 51 Srinivas Path, Behind School, Hyderabad, Telangana - 010509","H.No. 51 Srinivas Path, Behind School, Hyderabad, Telangana - 010509",0,,H.No. 51,,500095,Hyderabad,Telangana
"H.No. 20, Basak Ganj, Near Park, Coimbatore, Tamil Nadu - 757617","H.No. 20, Basak Ganj, Near Park, Coimbatore, Tamil Nadu - 757617",0,,H.No. 20,Basak Ganj,757617,Coimbatore,Tamil Nadu
"H.No. 61, Ghosh, Near Park, Jamshedpur, Jharkhand - 602321","H.No. 61, Ghosh, Near Park, Jamshedpur, Jharkhand - 602321",0,,H.No. 61,Jamshedpur,201321,Jharkhand,
"96/271, Jain Path, Near Park, Varanasi, Uttar Pradesh - 759851","96/271, Jain Path, Near Park,",1,,96/271,Park,400072,Mumbai,
"42/07 Mann Chowk, Opposite Mall, Lucknow, Uttar Pradesh - 272395","Mann Mall, Lucknow, Pradesh -",1,Mann Mall,,,201005,Lucknow,Pradesh
"39, Badami Zila, Near Park, Chandigarh, Chandigarh - 039035","39, Badami Zila, Near Park, Chandigarh, Chandigarh - 039035",0,,39,Badami Zila,700035,Chandigarh,
"956 Sachdeva Zila, Near Park, Guwahati, Assam - 073024","956 Sachdeva Zila, Near Park, Guwahati, Assam - 073024",0,,956,Sachdeva Zila,743024,Guwahati,Assam
"79/97, Doctor Road, Opposite Mall, Jamshedpur, Jharkhand - 331231","79/97, Doctor Road, Opposite Mall, Jamshedpur, Jharkhand - 331231",0,,79/97,Jamshedpur,221311,Jharkhand,
"H.No. 908, Devi Marg, Near Park, Thiruvananthapuram, Kerala - 162554","H.No. 908, Devi Marg, Near Park, Thiruvananthapuram, Kerala - 162554",0,,H.No. 908,Thiruvananthapuram,600055,Kerala,
"43 Bera Zila, Near Park, Guwahati, Assam - 008147","43 Bera Zila, Near Park, Guwahati, Assam - 008147",0,,43,Guwahati,700147,Assam,
"09/693 Munshi, Behind School, Shimla, Himachal Pradesh - 121118","09/693 Munshi, Behind School, Shimla, Himachal Pradesh - 121118",0,,09/693,Munshi,121118,Shimla,Himachal Pradesh
"H.No. 952 Comar Nagar, Above Shop, Vizag, Andhra Pradesh - 600112","H.No. 952 Nagar, Above Vizag, -",1,,,Nagar,500072,Vizag,
"32/360, Radhakrishnan Marg, Behind School, Ahmedabad, Gujarat - 693975","32/360, Radhakrishnan Marg, Behind School, Ahmedabad, Gujarat - 693975",0,,32/360,,380015,Ahmedabad,Gujarat
"95, Loyal Zila, Opposite Mall, Pune, Maharashtra - 006228","95, Zila, Opposite - 006228",1,,95,Zila,201306,,
"838 Muni, Above Shop, Ranchi, Jharkhand - 326916","838 Muni, Above Shop, Ranchi, Jharkhand - 326916",0,,838 Muni,Ranchi,326116,Jharkhand,
"H.No. 41, Cherian Road, Behind School, Chandigarh, Chandigarh - 616681","H.No. 41, Cherian Road, Behind School, Chandigarh, Chandigarh - 616681",0,,H.No. 41,Chandigarh,660168,Chandigarh,
"H.No. 88 Gour Chowk, Opposite Mall, Coimbatore, Tamil Nadu - 549906","H.No. 88 Gour Chowk, Opposite Mall, Coimbatore, Tamil Nadu - 549906",0,,H.No. 88,Coimbatore,594090,Tamil Nadu,
"29/21 Ram Street, Opposite Mall, Ludhiana, Punjab - 526118","29/21 Ram Street, Opposite Mall, Ludhiana, Punjab - 526118",0,,29/21,Ludhiana,522611,Punjab,
"H.No. 938, D’Alia Street, Near Park, Hyderabad, Telangana - 898902","938, D’Alia Park, Hyderabad, -",1,D'Alia Park,938,,500008,Hyderabad,
"539, Master Ganj, Above Shop, Bhopal, Madhya Pradesh - 761606","539, Master Ganj, Above Shop, Bhopal, Madhya Pradesh - 761606",0,,539,Master Ganj,761606,Bhopal,Madhya Pradesh
"26/159, Nigam Chowk, Opposite Mall, Nagpur, Maharashtra - 102735","26/159, Nigam Chowk, Opposite Mall, Nagpur, Maharashtra - 102735",0,,26/159,Nagpur,410307,Maharashtra,
"998, De Ganj, Near Park, Thiruvananthapuram, Kerala - 718108","998, Ganj, Near Kerala -",1,,998,Ganj,560004,,KARNATAKA
"13 Sunder Circle, Behind School, Thiruvananthapuram, Kerala - 442259","13 Sunder Circle, Behind School, Thiruvananthapuram, Kerala - 442259",0,,13,Thiruvananthapuram,442259,Kerala,
"54/25 Iyengar Zila, Opposite Mall, Guwahati, Assam - 031505","54/25 Iyengar Zila, Opposite Mall, Guwahati, Assam - 031505",0,,54/25,Iyengar Zila,700105,Guwahati,Assam
"576, Prashad Path, Near Park, Raipur, Chhattisgarh - 169709","576, Prashad Path, Near Park, Raipur, Chhattisgarh - 169709",0,,576,Raipur,169709,Chhattisgarh,
"91/484, Prabhu Road, Near Park, Raipur, Chhattisgarh - 807185","91/484, Prabhu Road, Near Park, Raipur, Chhattisgarh - 807185",0,,91/484,Raipur,807185,Chhattisgarh,
"509 Mittal, Opposite Mall, Vijayawada, Andhra Pradesh - 654349","509 Mittal, Opposite Mall, Vijayawada, Andhra Pradesh - 654349",0,,509,Vijayawada,654349,Andhra Pradesh,
"31/955 Bera Path, Opposite Mall, Surat, Gujarat - 821333","31/955 Bera Path, Opposite Mall, Surat, Gujarat - 821333",0,,31/955,,395003,Surat,Gujarat
"H.No. 32 Saxena Ganj, Near Park, Vijayawada, Andhra Pradesh - 537881","H.No. 32 Saxena Ganj, Near Park, Vijayawada, Andhra Pradesh - 537881",0,,H.No. 32,Vijayawada,537181,Andhra Pradesh,
"H.No. 504 Golla Nagar, Above Shop, Ranchi, Jharkhand - 019019","H.No. 504 Golla Nagar, Above Shop, Ranchi, Jharkhand - 019019",0,,H.No. 504,Golla Nagar,019019,Ranchi,Jharkhand
"939, Bala Zila, Behind School, Hyderabad, Telangana - 378428","939, Bala Zila, Behind School, Hyderabad, Telangana - 378428",0,,939,Bala Zilla,378428,Hyderabad,Telangana
"00/432, Khatri Nagar, Opposite Mall, Chennai, Tamil Nadu - 602076","00/432, Khatri Nagar, Opposite Mall, Chennai, Tamil Nadu - 602076",0,,00/432,Khatri Nagar,602076,Chennai,Tamil Nadu
"H.No. 86, Sridhar Street, Behind School, Kolkata, West Bengal - 376116","H.No. 86, Sridhar Street, Behind School, Kolkata, West Bengal - 376116",0,,H.No. 86,Kolkata,700116,Kolkata,West Bengal
"84/54 Kibe Marg, Behind School, Vizag, Andhra Pradesh - 285341","84/54 Kibe Marg, Behind School, Vizag, Andhra Pradesh - 285341",0,,84/54,Vizag,562341,Andhra Pradesh,
"46/37 Gill, Behind School, Coimbatore, Tamil Nadu - 746976","46/37 School, Coimbatore, - 746976",1,,46/37,,746976,Coimbatore,
"50/177, Lad Zila, Behind School, Lucknow, Uttar Pradesh - 038944","50/177, Lad Zila, Behind School, Lucknow, Uttar Pradesh - 038944",0,,50/177,Lad Zila,203944,Lucknow,Uttar Pradesh
"69, Gopal, Near Park, Vijayawada, Andhra Pradesh - 077226","69, Gopal, Near Park, Vijayawada, Andhra Pradesh - 077226",0,,69,Vijayawada,500043,Andhra Pradesh,
"46/30, Gera, Behind School, Bhubaneswar, Odisha - 649409","46/30, Gera, Behind School, Bhubaneswar, Odisha - 649409",0,Gera,46/30,Bhubaneswar,649409,Odisha,
"H.No. 847 Lad Nagar, Above Shop, Kochi, Kerala - 091916","H.No. 847 Lad Nagar, Above Shop, Kochi, Kerala - 091916",0,,H.No. 847,Lad Nagar,691116,Kochi,Kerala
"18/464 Cheema Marg, Behind School, Delhi, Delhi - 871090","18/464 Cheema Marg, Behind School, Delhi, Delhi - 871090",0,,18/464,,110090,Delhi,Delhi
"H.No. 570 Dugal Zila, Opposite Mall, Ahmedabad, Gujarat - 543661","570 Dugal Opposite Ahmedabad, 543661",1,,570,,380001,,
"H.No. 064 Bansal Street, Opposite Mall, Meerut, Uttar Pradesh - 101401","H.No. 064 Bansal Street, Opposite Mall, Meerut, Uttar Pradesh - 101401",0,,H.No. 64,Meerut,201401,Uttar Pradesh,
"08/25, Vasa Marg, Above Shop, Amritsar, Punjab - 316127","08/25, Vasa Marg, Above Shop, Amritsar, Punjab - 316127",0,,08/25,Amritsar,122161,Punjab,
"230, Shroff Ganj, Opposite Mall, Guwahati, Assam - 553265","230, Shroff Ganj, Opposite Mall, Guwahati, Assam - 553265",0,,230,Guwahati,553265,Assam,
"81/56, Nigam Path, Above Shop, Coimbatore, Tamil Nadu - 768003","81/56, Nigam Path, Above Shop, Coimbatore, Tamil Nadu - 768003",0,,81/56,Coimbatore,768003,Tamil Nadu,
"19/372, Agate Street, Behind School, Surat, Gujarat - 177687","19/372, Agate Street, Behind School, Surat, Gujarat - 177687",0,,19/372,,395007,Surat,Gujarat
"H.No. 101, Naidu Street, Above Shop, Nashik, Maharashtra - 713449","H.No. 101, Street, Above 713449",1,,H.No. 101,,110036,Above 713449,
"35 Sem Street, Near Park, Raipur, Chhattisgarh - 142000","35 Sem Street, Near Park, Raipur, Chhattisgarh - 142000",0,,35,Raipur,142000,Chhattisgarh,
"91/32, Ben Marg, Above Shop, Kolkata, West Bengal - 787200","91/32, Ben Marg, Above Shop, Kolkata, West Bengal - 787200",0,,91/32,,700020,Kolkata,West Bengal
"H.No. 271 Borah Chowk, Near Park, Hyderabad, Telangana - 945984","271 Borah Chowk, Hyderabad, -",1,,271,,-500008,Hyderabad,
"79/061, Pant, Near Park, Bangalore, Karnataka - 936619","79/061, Pant, Near Park, Bangalore, Karnataka - 936619",0,,79/61,,560061,Bangalore,Karnataka
"H.No. 80, Ranganathan Path, Above Shop, Shimla, Himachal Pradesh - 587387","H.No. 80, Ranganathan Path, Above Shop, Shimla, Himachal Pradesh - 587387",0,,H.No. 80,Shimla,587387,Himachal Pradesh,
"H.No. 61 Kulkarni Ganj, Opposite Mall, Nagpur, Maharashtra - 940570","H.No. 61 Kulkarni Ganj, Opposite Mall, Nagpur, Maharashtra - 940570",0,,H.No. 61,Nagpur,940570,Maharashtra,
"71/32 Aggarwal Circle, Above Shop, Nagpur, Maharashtra - 184558","71/32 Aggarwal Circle, Above Shop, Nagpur, Maharashtra - 184558",0,,71/32,Nagpur,411003,Maharashtra,
"48/27 Purohit Path, Behind School, Mumbai, Maharashtra - 491908","48/27 Purohit Path, Behind School, Mumbai, Maharashtra - 491908",0,,48/27,,491908,Mumbai,Maharashtra
"93/43, Mall Circle, Above Shop, Varanasi, Uttar Pradesh - 501786","93/43, Mall Circle, Above Shop, Varanasi, Uttar Pradesh - 501786",0,,93/43,Varanasi,201306,Uttar Pradesh,
"H.No. 208, Mammen Zila, Near Park, Raipur, Chhattisgarh - 721528","H.No. 208, Mammen Zila, Near Park, Raipur, Chhattisgarh - 721528",0,,H.No. 208,Mammen Zila,721528,Raipur,Chhattisgarh
"H.No. 652, Palan Circle, Opposite Mall, Bhubaneswar, Odisha - 891556","H.No. 652, Palan Circle, Opposite Mall, Bhubaneswar, Odisha - 891556",0,,H.No. 652,Bhubaneswar,700055,Odisha,
"24, Goyal Chowk, Behind School, Vijayawada, Andhra Pradesh - 830387","24, Goyal Chowk, Vijayawada, Andhra",1,,24,Vijayawada,500043,,Andhra
"H.No. 93, Ramanathan Zila, Behind School, Hyderabad, Telangana - 563948","H.No. 93, Ramanathan Zila, Behind School, Hyderabad, Telangana - 563948",0,,H.No. 93,Ramanathan Zilla,563948,Hyderabad,Telangana
"60, Grewal, Near Park, Jamshedpur, Jharkhand - 656877","60, Grewal, Near Park, Jamshedpur, Jharkhand - 656877",0,,60,Jamshedpur,201000,Jharkhand,
"47/899, Anne Marg, Above Shop, Mumbai, Maharashtra - 336158","Marg, Above Mumbai, Maharashtra 336158",1,,,Marg,421608,Above Mumbai,Maharashtra
"H.No. 268, Gara Path, Behind School, Ahmedabad, Gujarat - 019204","H.No. 268, Gara Path, Behind School, Ahmedabad, Gujarat - 019204",0,,H.No. 268,,382204,Ahmedabad,Gujarat
"01/70, Apte Street, Near Park, Ahmedabad, Gujarat - 643250","Apte Near Park, Gujarat -",1,,,Apte,380001,Gujarat,
"H.No. 916, Choudhry, Behind School, Vizag, Andhra Pradesh - 443866","H.No. 916, Choudhry, Behind School, Vizag, Andhra Pradesh - 443866",0,,H.No. 916,Choudhry,443866,Vizag,Andhra Pradesh
"H.No. 642 Dash Circle, Near Park, Chandigarh, Chandigarh - 973639","H.No. 642 Dash Circle, Near Park, Chandigarh, Chandigarh - 973639",0,,H.No. 642,Chandigarh,70063,Chandigarh,
"H.No. 087, Subramaniam Chowk, Near Park, Jamshedpur, Jharkhand - 789276","H.No. 087, Subramaniam Chowk, Near Park, Jamshedpur, Jharkhand - 789276",0,,H.No. 087,Jamshedpur,789276,Jharkhand,
"95/369 Buch Ganj, Above Shop, Kochi, Kerala - 149445","95/369 Buch Ganj, Above Shop, Kochi, Kerala - 149445",0,,95/369,Kochi,594445,Kochi,Kerala
"H.No. 100, Lata Chowk, Opposite Mall, Nagpur, Maharashtra - 323861","H.No. 100, Lata Chowk, Opposite Mall, Nagpur, Maharashtra - 323861",0,,H.No. 100,Nagpur,431861,Maharashtra,
"425, Bains Chowk, Above Shop, Bhubaneswar, Odisha - 619655","425, Bains Chowk, Above Shop, Bhubaneswar, Odisha - 619655",0,,425,Bhubaneswar,619655,Odisha,
"42 Chowdhury Marg, Above Shop, Srinagar, Jammu & Kashmir - 933011","42 Chowdhury Marg, Above Shop, Srinagar, Jammu & Kashmir - 933011",0,,42,Srinagar,933011,Jammu & Kashmir,
"H.No. 550, Narain Nagar, Behind School, Raipur, Chhattisgarh - 151354","H.No. 550, Narain Nagar, Behind School, Raipur, Chhattisgarh - 151354",0,,H.No. 550,Narain Nagar,121354,Raipur,Chhattisgarh
"919, Loyal, Opposite Mall, Indore, Madhya Pradesh - 542449","919, Loyal, Opposite Mall, Indore, Madhya Pradesh - 542449",0,Loyal,919,Indore,542449,Madhya Pradesh,
"87/71 Bhalla Circle, Near Park, Patna, Bihar - 422651","87/71 Bhalla Circle, Near Park, Patna, Bihar - 422651",0,,87/71,Patna,422651,Bihar,
"67/58, Baral Marg, Behind School, Nagpur, Maharashtra - 611975","Baral Marg, Behind Maharashtra 611975",1,,,Behind Maharashtra,411005,,
"619 Bava Zila, Opposite Mall, Surat, Gujarat - 328898","619 Bava Zila, Opposite Mall, Surat, Gujarat - 328898",0,,619 Bava Zila,,395288,Surat,Gujarat
"22/50, Ratta Path, Above Shop, Nagpur, Maharashtra - 942796","22/50, Ratta Path, Nagpur, 942796",1,,22/50,Nagpur,942796,,
"44/07 Shanker Nagar, Opposite Mall, Shimla, Himachal Pradesh - 834488","44/07 Shanker Nagar, Opposite Mall, Shimla, Himachal Pradesh - 834488",0,,44/07,Shimla,834148,Himachal Pradesh,
"41/896 Shetty Ganj, Above Shop, Kolkata, West Bengal - 057341","41/896 Shetty Ganj, Above Shop, Kolkata, West Bengal - 057341",0,,41/896,Shetty Ganj,700001,Kolkata,West Bengal
"66/19 Prabhu Marg, Opposite Mall, Nagpur, Maharashtra - 454387","66/19 Prabhu Marg, Opposite Mall, Nagpur, Maharashtra - 454387",0,,66/19,Nagpur,454387,Maharashtra,
"20/67 Sachdeva Path, Behind School, Meerut, Uttar Pradesh - 649333","Sachdeva Behind Meerut, Pradesh 649333",1,,,Sachdeva Behind Meerut,245303,,UP
"16/317, Jha Circle, Behind School, Aurangabad, Maharashtra - 589708","16/317, Jha Circle, Behind School, Aurangabad, Maharashtra - 589708",0,,16/317,Aurangabad,589708,,Maharashtra
"H.No. 11 Chand, Opposite Mall, Lucknow, Uttar Pradesh - 768872","H.No. 11 Chand, Opposite Mall, Lucknow, Uttar Pradesh - 768872",0,,H.No. 11 Chand,Opposite Mall,201872,Lucknow,Uttar Pradesh
"90 Chowdhury, Near Park, Surat, Gujarat - 497495","90 Chowdhury, Near Park, Surat, Gujarat - 497495",0,,90,,394519,Surat,Gujarat
"H.No. 50, Yohannan Chowk, Behind School, Patna, Bihar - 862220","H.No. 50, Yohannan Chowk, Behind School, Patna, Bihar - 862220",0,,H.No. 50,Patna,862220,,Bihar
"01 Bahl, Near Park, Nagpur, Maharashtra - 490307","01 Bahl, Near Park, Nagpur, Maharashtra - 490307",0,,01 Bahl,Nagpur,490307,Maharashtra,
"51/958, Sidhu Ganj, Above Shop, Chennai, Tamil Nadu - 121057","51/958, Sidhu Ganj, Above Shop, Chennai, Tamil Nadu - 121057",0,,51/958,Sidhu Ganj,600021,Chennai,Tamil Nadu
"33/00 Bath Street, Above Shop, Surat, Gujarat - 093950","33/00 Bath Above Shop, Gujarat",1,,33/00,,380001,Gujarat,
"23/61 Kalla Road, Behind School, Bhubaneswar, Odisha - 385145","23/61 Kalla Road, Behind School, Bhubaneswar, Odisha - 385145",0,,23/61,Bhubaneswar,385145,Odisha,
"H.No. 847, Dhar Zila, Near Park, Aurangabad, Maharashtra - 278690","847, Dhar Zila, Near Park,",1,,847,Dhar Zila,110081,Delhi,
"H.No. 932, Divan, Near Park, Raipur, Chhattisgarh - 585748","932, Near Raipur, Chhattisgarh -",1,,932,Chhattisgarh,110001,,
"H.No. 940, Palla Nagar, Opposite Mall, Coimbatore, Tamil Nadu - 271424","H.No. 940, Palla Nagar, Opposite Mall, Coimbatore, Tamil Nadu - 271424",0,,H.No. 940,Palla Nagar,600124,Coimbatore,Tamil Nadu
"H.No. 34 Kant Road, Opposite Mall, Srinagar, Jammu & Kashmir - 638266","H.No. 34 Kant Road, Opposite Mall, Srinagar, Jammu & Kashmir - 638266",0,,H.No. 34,Srinagar,638266,Jammu & Kashmir,
"H.No. 39, Sabharwal Nagar, Near Park, Shimla, Himachal Pradesh - 740295","H.No. 39, Sabharwal Nagar, Near Park, Shimla, Himachal Pradesh - 740295",0,,H.No. 39,Sabharwal Nagar,740295,Shimla,Himachal Pradesh
"H.No. 236 Chandran Circle, Above Shop, Ludhiana, Punjab - 117779","H.No. 236 Chandran Circle, Above Shop, Ludhiana, Punjab - 117779",0,,H.No. 236,Ludhiana,411779,Punjab,
"H.No. 673, Luthra, Near Park, Raipur, Chhattisgarh - 024094","H.No. 673, Luthra, Near Park, Raipur, Chhattisgarh - 024094",0,,H.No. 673,Luthra,024094,Raipur,Chhattisgarh
"55 Apte Chowk, Behind School, Mumbai, Maharashtra - 616261","55 Apte Chowk, Behind School, Mumbai, Maharashtra - 616261",0,,55,,421601,Mumbai,Maharashtra
"884, Sahni Ganj, Above Shop, Ranchi, Jharkhand - 150773","884, Sahni Ganj, Above Shop, Ranchi, Jharkhand - 150773",0,,884,Sahni Ganj,201073,Ranchi,Jharkhand
"69, Solanki Nagar, Behind School, Patna, Bihar - 069043",Solanki Behind Bihar - 069043,1,,,Solanki,209903,Bihar,
"49 Gupta, Above Shop, Meerut, Uttar Pradesh - 436378","49 Gupta, Above Shop, Meerut, Uttar Pradesh - 436378",0,,49,Gupta,201378,Meerut,Uttar Pradesh
"57, Kaur Road, Near Park, Vizag, Andhra Pradesh - 389206","57, Kaur Road, Near Park, Vizag, Andhra Pradesh - 389206",0,,57,Vizag,389206,Andhra Pradesh,
"H.No. 035 Chadha Circle, Behind School, Pune, Maharashtra - 148192","H.No. 035 Behind School, 148192",1,,H.No. 035,School,148192,,
"03/11 Aggarwal Zila, Above Shop, Ranchi, Jharkhand - 026399","03/11 Aggarwal Zila, Above Shop, Ranchi, Jharkhand - 026399",0,,03/11,Aggarwal Zila,026399,Ranchi,Jharkhand
"250 Verma Circle, Near Park, Hyderabad, Telangana - 810176","250 Verma Circle, Near Park, Hyderabad, Telangana - 810176",0,250 Verma Circle,,,500016,Hyderabad,Telangana
"15/97, Magar, Opposite Mall, Indore, Madhya Pradesh - 535025","15/97, Magar, Opposite Mall, Indore, Madhya Pradesh - 535025",0,,15/97,Magar,535025,Indore,Madhya Pradesh
"84/977, Bhavsar Chowk, Above Shop, Ahmedabad, Gujarat - 354815","84/977, Bhavsar Chowk, Above Shop, Ahmedabad, Gujarat - 354815",0,,84/977,,382415,Ahmedabad,Gujarat
"H.No. 188, Mannan Street, Above Shop, Kochi, Kerala - 366059","H.No. 188, Mannan Street, Above Shop, Kochi, Kerala - 366059",0,,H.No. 188,Kochi,600059,Kochi,Kerala
"75/70 Pradhan Circle, Above Shop, Ludhiana, Punjab - 686433","75/70 Pradhan Circle, Above Shop, Ludhiana, Punjab - 686433",0,,75/70,Ludhiana,686433,Punjab,
"H.No. 86 Kala Chowk, Above Shop, Raipur, Chhattisgarh - 313553","H.No. 86 Kala Chowk, Above Shop, Raipur, Chhattisgarh - 313553",0,,H.No. 86,Raipur,313553,Chhattisgarh,
"99/924 Dutta Ganj, Above Shop, Bangalore, Karnataka - 393706","99/924 Dutta Ganj, Above Shop, Bangalore, Karnataka - 393706",0,,99/924,Dutta Ganj,560026,Bangalore,Karnataka
"40/92, Bakshi Road, Near Park, Surat, Gujarat - 067883","40/92, Bakshi Road, Near Park, Surat, Gujarat - 067883",0,,40/92,,395003,Surat,Gujarat
"683 Das Zila, Opposite Mall, Bangalore, Karnataka - 619484","683 Das Zila, Opposite Mall, Bangalore, Karnataka - 619484",0,,683,Das Zila,560024,Bangalore,Karnataka
"87/050 Arora Zila, Near Park, Dehradun, Uttarakhand - 593935","87/050 Arora Zila, Near Park, Dehradun, Uttarakhand - 593935",0,,87/50,Arora Zila,394335,Dehradun,Uttarakhand
"85 Peri Circle, Opposite Mall, Srinagar, Jammu & Kashmir - 877859","Circle, Mall, Srinagar, Jammu Kashmir -",1,,,Srinagar,700151,Jammu Kashmir,
"44/166 Chandran, Near Park, Jamshedpur, Jharkhand - 686445","44/166 Near Jamshedpur, Jharkhand",1,,44/166,Jamshedpur,700135,,Jharkhand
"44/597 Gara Chowk, Behind School, Vizag, Andhra Pradesh - 805324","44/597 Gara Chowk, Behind School, Vizag, Andhra Pradesh - 805324",0,,44/597,Vizag,500324,Andhra Pradesh,
"34, Goyal, Opposite Mall, Coimbatore, Tamil Nadu - 054075","34, Goyal, Opposite Mall, Coimbatore, Tamil Nadu - 054075",0,,34,Coimbatore,054075,Tamil Nadu,
"H.No. 322, Kaul, Near Park, Ludhiana, Punjab - 201130","H.No. 322, Kaul, Near Park, Ludhiana, Punjab - 201130",0,,H.No. 322,Ludhiana,201130,Punjab,
"H.No. 595 Bava Marg, Behind School, Jamshedpur, Jharkhand - 300537","H.No. 595 Bava Marg, Behind School, Jamshedpur, Jharkhand - 300537",0,,H.No. 595,Jamshedpur,700537,Jharkhand,
"H.No. 29, Khosla Marg, Near Park, Meerut, Uttar Pradesh - 709178","H.No. 29, Khosla Marg, Near Park, Meerut, Uttar Pradesh - 709178",0,,H.No. 29,Meerut,201308,Uttar Pradesh,
"H.No. 20, Agarwal Path, Opposite Mall, Shimla, Himachal Pradesh - 778758","H.No. 20, Agarwal Path, Opposite Mall, Shimla, Himachal Pradesh - 778758",0,,H.No. 20,Shimla,122001,Himachal Pradesh,
"17/51 Barman Chowk, Opposite Mall, Amritsar, Punjab - 300569","17/51 Barman Chowk, Opposite Mall, Amritsar, Punjab - 300569",0,,17/51,Amritsar,300569,Punjab,
"H.No. 243 Dugar Zila, Near Park, Thiruvananthapuram, Kerala - 777336","H.No. 243 Dugar Zila, Near Park, Thiruvananthapuram, Kerala - 777336",0,,H.No. 243,Dugar Zilla,600077,Thiruvananthapuram,Kerala
"43, Chaudhuri, Above Shop, Kolkata, West Bengal - 820816","43, Chaudhuri, Above Shop, Kolkata, West Bengal - 820816",0,,43,Chaudhuri,700016,Kolkata,West Bengal
"85/903, Gara Ganj, Opposite Mall, Nashik, Maharashtra - 992136","85/903, Gara Ganj, Opposite Mall, Nashik, Maharashtra - 992136",0,,85/903,Nashik,421306,,Maharashtra
"83/228, Dua Path, Near Park, Jamshedpur, Jharkhand - 590187","83/228, Dua Path, Near Park, Jamshedpur, Jharkhand - 590187",0,,83/228,Jamshedpur,700137,Jharkhand,
"711, Banerjee Marg, Near Park, Patna, Bihar - 076172","711, Banerjee Marg, Near Park, Patna, Bihar - 076172",0,,711,Patna,760172,Bihar,
"923, Vaidya Circle, Opposite Mall, Bhopal, Madhya Pradesh - 053898","Vaidya Circle, Mall, - 053898",1,Vaidya Circle,,,400098,,
"981, Nazareth Nagar, Near Park, Surat, Gujarat - 807310","981, Nazareth Nagar, Near Park, Surat, Gujarat - 807310",0,,981,Nazareth Nagar,395007,Surat,Gujarat
"H.No. 06 Goswami Marg, Behind School, Indore, Madhya Pradesh - 129712","H.No. 06 Goswami Marg, Behind School, Indore, Madhya Pradesh - 129712",0,,H.No. 06,Indore,129712,Madhya Pradesh,
"H.No. 66 Palla Nagar, Behind School, Bangalore, Karnataka - 172951","H.No. 66 Palla Nagar, Behind School, Bangalore, Karnataka - 172951",0,,H.No. 66,Palla Nagar,562151,Bangalore,Karnataka
"53 Grover Street, Above Shop, Dehradun, Uttarakhand - 142135","53 Grover Street, Above Shop, Dehradun, Uttarakhand - 142135",0,,53,Dehradun,142135,Uttarakhand,
"70, Saxena, Above Shop, Indore, Madhya Pradesh - 726179","70, Saxena, Above Shop, Indore, Madhya Pradesh - 726179",0,,70,Indore,726179,Madhya Pradesh,
"905, Bhatia, Near Park, Jamshedpur, Jharkhand - 281553","905, Bhatia, Near Park, Jamshedpur, Jharkhand - 281553",0,,905,Bhatia,281553,Jamshedpur,Jharkhand
"68/15 Narang Path, Behind School, Indore, Madhya Pradesh - 638344","68/15 Narang Path, Behind School, Indore, Madhya Pradesh - 638344",0,,68/15,Indore,638344,Madhya Pradesh,
"H.No. 74 Pal Road, Above Shop, Hyderabad, Telangana - 519888","H.No. 74 Pal Road, Above Shop, Hyderabad, Telangana - 519888",0,,H.No. 74,,500088,Hyderabad,Telangana
"03/165, Kumer Circle, Behind School, Delhi, Delhi - 746978","03/165, Kumer Circle, Behind School, Delhi, Delhi - 746978",0,,03/165,,110078,Delhi,Delhi
"24 Lata Road, Near Park, Jaipur, Rajasthan - 817269","24 Lata Road, Near Park, Jaipur, Rajasthan - 817269",0,,,Jaipur,817269,Rajasthan,
"03/27, Dugar Path, Above Shop, Chennai, Tamil Nadu - 437192","03/27, Dugar Path, Above Shop, Chennai, Tamil Nadu - 437192",0,,03/27,,603192,Chennai,Tamil Nadu
"91/028, Mangal Path, Above Shop, Mumbai, Maharashtra - 977654","91/028, Mangal Path, Above Shop, Mumbai, Maharashtra - 977654",0,,91/028,,400007,Mumbai,Maharashtra
"48/01, Padmanabhan Zila, Opposite Mall, Nagpur, Maharashtra - 169518","48/01, Padmanabhan Zila, Opposite Mall, Nagpur, Maharashtra - 169518",0,,48/01,Padmanabhan Zila,411518,Nagpur,Maharashtra
"95/780 Date Circle, Behind School, Varanasi, Uttar Pradesh - 686858","95/780 Circle, School, Varanasi, Uttar",1,,95/780,Varanasi,221002,Uttar Pradesh,
"H.No. 220 Sidhu Road, Near Park, Lucknow, Uttar Pradesh - 691120","H.No. 220 Sidhu Road, Near Park, Lucknow, Uttar Pradesh - 691120",0,,H.No. 220,Lucknow,201012,Uttar Pradesh,
"43/11 Dhawan Zila, Above Shop, Coimbatore, Tamil Nadu - 598669","43/11 Dhawan Zila, Above Shop, Coimbatore, Tamil Nadu - 598669",0,,43/11,Dhawan Zilla,598669,Coimbatore,Tamil Nadu
"82/11 Oza Ganj, Opposite Mall, Coimbatore, Tamil Nadu - 762513","82/11 Oza Ganj, Mall, Tamil",1,,82/11,,600001,Tamil Nadu,
"47/87, Bala, Behind School, Amritsar, Punjab - 269494","47/87, Bala, Behind School, Amritsar, Punjab - 269494",0,,47/87,Amritsar,122494,Punjab,
"88 Pillay Street, Opposite Mall, Mumbai, Maharashtra - 443822","88 Pillay Street, Opposite Mall, Mumbai, Maharashtra - 443822",0,,88,,400022,Mumbai,Maharashtra
"54/180, Dar Nagar, Above Shop, Shimla, Himachal Pradesh - 745125","54/180, Dar Nagar, Above Shop, Shimla, Himachal Pradesh - 745125",0,,54/180,Dar Nagar,122105,Shimla,Himachal Pradesh
"H.No. 833 Bumb Zila, Behind School, Srinagar, Jammu & Kashmir - 325616","Zila, Behind School, Jammu & 325616",1,,,Zila,122516,Jammu,
"67/10, Saini Path, Behind School, Guwahati, Assam - 281164","67/10, Saini Path, Behind School, Guwahati, Assam - 281164",0,,67/10,Guwahati,421164,Assam,
"44 Mannan Ganj, Above Shop, Coimbatore, Tamil Nadu - 109864","44 Mannan Ganj, Above Shop, Coimbatore, Tamil Nadu - 109864",0,,44,Coimbatore,109084,Tamil Nadu,
"41 Venkataraman Zila, Opposite Mall, Bangalore, Karnataka - 797030","41 Venkataraman Zila, Opposite Mall, Bangalore, Karnataka - 797030",0,,41,Venkataramana Zilla,797030,Bangalore,Karnataka
"H.No. 37 Joshi Ganj, Near Park, Lucknow, Uttar Pradesh - 505237","H.No. 37 Near Park, Lucknow, Uttar",1,,H.No. 37,Lucknow,201001,Uttar Pradesh,
"H.No. 214, Ben Path, Above Shop, Coimbatore, Tamil Nadu - 575417","H.No. 214, Ben Path, Above Shop, Coimbatore, Tamil Nadu - 575417",0,,H.No. 214,Coimbatore,575117,Tamil Nadu,
"10/83 Kar Path, Above Shop, Mumbai, Maharashtra - 643976","10/83 Kar Path, Above Shop, Mumbai, Maharashtra - 643976",0,,10/83,,400063,Mumbai,Maharashtra
"32/709 Koshy Nagar, Behind School, Kochi, Kerala - 548176","Koshy Nagar, School, Kerala -",1,,,Koshy Nagar,600116,School,Kerala
"H.No. 208 Mandal Street, Above Shop, Thiruvananthapuram, Kerala - 356025","H.No. 208 Mandal Street, Above Shop, Thiruvananthapuram, Kerala - 356025",0,,H.No. 208,Thiruvananthapuram,600025,Kerala,
"046 Bhattacharyya Zila, Behind School, Vijayawada, Andhra Pradesh - 510367","046 Bhattacharyya Zila, Behind School, Vijayawada, Andhra Pradesh - 510367",0,,046,Bhattacharyya Zilla,501367,,Andhra Pradesh
"44/518 Muni Zila, Opposite Mall, Kolkata, West Bengal - 213216","Opposite Mall, West - 213216",1,Opposite Mall,West - 213216,,201306,Noida,
"H.No. 171 Nayar Ganj, Near Park, Pune, Maharashtra - 453120","H.No. 171 Nayar Ganj, Near Park, Pune, Maharashtra - 453120",0,,H.No. 171,Nayar Ganj,412312,Pune,Maharashtra
"H.No. 757 Dhaliwal Road, Near Park, Kolkata, West Bengal - 096998","H.No. 757 Dhaliwal Road, Near Park, Kolkata, West Bengal - 096998",0,,H.No. 757,,700096,Kolkata,West Bengal
"35 Kothari Zila, Opposite Mall, Bhubaneswar, Odisha - 937562","35 Kothari Zila, Opposite Mall, Bhubaneswar, Odisha - 937562",0,,35,Kothari Zila,937562,Bhubaneswar,Odisha
"H.No. 95, Chawla Circle, Opposite Mall, Delhi, Delhi - 938937","H.No. 95, Chawla Circle, Opposite Mall, Delhi, Delhi - 938937",0,,H.No. 95,Delhi,110007,Delhi,
"06, Manne Chowk, Opposite Mall, Bhubaneswar, Odisha - 631163","06, Manne Chowk, Opposite Mall, Bhubaneswar, Odisha - 631163",0,,06,Bhubaneswar,613161,,Odisha
"H.No. 87 Parikh Marg, Opposite Mall, Ahmedabad, Gujarat - 111017","H.No. 87 Parikh Marg, Opposite Mall, Ahmedabad, Gujarat - 111017",0,,H.No. 87,,380001,Ahmedabad,Gujarat
"57/547, Sant Path, Above Shop, Meerut, Uttar Pradesh - 798174","57/547, Sant Path, Above Shop, Meerut, Uttar Pradesh - 798174",0,,57/547,Meerut,201307,Uttar Pradesh,
"362, Kar Ganj, Near Park, Coimbatore, Tamil Nadu - 313141","362, Kar Ganj, Near Park, Coimbatore, Tamil Nadu - 313141",0,,362,Coimbatore,313141,Tamil Nadu,
"H.No. 660, Sami Street, Above Shop, Kochi, Kerala - 277692","H.No. 660, Sami Street, Above Shop, Kochi, Kerala - 277692",0,,H.No. 660,Kochi,700692,Kanchipuram,Kerala
"H.No. 951 Chadha Street, Near Park, Jaipur, Rajasthan - 394027","H.No. 951 Chadha Street, Near Park, Jaipur, Rajasthan - 394027",0,,H.No. 951,Jaipur,394027,Rajasthan,
"84/74, Gara Path, Behind School, Jaipur, Rajasthan - 795520","84/74, Gara Path, Behind School, Jaipur, Rajasthan - 795520",0,,84/74,Jaipur,395520,Rajasthan,
"H.No. 19 Bansal Path, Above Shop, Aurangabad, Maharashtra - 684685","H.No. 19 Bansal Path, Above Shop, Aurangabad, Maharashtra - 684685",0,,H.No. 19,Aurangabad,684685,,Maharashtra
"H.No. 786 Mishra Road, Near Park, Delhi, Delhi - 354197","H.No. 786 Mishra Road, Near Park, Delhi, Delhi - 354197",0,,H.No. 786,Delhi,110074,Delhi,
"50/31, Biswas, Near Park, Nagpur, Maharashtra - 486452","50/31, Biswas, Near Park, Nagpur, Maharashtra - 486452",0,,50/31,Nagpur,411045,Maharashtra,
"02/21, Ratti Chowk, Near Park, Ludhiana, Punjab - 199039","02/21, Ratti Chowk, Near Park, Ludhiana, Punjab - 199039",0,,02/21,Ludhiana,199039,Punjab,
"852 Swamy Zila, Behind School, Meerut, Uttar Pradesh - 866979","852 Swamy Zila, Behind School, Meerut, Uttar Pradesh - 866979",0,,852,Swamy Zila,201003,Meerut,Uttar Pradesh
"03/70, Bal Marg, Behind School, Vijayawada, Andhra Pradesh - 998906","03/70, Bal Marg, Behind School, Vijayawada, Andhra Pradesh - 998906",0,,03/70,Vijayawada,500043,Andhra Pradesh,
"H.No. 52 Sibal Street, Near Park, Chennai, Tamil Nadu - 494216","H.No. 52 Sibal Street, Near Park, Chennai, Tamil Nadu - 494216",0,,H.No. 52,Chennai,600421,Chennai,Tamil Nadu
"65/708, Mannan Road, Opposite Mall, Meerut, Uttar Pradesh - 120664","65/708, Mannan Road, Opposite Mall, Meerut, Uttar Pradesh - 120664",0,,65/708,Meerut,201004,Uttar Pradesh,
"62/76 Mohan Nagar, Opposite Mall, Thiruvananthapuram, Kerala - 835345","62/76 Mohan Nagar, Opposite Mall, Thiruvananthapuram, Kerala - 835345",0,,62/76,Thiruvananthapuram,600118,Kerala,
"H.No. 910 Majumdar Zila, Near Park, Mumbai, Maharashtra - 360245","H.No. 910 Majumdar Zila, Near Park, Mumbai, Maharashtra - 360245",0,,H.No. 910,Majumdar Zila,400245,Mumbai,Maharashtra
"H.No. 03, Ram Zila, Above Shop, Aurangabad, Maharashtra - 546616","H.No. 03, Ram Zila, Above Shop, Aurangabad, Maharashtra - 546616",0,,H.No. 03,Ram Zila,421606,,Maharashtra
"471, Misra Path, Opposite Mall, Vijayawada, Andhra Pradesh - 633997","471, Misra Path, Opposite Mall, Vijayawada, Andhra Pradesh - 633997",0,,471,Vijayawada,500043,Andhra Pradesh,
"96, Solanki Nagar, Behind School, Vizag, Andhra Pradesh - 176432","96, Solanki Nagar, Behind School, Vizag, Andhra Pradesh - 176432",0,,96,Solanki Nagar,562142,Vizag,Andhra Pradesh
"93 Doctor Path, Opposite Mall, Shimla, Himachal Pradesh - 865762","93 Doctor Path, Opposite Mall, Shimla, Himachal Pradesh - 865762",0,,93,Shimla,122102,Himachal Pradesh,
"H.No. 316 Mammen Marg, Near Park, Guwahati, Assam - 984423","H.No. 316 Mammen Marg, Near Park, Guwahati, Assam - 984423",0,,H.No. 316,Guwahati,700001,Assam,
"22, Mandal Chowk, Opposite Mall, Vizag, Andhra Pradesh - 028795","Chowk, Mall, Vizag, Andhra -",1,,,Chowk,500008,Mall,Andhra
"H.No. 581, Saran Circle, Behind School, Patna, Bihar - 235108",H.No. Saran Behind - 235108,1,,Saran,,110108,,
"752 Upadhyay Street, Near Park, Raipur, Chhattisgarh - 467104","752 Upadhyay Street, Near Park, Raipur, Chhattisgarh - 467104",0,,752,Raipur,467104,Chhattisgarh,
"01/515 Kar Nagar, Near Park, Aurangabad, Maharashtra - 603447","01/515 Kar Nagar, Near Park, Aurangabad, Maharashtra - 603447",0,,01/515,Aurangabad,603447,,Maharashtra
"15/378, Tripathi Marg, Opposite Mall, Bangalore, Karnataka - 739445","15/378, Tripathi Marg, Opposite Mall, Bangalore, Karnataka - 739445",0,,15/378,,560045,Bangalore,Karnataka
"H.No. 264 Dash Zila, Behind School, Pune, Maharashtra - 567466","Dash Zila, Pune, - 567466",1,,,Dash Zila,411046,Pune,
"H.No. 862, Dutta Nagar, Behind School, Shimla, Himachal Pradesh - 820278","H.No. 862, Dutta Nagar, Behind School, Shimla, Himachal Pradesh - 820278",0,,H.No. 862,Dutta Nagar,122278,Shimla,Himachal Pradesh
"90, Dhawan Ganj, Above Shop, Varanasi, Uttar Pradesh - 448718","90, Dhawan Ganj, Above Shop, Varanasi, Uttar Pradesh - 448718",0,,90,Dhawan Ganj,221308,Varanasi,Uttar Pradesh
"H.No. 213 Kari Chowk, Behind School, Indore, Madhya Pradesh - 257058","Kari Chowk, Behind Indore, Pradesh 257058",1,,,,257058,Pradesh,
"H.No. 365 Parmar Ganj, Above Shop, Nashik, Maharashtra - 795494","H.No. 365 Parmar Ganj, Above Shop, Nashik, Maharashtra - 795494",0,,H.No. 365,Parmar Ganj,395494,Nashik,Maharashtra
"H.No. 98 Mani Marg, Above Shop, Thiruvananthapuram, Kerala - 036170","H.No. 98 Mani Marg, Above Shop, Thiruvananthapuram, Kerala - 036170",0,,H.No. 98,Thiruvananthapuram,600170,Kerala,
"H.No. 67 Dalal Chowk, Behind School, Mumbai, Maharashtra - 703641","Behind Mumbai, Maharashtra - 703641",1,,,,703641,Mumbai,Maharashtra
"H.No. 045, Arora Nagar, Near Park, Amritsar, Punjab - 980359","H.No. 045, Arora Nagar, Near Park, Amritsar, Punjab - 980359",0,,H.No. 045,Arora Nagar,380059,Amritsar,Punjab
"H.No. 58 Iyer Street, Opposite Mall, Nagpur, Maharashtra - 739343","H.No. Iyer Street, Mall, Nagpur,",1,,,Mall,411001,Nagpur,
"H.No. 549, Deo Ganj, Near Park, Dehradun, Uttarakhand - 209719","H.No. 549, Deo Ganj, Near Park, Dehradun, Uttarakhand - 209719",0,,H.No. 549,Deo Ganj,209119,Dehradun,Uttarakhand
"H.No. 43, Ramesh Ganj, Near Park, Kochi, Kerala - 713170","H.No. Ramesh Ganj, Kerala -",1,,,Ramesh Ganj,560001,,KARNATAKA
"H.No. 663 Chandran Road, Near Park, Varanasi, Uttar Pradesh - 517423","H.No. 663 Chandran Road, Near Park, Varanasi, Uttar Pradesh - 517423",0,,H.No. 663,Varanasi,221302,Uttar Pradesh,
"H.No. 199 Arya Ganj, Opposite Mall, Vizag, Andhra Pradesh - 524663",H.No. 199 Arya Andhra Pradesh 524663,1,,H.No. 199,Arya Andhra Pradesh,524663,,
"636 Wadhwa Road, Above Shop, Coimbatore, Tamil Nadu - 511733","636 Wadhwa Road, Above Shop, Coimbatore, Tamil Nadu - 511733",0,,636,Coimbatore,511333,Tamil Nadu,
"H.No. 76 Koshy Marg, Opposite Mall, Nashik, Maharashtra - 558211","H.No. 76 Koshy Marg, -",1,,H.No. 76,New Delhi,110001,,
"98 Devan Ganj, Behind School, Jaipur, Rajasthan - 381149","Devan Ganj, Behind - 381149",1,,,Devan Ganj,381149,,
"57 Kurian Zila, Near Park, Mumbai, Maharashtra - 681909","57 Kurian Zila, Near Park, Mumbai, Maharashtra - 681909",0,,57,Kurian Zilla,421009,Mumbai,Maharashtra
"25/638 Singhal Road, Behind School, Guwahati, Assam - 523370","25/638 Singhal Road, Behind School, Guwahati, Assam - 523370",0,,25/638,Guwahati,523370,Assam,
"H.No. 994 Bawa Zila, Opposite Mall, Agra, Uttar Pradesh - 790182","H.No. 994 Bawa Zila, Opposite Mall, Agra, Uttar Pradesh - 790182",0,,H.No. 994,Bawa Zila,201018,Agra,Uttar Pradesh
"83, Khosla Street, Above Shop, Surat, Gujarat - 310817","83, Khosla Street, Above Shop, Surat, Gujarat - 310817",0,,83,,394017,Surat,Gujarat
"H.No. 37, Sama Nagar, Behind School, Ludhiana, Punjab - 237887","Sama Behind Ludhiana, Punjab -",1,,,Sama Behind Ludhiana,122101,Punjab,
"43, Bhatia Path, Behind School, Aurangabad, Maharashtra - 189875","43, Bhatia Path, Behind School, Aurangabad, Maharashtra - 189875",0,,43,Aurangabad,412105,,Maharashtra
"15 Thakur Marg, Opposite Mall, Vizag, Andhra Pradesh - 690044","15 Thakur Marg, Opposite Mall, Vizag, Andhra Pradesh - 690044",0,,15,Vizag,500044,Andhra Pradesh,
"29, Menon Ganj, Opposite Mall, Ranchi, Jharkhand - 636005","29, Menon Opposite Ranchi, -",1,,29,,400067,Mumbai,
"55/776 Lad Street, Opposite Mall, Varanasi, Uttar Pradesh - 878064","55/776 Lad Street, Opposite Mall, Varanasi, Uttar Pradesh - 878064",0,,55/776,Varanasi,221004,Uttar Pradesh,
"09/39, Basu Zila, Above Shop, Nagpur, Maharashtra - 659760","09/39, Basu Zila, Above Shop, Nagpur, Maharashtra - 659760",0,,09/39,Basu Zilla,659760,Nagpur,Maharashtra
"149, Natarajan Chowk, Near Park, Jaipur, Rajasthan - 373171","149, Natarajan Chowk, Near Park, Jaipur, Rajasthan - 373171",0,,149,Jaipur,382311,Rajasthan,
"06/10, Ahuja Street, Opposite Mall, Agra, Uttar Pradesh - 493452","06/10, Street, Mall, Agra, Pradesh",1,,06/10,Agra,201001,Pradesh,
"029, Chander, Opposite Mall, Indore, Madhya Pradesh - 741684","029, Chander, Opposite Mall, Indore, Madhya Pradesh - 741684",0,Chander,029,Indore,741684,Madhya Pradesh,
"384, Ray Path, Above Shop, Hyderabad, Telangana - 298810","384, Ray Path, Above Shop, Hyderabad, Telangana - 298810",0,,384,,500081,Hyderabad,Telangana
"06/06, Sachdeva Ganj, Near Park, Vizag, Andhra Pradesh - 698107","06/06, Sachdeva Ganj, Near Park, Vizag, Andhra Pradesh - 698107",0,,06/06,Sachdeva Ganj,698107,Vizag,Andhra Pradesh
"H.No. 764 Kamdar Zila, Above Shop, Jamshedpur, Jharkhand - 727852","764 Zila, Above - 727852",1,,764,Zila,122102,,
"H.No. 59, Madan Nagar, Behind School, Srinagar, Jammu & Kashmir - 544509","H.No. 59, Madan Nagar, Behind School, Srinagar, Jammu & Kashmir - 544509",0,,H.No. 59,Madan Nagar,544509,Srinagar,Jammu & Kashmir
"39/154, Deshpande Circle, Behind School, Meerut, Uttar Pradesh - 979529","39/154, Deshpande Circle, Behind School, Meerut, Uttar Pradesh - 979529",0,,39/154,Meerut,201009,Uttar Pradesh,
"H.No. 67 Kata Nagar, Opposite Mall, Delhi, Delhi - 054664","H.No. 67 Kata Nagar, Opposite Mall, Delhi, Delhi - 054664",0,,H.No. 67,Kata Nagar,110054,Delhi,Delhi
"09, Brar Street, Opposite Mall, Nashik, Maharashtra - 404602","09, Brar Opposite Nashik, Maharashtra",1,,09,,400608,,Maharashtra
"03/53 Gala, Above Shop, Indore, Madhya Pradesh - 676317","03/53 Gala, Above Shop, Indore, Madhya Pradesh - 676317",0,,03/53,Gala,676117,Indore,Madhya Pradesh
"40 Sandal Circle, Above Shop, Raipur, Chhattisgarh - 445192","40 Sandal Circle, Above Shop, Raipur, Chhattisgarh - 445192",0,Sandal Circle,40,Raipur,445192,Chhattisgarh,
"H.No. 396 Mittal Street, Behind School, Ahmedabad, Gujarat - 873270","H.No. 396 Mittal Street, Behind School, Ahmedabad, Gujarat - 873270",0,,H.No. 396,,382270,Ahmedabad,Gujarat
"61/777 Zacharia Ganj, Above Shop, Pune, Maharashtra - 584709","61/777 Zacharia Ganj, Above Shop, Pune, Maharashtra - 584709",0,,61/777,,411009,Pune,Maharashtra
"H.No. 36 Sharma Street, Opposite Mall, Vijayawada, Andhra Pradesh - 230156","H.No. 36 Sharma Street, Opposite Mall, Vijayawada, Andhra Pradesh - 230156",0,,H.No. 36,Vijayawada,500015,Andhra Pradesh,
"424 Kulkarni, Opposite Mall, Hyderabad, Telangana - 100986","Opposite Mall, - 100986",1,Opposite Mall,,,100986,,
"630, Soman Ganj, Opposite Mall, Coimbatore, Tamil Nadu - 670169","630, Soman Ganj, Opposite Mall, Coimbatore, Tamil Nadu - 670169",0,,630,Coimbatore,600069,Tamil Nadu,
"H.No. 57, Goel Circle, Opposite Mall, Vijayawada, Andhra Pradesh - 396038","H.No. 57, Goel Circle, Opposite Mall, Vijayawada, Andhra Pradesh - 396038",0,,H.No. 57,Vijayawada,396038,Andhra Pradesh,
"229 Kapur, Above Shop, Surat, Gujarat - 240928","229 Kapur, Above Shop, Surat, Gujarat - 240928",0,,229,Kapur,394208,Surat,Gujarat
"H.No. 30 Raj Road, Opposite Mall, Ahmedabad, Gujarat - 656476","Raj Opposite Mall, Gujarat 656476",1,Raj,,,396614,Gujarat,
"H.No. 464, Gill Road, Behind School, Raipur, Chhattisgarh - 475993","H.No. 464, Gill Road, Behind School, Raipur, Chhattisgarh - 475993",0,,H.No. 464,Raipur,475993,,Chhattisgarh
"64, Khosla Chowk, Behind School, Surat, Gujarat - 443637",Khosla Behind Gujarat - 443637,1,Khosla,Behind Gujarat,,122001,,
"04/136, Bhatnagar Circle, Above Shop, Vizag, Andhra Pradesh - 525053","04/136, Bhatnagar Circle, Above Shop, Vizag, Andhra Pradesh - 525053",0,,04/136,Vizag,500053,Andhra Pradesh,
"H.No. 05 Borah Nagar, Behind School, Meerut, Uttar Pradesh - 790980","H.No. 05 Borah Nagar, Behind School, Meerut, Uttar Pradesh - 790980",0,,H.No. 05,Borah Nagar,201003,Meerut,Uttar Pradesh
"H.No. 928 Sanghvi Street, Behind School, Ranchi, Jharkhand - 184794","Sanghvi Street, Behind School, -",1,,,Behind School,400058,Mumbai,
"H.No. 30, Apte, Above Shop, Coimbatore, Tamil Nadu - 396707","H.No. 30, Apte, Above Shop, Coimbatore, Tamil Nadu - 396707",0,,H.No. 30,Apte,396007,Coimbatore,Tamil Nadu
"041 Bhatti, Near Park, Varanasi, Uttar Pradesh - 480818","041 Bhatti, Near Park, Varanasi, Uttar Pradesh - 480818",0,,041 Bhatti,Varanasi,201008,Uttar Pradesh,
"48/026 Chana Street, Above Shop, Surat, Gujarat - 589471","48/026 Chana Street, Above Shop, Surat, Gujarat - 589471",0,,48/026,,395014,Surat,Gujarat
"H.No. 415, Kala Ganj, Behind School, Vijayawada, Andhra Pradesh - 486831","H.No. 415, Kala Ganj, Behind School, Vijayawada, Andhra Pradesh - 486831",0,,H.No. 415,Kala Ganj,486311,Vijayawada,Andhra Pradesh
"H.No. 391 Kibe Zila, Behind School, Thiruvananthapuram, Kerala - 175981","391 Kibe Zila, Thiruvananthapuram, -",1,,391,Kibe Zilla,-600077,Thiruvananthapuram,
"225 Nanda Marg, Behind School, Bhubaneswar, Odisha - 376059","225 School, Bhubaneswar, Odisha 376059",1,,225,Bhubaneswar,380059,Odisha,
"H.No. 150, Maharaj Path, Opposite Mall, Guwahati, Assam - 434111","H.No. 150, Maharaj Path, Opposite Mall, Guwahati, Assam - 434111",0,,H.No. 150,Guwahati,411001,Assam,
"99/47 Dara Chowk, Above Shop, Vizag, Andhra Pradesh - 507795","99/47 Dara Chowk, Above Shop, Vizag, Andhra Pradesh - 507795",0,,99/47,Vizag,500079,Andhra Pradesh,
"333, Buch Path, Near Park, Coimbatore, Tamil Nadu - 611443","333, Buch Path, - 611443",1,,333,,611443,,
"76, Agate Road, Near Park, Bhopal, Madhya Pradesh - 312911","76, Agate Road, Near Park, Bhopal, Madhya Pradesh - 312911",0,,76,Bhopal,312911,Madhya Pradesh,
"24 Dasgupta Ganj, Near Park, Thiruvananthapuram, Kerala - 486538","24 Dasgupta Ganj, Near Park, Thiruvananthapuram, Kerala - 486538",0,,24,Thiruvananthapuram,600038,Kerala,
"H.No. 236, Sastry Road, Opposite Mall, Ahmedabad, Gujarat - 208317","H.No. 236, Sastry Road, Opposite Mall, Ahmedabad, Gujarat - 208317",0,,H.No. 236,,380017,Ahmedabad,Gujarat
"H.No. 539 Nagi Path, Near Park, Hyderabad, Telangana - 534000","H.No. 539 Nagi Path, Near Park, Hyderabad, Telangana - 534000",0,,H.No. 539,,500000,Hyderabad,Telangana
"71/35 Naidu Road, Above Shop, Vizag, Andhra Pradesh - 418867","71/35 Naidu Road, Above Shop, Vizag, Andhra Pradesh - 418867",0,,71/35,Vizag,418867,Andhra Pradesh,
"49/128 Kothari Zila, Opposite Mall, Hyderabad, Telangana - 625183","49/128 Zila, Mall, Hyderabad, Telangana",1,,49/128,Zilla,500064,Hyderabad,Telangana
"265 Nagi, Above Shop, Surat, Gujarat - 119862","265 Nagi, Above Shop, Surat, Gujarat - 119862",0,,265,Nagi,394162,Surat,Gujarat
"H.No. 50 Sha Circle, Near Park, Jaipur, Rajasthan - 599432","H.No. 50 Sha Circle, Near Park, Jaipur, Rajasthan - 599432",0,,H.No. 50,Jaipur,599432,Rajasthan,
"48 Chana Ganj, Behind School, Chennai, Tamil Nadu - 672923","48 Chana Ganj, Behind School, Chennai, Tamil Nadu - 672923",0,,48,,672923,Chennai,Tamil Nadu
"56, Reddy Street, Above Shop, Hyderabad, Telangana - 226617","56, Reddy Street, Above Shop, Hyderabad, Telangana - 226617",0,,56,,500067,Hyderabad,Telangana
"37/853 Bassi Road, Above Shop, Kochi, Kerala - 249982","37/853 Bassi Road, Above Shop, Kochi, Kerala - 249982",0,,37/853,Kochi,600028,Kochi,Kerala
"H.No. 890 Prakash Nagar, Near Park, Thiruvananthapuram, Kerala - 145371","890 Nagar, Near - 145371",1,,890,Nagar,110031,,
"49/43, Sachar Chowk, Above Shop, Hyderabad, Telangana - 646213","49/43, Sachar Chowk, Above Shop, Hyderabad, Telangana - 646213",0,,49/43,,500006,Hyderabad,Telangana
"H.No. 897, Manda Path, Opposite Mall, Ranchi, Jharkhand - 936560","897, Mall, Ranchi, - 936560",1,,897,Ranchi,936560,,
"H.No. 722 Shan, Behind School, Nagpur, Maharashtra - 290465","H.No. 722 Shan, Behind School, Nagpur, Maharashtra - 290465",0,,H.No. 722,Shan,430465,Nagpur,Maharashtra
"033 Prabhu Marg, Near Park, Srinagar, Jammu & Kashmir - 836915","033 Prabhu Marg, Near Park, Srinagar, Jammu & Kashmir - 836915",0,,,Srinagar,836115,Jammu & Kashmir,
"262 Chanda Street, Opposite Mall, Shimla, Himachal Pradesh - 110614","262 Chanda Street, Opposite Mall, Shimla, Himachal Pradesh - 110614",0,,262,Shimla,110114,Himachal Pradesh,
"33/81 Ranganathan Circle, Near Park, Chandigarh, Chandigarh - 413100","33/81 Ranganathan Circle, Near Park, Chandigarh, Chandigarh - 413100",0,,33/81,Chandigarh,413101,Chandigarh,
"H.No. 27 Bandi Nagar, Above Shop, Jamshedpur, Jharkhand - 173122","H.No. 27 Bandi Nagar, Above Shop, Jamshedpur, Jharkhand - 173122",0,,H.No. 27,Bandi Nagar,213312,Jamshedpur,Jharkhand
"H.No. 18, Chawla, Near Park, Nagpur, Maharashtra - 743872","H.No. 18, Chawla, Near Park, Nagpur, Maharashtra - 743872",0,,H.No. 18,Chawla,743872,Nagpur,Maharashtra
"63, Karnik Zila, Near Park, Jaipur, Rajasthan - 679711","63, Karnik Zila, Near Park, Jaipur, Rajasthan - 679711",0,,63,Karnik Zila,379711,Jaipur,Rajasthan
"69, Som Nagar, Behind School, Hyderabad, Telangana - 198915","69, Som Nagar, Behind School, Hyderabad, Telangana - 198915",0,,69,Som Nagar,500015,Hyderabad,Telangana
"69/807, Bumb Road, Opposite Mall, Chandigarh, Chandigarh - 795981","Opposite Mall, Chandigarh, Chandigarh -",1,,,,700150,Chandigarh,Chandigarh
"08 Modi Nagar, Above Shop, Kochi, Kerala - 906040","08 Nagar, Shop, Kerala 906040",1,,08,Nagar,600040,,Kerala
"980, Dey Ganj, Behind School, Ranchi, Jharkhand - 298803","980, Dey Ganj, Behind School, Ranchi, Jharkhand - 298803",0,,980,Ranchi,298803,Jharkhand,
"H.No. 15 Thaker Chowk, Near Park, Chennai, Tamil Nadu - 537479","H.No. 15 Thaker Chowk, Near Park, Chennai, Tamil Nadu - 537479",0,,H.No. 15,Chennai,603479,Chennai,Tamil Nadu
"74 Borde Circle, Near Park, Varanasi, Uttar Pradesh - 201419","74 Borde Circle, Near Park, Varanasi, Uttar Pradesh - 201419",0,,,Varanasi,201004,Uttar Pradesh,
"052, Parekh Nagar, Opposite Mall, Bangalore, Karnataka - 133251","052, Parekh Nagar, Opposite Mall, Bangalore, Karnataka - 133251",0,,052,Parekh Nagar,560031,Bangalore,Karnataka
"930, Bumb Chowk, Opposite Mall, Guwahati, Assam - 022920","930, Bumb Chowk, Opposite Mall, Guwahati, Assam - 022920",0,,930,Guwahati,220092,Assam,
"01/64 Narain Circle, Near Park, Kolkata, West Bengal - 764601","01/64 Narain Circle, Near Park, Kolkata, West Bengal - 764601",0,,01/64,,700061,Kolkata,West Bengal
"40/274 Kunda Ganj, Behind School, Surat, Gujarat - 012412","40/274 Kunda School, Surat, Gujarat",1,,40/274,,395007,Surat,Gujarat
"68/680 Karpe Chowk, Above Shop, Srinagar, Jammu & Kashmir - 118478","68/680 Karpe Chowk, Above Shop, Srinagar, Jammu & Kashmir - 118478",0,,68/680,Srinagar,110478,Jammu & Kashmir,
"861, Sant Path, Above Shop, Agra, Uttar Pradesh - 435355","861, Sant Path, Above Shop, Agra, Uttar Pradesh - 435355",0,,861,Agra,201355,Uttar Pradesh,
"51/49, Sarna Ganj, Near Park, Lucknow, Uttar Pradesh - 136397","51/49, Sarna Ganj, Near Park, Lucknow, Uttar Pradesh - 136397",0,,51/49,Lucknow,201397,Lucknow,Uttar Pradesh
"H.No. 72 Bawa Zila, Above Shop, Meerut, Uttar Pradesh - 317713","H.No. 72 Bawa Zila, Above Shop, Meerut, Uttar Pradesh - 317713",0,,H.No. 72,Bawa Zila,201313,Meerut,Uttar Pradesh
"H.No. 872, Tandon Zila, Above Shop, Jaipur, Rajasthan - 547753","H.No. 872, Tandon Zila, Above Shop, Jaipur, Rajasthan - 547753",0,,H.No. 872,Tandon Zila,574753,Jaipur,Rajasthan
"60/29 Bahri Marg, Near Park, Ranchi, Jharkhand - 624078","60/29 Bahri Marg, Near Park, Ranchi, Jharkhand - 624078",0,,60/29,Ranchi,624078,Jharkhand,
"54 Mani Road, Opposite Mall, Ludhiana, Punjab - 543822","54 Mani Road, Opposite Mall, Ludhiana, Punjab - 543822",0,,54,Ludhiana,543222,Punjab,
"60/36, Ram Marg, Behind School, Hyderabad, Telangana - 391251","60/36, Ram School, Hyderabad, Telangana",1,,60/36,,500006,Hyderabad,Telangana
"889 Deo Marg, Near Park, Jaipur, Rajasthan - 353479","889 Deo Near Park, 353479",1,,889 Deo,Near Park,353479,,
"108 Kadakia Road, Above Shop, Jamshedpur, Jharkhand - 603133","108 Kadakia Road, Above Shop, Jamshedpur, Jharkhand - 603133",0,,108,Jamshedpur,203133,Jharkhand,
"86/42, Dixit Marg, Above Shop, Guwahati, Assam - 937779","86/42, Dixit Marg, Above Shop, Guwahati, Assam - 937779",0,,86/42,Guwahati,937779,Assam,
"H.No. 268 Bera Circle, Near Park, Thiruvananthapuram, Kerala - 730800","H.No. 268 Bera Circle, Near Park, Thiruvananthapuram, Kerala - 730800",0,,H.No. 268,Thiruvananthapuram,700080,Kerala,
"47 Gokhale Ganj, Near Park, Jamshedpur, Jharkhand - 691956","47 Gokhale Ganj, Near Park, Jamshedpur, Jharkhand - 691956",0,,47,Jamshedpur,691356,Jharkhand,
"44/44, Chawla Zila, Near Park, Chandigarh, Chandigarh - 230322","44/44, Chawla Zila, Near Park, Chandigarh, Chandigarh - 230322",0,,44/44,Chawla Zila,210322,Chandigarh,
"H.No. 44 Misra, Behind School, Raipur, Chhattisgarh - 243703","H.No. 44 Misra, Behind School, Raipur, Chhattisgarh - 243703",0,,H.No. 44,Raipur,243703,Chhattisgarh,
"228 Gade Circle, Behind School, Surat, Gujarat - 014919","228 Gade Circle, Behind School, Surat, Gujarat - 014919",0,,228,,394019,Surat,Gujarat
"805 Suri, Opposite Mall, Pune, Maharashtra - 152043","805 Suri, Mall, Pune,",1,,805 Suri,Mall,411037,Pune,
"09/567 Balakrishnan Street, Opposite Mall, Meerut, Uttar Pradesh - 378326","09/567 Balakrishnan Street, Opposite Mall, Meerut, Uttar Pradesh - 378326",0,,09/567,Meerut,201306,Uttar Pradesh,
"017 Bhalla Ganj, Behind School, Vijayawada, Andhra Pradesh - 038970","017 Bhalla Ganj, Behind School, Vijayawada, Andhra Pradesh - 038970",0,,017,Bhalla Ganj,380970,Vijayawada,Andhra Pradesh
"H.No. 39 Lad Circle, Behind School, Coimbatore, Tamil Nadu - 142986","H.No. 39 Lad Circle, Behind School, Coimbatore, Tamil Nadu - 142986",0,,H.No. 39,Coimbatore,600012,Tamil Nadu,
"89/22 Bhandari Nagar, Near Park, Ahmedabad, Gujarat - 985528","89/22 Bhandari Nagar, Near Park, Ahmedabad, Gujarat - 985528",0,,89/22,Bhandari Nagar,380008,Ahmedabad,Gujarat
"26/91 Gandhi Marg, Behind School, Vijayawada, Andhra Pradesh - 789563","26/91 Gandhi Marg, Behind School, Vijayawada, Andhra Pradesh - 789563",0,,26/91,Vijayawada,789563,Andhra Pradesh,
"577 Narasimhan Street, Above Shop, Bangalore, Karnataka - 967268","577 Narasimhan Street, Above Shop, Bangalore, Karnataka - 967268",0,,577,,560067,Bangalore,Karnataka
"H.No. 418, Dube, Behind School, Surat, Gujarat - 452482","H.No. 418, Dube, Behind 452482",1,,H.No. 418,Dube,122482,,
"H.No. 496, Kade Marg, Near Park, Raipur, Chhattisgarh - 332426","H.No. 496, Kade Marg, Near Park, Raipur, Chhattisgarh - 332426",0,,H.No. 496,Raipur,421302,Chhattisgarh,
"H.No. 000 Gola Ganj, Opposite Mall, Aurangabad, Maharashtra - 352240","H.No. 000 Gola Ganj, Opposite Mall, Aurangabad, Maharashtra - 352240",0,,H.No. 000,Aurangabad,412204,,Maharashtra
"39/529, Kannan Nagar, Near Park, Thiruvananthapuram, Kerala - 337615","Kannan Nagar, Near Kerala 337615",1,,,Kannan Nagar,700161,Near Kerala,
"H.No. 931, Sachar Ganj, Above Shop, Ludhiana, Punjab - 378381","H.No. 931, Sachar Ganj, Above Shop, Ludhiana, Punjab - 378381",0,,H.No. 931,Sachar Ganj,382381,Ludhiana,Punjab
"H.No. 311 Wable Street, Above Shop, Lucknow, Uttar Pradesh - 215831","H.No. 311 Wable Street, Above Shop, Lucknow, Uttar Pradesh - 215831",0,,H.No. 311,Lucknow,201318,Uttar Pradesh,
"H.No. 15, Devi Zila, Opposite Mall, Indore, Madhya Pradesh - 225966","H.No. 15, Devi Zila, Opposite Mall, Indore, Madhya Pradesh - 225966",0,,H.No. 15,Devi Zila,421306,Indore,Madhya Pradesh
"52/12 Sachar Path, Above Shop, Nagpur, Maharashtra - 946292","52/12 Sachar Path, Above Shop, Nagpur, Maharashtra - 946292",0,,52/12,Nagpur,946292,Maharashtra,
"H.No. 84 Kar Road, Opposite Mall, Bangalore, Karnataka - 577792","H.No. 84 Kar Road, Opposite Mall, Bangalore, Karnataka - 577792",0,,H.No. 84,,577792,Bangalore,Karnataka
"25, Grover Marg, Near Park, Mumbai, Maharashtra - 080007","25, Grover Marg, Near Park, Mumbai, Maharashtra - 080007",0,,25,,400007,Mumbai,Maharashtra
"51, Mukherjee Road, Opposite Mall, Bangalore, Karnataka - 222669","51, Mukherjee Road, Opposite Mall, Bangalore, Karnataka - 222669",0,,51,,560069,Bangalore,Karnataka
"68/559, Bava, Opposite Mall, Surat, Gujarat - 958267","68/559, Bava, Opposite Mall, Surat, Gujarat - 958267",0,,68/559,,395007,Surat,Gujarat
"86/90 Magar Path, Opposite Mall, Ahmedabad, Gujarat - 217612","86/90 Magar Path, Opposite Mall, Ahmedabad, Gujarat - 217612",0,,86/90,,382161,Ahmedabad,Gujarat
"H.No. 32 Basu Road, Above Shop, Lucknow, Uttar Pradesh - 905403","H.No. 32 Basu Road, Above Shop, Lucknow, Uttar Pradesh - 905403",0,,H.No. 32,Lucknow,201403,Lucknow,Uttar Pradesh
"22 Suresh Path, Above Shop, Raipur, Chhattisgarh - 873598","22 Suresh Path, Above Shop, Raipur, Chhattisgarh - 873598",0,,22,Raipur,873598,Chhattisgarh,
"70 Deep Chowk, Near Park, Jaipur, Rajasthan - 704620","70 Deep Chowk, Near Park, Jaipur, Rajasthan - 704620",0,,,Jaipur,704120,Rajasthan,
"15, Prabhu Chowk, Opposite Mall, Vizag, Andhra Pradesh - 463804","15, Prabhu Chowk, Opposite Mall, Vizag, Andhra Pradesh - 463804",0,,15,Vizag,463804,Andhra Pradesh,
"453, Khosla, Opposite Mall, Kochi, Kerala - 813000","453, Khosla, Opposite Mall, Kochi, Kerala - 813000",0,,453,Khosla,813001,Kochi,Kerala
"47/10, Sen Road, Opposite Mall, Aurangabad, Maharashtra - 044713","Opposite Mall, Aurangabad, - 044713",1,,,Opposite Mall,044713,Aurangabad,
"074, Dhawan Chowk, Above Shop, Amritsar, Punjab - 504539","074, Dhawan Chowk, Above Shop, Amritsar, Punjab - 504539",0,,074,Amritsar,504539,Punjab,
"H.No. 15 Parmar Ganj, Behind School, Vijayawada, Andhra Pradesh - 185118","H.No. 15 Parmar Ganj, Behind School, Vijayawada, Andhra Pradesh - 185118",0,,H.No. 15,Parmar Ganj,501118,Vijayawada,Andhra Pradesh
"845, Madan Ganj, Behind School, Nashik, Maharashtra - 545257","845, Madan Ganj, Behind School, Nashik, Maharashtra - 545257",0,,845,Madan Ganj,421505,Nashik,Maharashtra
"61, Acharya Path, Near Park, Meerut, Uttar Pradesh - 607453","61, Acharya Path, Near Park, Meerut, Uttar Pradesh - 607453",0,,61,Meerut,201053,Uttar Pradesh,
"964 Kata Nagar, Above Shop, Shimla, Himachal Pradesh - 788673","964 Kata Nagar, Above Shop, Shimla, Himachal Pradesh - 788673",0,,964,Kata Nagar,122103,Shimla,Himachal Pradesh
"391 Bir Street, Above Shop, Coimbatore, Tamil Nadu - 488294","391 Bir Street, Above Shop, Coimbatore, Tamil Nadu - 488294",0,,391,Coimbatore,488294,Tamil Nadu,
"031 Narula Ganj, Near Park, Nagpur, Maharashtra - 652765","031 Narula Ganj, Near Park, Nagpur, Maharashtra - 652765",0,,031,Nagpur,421305,Maharashtra,
"974, Sibal Nagar, Above Shop, Hyderabad, Telangana - 298564","974, Sibal Nagar, Above Shop, Hyderabad, Telangana - 298564",0,,974,Sibal Nagar,500064,Hyderabad,Telangana
"H.No. 97, Dass, Near Park, Ludhiana, Punjab - 650750","97, Dass, Near - 650750",1,,97,,110050,,
"92/69, Shanker, Opposite Mall, Varanasi, Uttar Pradesh - 407339","92/69, Shanker, Opposite Mall, Varanasi, Uttar Pradesh - 407339",0,,92/69,Varanasi,201339,Uttar Pradesh,
"360 Dixit Street, Behind School, Aurangabad, Maharashtra - 708468","360 Dixit Street, Behind School, Aurangabad, Maharashtra - 708468",0,,360 Dixit Street,Aurangabad,410468,,Maharashtra
"30/44 Agarwal Nagar, Opposite Mall, Aurangabad, Maharashtra - 123338","30/44 Agarwal Nagar, Opposite Mall, Aurangabad, Maharashtra - 123338",0,,30/44,Aurangabad,123338,,Maharashtra
"H.No. 27 Goswami Chowk, Opposite Mall, Indore, Madhya Pradesh - 144445","H.No. 27 Goswami Chowk, Opposite Mall, Indore, Madhya Pradesh - 144445",0,,H.No. 27,Indore,144445,Madhya Pradesh,
"H.No. 808, Rau Circle, Behind School, Pune, Maharashtra - 565346","H.No. 808, Rau Circle, Behind School, Pune, Maharashtra - 565346",0,,H.No. 808,Pune,411346,Pune,Maharashtra
"42, Barad, Near Park, Pune, Maharashtra - 380548","42, Barad, Near Park, Pune, Maharashtra - 380548",0,,42,Pune,411048,Pune,Maharashtra
"H.No. 371 Rattan Road, Opposite Mall, Vizag, Andhra Pradesh - 936945",H.No. 371 Rattan Andhra Pradesh 936945,1,,H.No. 371,Rattan,936945,,Andhra Pradesh
"H.No. 46, Chaudhary, Near Park, Delhi, Delhi - 599758","H.No. 46, Chaudhary, Near Park, Delhi, Delhi - 599758",0,,H.No. 46,Chaudhary,110078,Delhi,Delhi
"43, Bhatti Path, Above Shop, Delhi, Delhi - 348396","Above Shop, Delhi - 348396",1,Above Shop,,,110396,Delhi,
"38/061 Doshi Marg, Above Shop, Kochi, Kerala - 416722","38/061 Doshi Marg, Above Shop, Kochi, Kerala - 416722",0,,38/061,Kochi,600022,Kanchipuram,Kerala
"22/72, Ramesh Road, Opposite Mall, Shimla, Himachal Pradesh - 463881","22/72, Ramesh Road, Opposite Mall, Shimla, Himachal Pradesh - 463881",0,,22/72,Shimla,463881,Himachal Pradesh,
"H.No. 98 Swamy Path, Above Shop, Bhubaneswar, Odisha - 418442","H.No. 98 Swamy Path, Above Shop, Bhubaneswar, Odisha - 418442",0,,H.No. 98,Bhubaneswar,411084,,Odisha
"H.No. 619 Ramaswamy Marg, Above Shop, Coimbatore, Tamil Nadu - 268532","H.No. 619 Ramaswamy Shop, Tamil 268532",1,,H.No. 619,Tamil 268532,600032,,
"96 Tank Marg, Above Shop, Nagpur, Maharashtra - 176385","96 Tank Marg, Above Shop, Nagpur, Maharashtra - 176385",0,,96,Nagpur,411003,Maharashtra,
"96/612 Vala Zila, Above Shop, Thiruvananthapuram, Kerala - 116168","Zila, Above Shop, Kerala 116168",1,,,Zila,562168,,KARNATAKA
"H.No. 43, Goel Nagar, Above Shop, Bhopal, Madhya Pradesh - 680571","H.No. 43, Goel Nagar, Above Shop, Bhopal, Madhya Pradesh - 680571",0,,H.No. 43,Goel Nagar,680571,Bhopal,Madhya Pradesh
"501, Chandra Nagar, Opposite Mall, Dehradun, Uttarakhand - 158926","501, Chandra Nagar, Opposite Mall, Dehradun, Uttarakhand - 158926",0,,501,Chandra Nagar,122926,Dehradun,Uttarakhand
"H.No. 96, Merchant Zila, Opposite Mall, Shimla, Himachal Pradesh - 263079","H.No. 96, Merchant Zila, Opposite Mall, Shimla, Himachal Pradesh - 263079",0,,H.No. 96,Merchant Zila,122079,Shimla,Himachal Pradesh
"056, Pal, Above Shop, Jaipur, Rajasthan - 522360","056, Pal, Above Shop, Jaipur, Rajasthan - 522360",0,,056,Pal,122260,Jaipur,Rajasthan
"H.No. 127 Mitter Street, Above Shop, Chennai, Tamil Nadu - 968219","127 Mitter Street, Tamil Nadu 968219",1,,127,,600219,,Tamil Nadu
"74/41, Parmar Zila, Above Shop, Ludhiana, Punjab - 406681","74/41, Parmar Zila, Above Shop, Ludhiana, Punjab - 406681",0,,74/41,Parmar Zila,406681,Ludhiana,Punjab
"H.No. 69, Seshadri Zila, Behind School, Dehradun, Uttarakhand - 582413","H.No. 69, Seshadri Zila, Behind School, Dehradun, Uttarakhand - 582413",0,,H.No. 69,Seshadri Zilla,582413,Dehradun,Uttarakhand
"H.No. 619, Purohit Street, Opposite Mall, Vijayawada, Andhra Pradesh - 071102","H.No. 619, Purohit Street, Opposite Mall, Vijayawada, Andhra Pradesh - 071102",0,,H.No. 619,Vijayawada,501102,Andhra Pradesh,
"H.No. 233, Virk Street, Above Shop, Nagpur, Maharashtra - 758610","H.No. 233, Virk Street, Above Shop, Nagpur, Maharashtra - 758610",0,,H.No. 233,Nagpur,758610,Maharashtra,
"02 Nori Marg, Behind School, Vijayawada, Andhra Pradesh - 659952",02 Behind Andhra Pradesh 659952,1,,02,Andhra Pradesh,659952,,
"30 Babu Nagar, Near Park, Jamshedpur, Jharkhand - 846882","30 Babu Nagar, Near Park, Jamshedpur, Jharkhand - 846882",0,,30,Jamshedpur,201002,Jharkhand,
"625 Pathak Zila, Opposite Mall, Kolkata, West Bengal - 668784","625 Pathak Zila, Opposite Mall, Kolkata, West Bengal - 668784",0,,625,,700084,Kolkata,West Bengal
"502 Ravel Road, Opposite Mall, Ahmedabad, Gujarat - 299317","502 Ravel Road, Opposite Mall, Ahmedabad, Gujarat - 299317",0,,502,,382331,Ahmedabad,Gujarat
"H.No. 037 Char Nagar, Behind School, Bangalore, Karnataka - 722424","H.No. 037 Char Nagar, Behind School, Bangalore, Karnataka - 722424",0,,H.No. 037,Char Nagar,562124,Bangalore,Karnataka
"13, Kant Circle, Near Park, Ahmedabad, Gujarat - 216934","13, Kant Circle, Near Park, Ahmedabad, Gujarat - 216934",0,,13,Ahmedabad,382340,Ahmedabad,Gujarat
"H.No. 263, Minhas Street, Near Park, Guwahati, Assam - 173894","H.No. 263, Minhas Street, Near Park, Guwahati, Assam - 173894",0,,H.No. 263,Guwahati,743174,Assam,
"48/17 Ramanathan, Opposite Mall, Jamshedpur, Jharkhand - 038042","48/17 Ramanathan, Opposite Mall, Jamshedpur, Jharkhand - 038042",0,,48/17,Jamshedpur,038042,Jharkhand,
"14/288 Murthy Circle, Near Park, Bhubaneswar, Odisha - 962791","14/288 Murthy Circle, Near Park, Bhubaneswar, Odisha - 962791",0,,14/288,Bhubaneswar,700091,Odisha,
"32/319 Sangha Street, Opposite Mall, Chandigarh, Chandigarh - 788370","32/319 Sangha Street, Opposite Mall, Chandigarh, Chandigarh - 788370",0,,32/319,Chandigarh,700370,Chandigarh,
"825 Sane Marg, Behind School, Kolkata, West Bengal - 322871","825 Sane Marg, Behind School, Kolkata, West Bengal - 322871",0,,825,,700271,Kolkata,West Bengal
"09/067 Ray Circle, Behind School, Ahmedabad, Gujarat - 478580","09/067 Ray Circle, Behind School, Ahmedabad, Gujarat - 478580",0,,09/067,,382580,Ahmedabad,Gujarat
"H.No. 48 Pai Nagar, Above Shop, Ahmedabad, Gujarat - 116146","H.No. 48 Pai Nagar, Above Shop, Ahmedabad, Gujarat - 116146",0,,H.No. 48,Pai Nagar,382146,Ahmedabad,Gujarat
"H.No. 834, Subramaniam Chowk, Above Shop, Lucknow, Uttar Pradesh - 480233","H.No. 834, Subramaniam Chowk, Above Shop, Lucknow, Uttar Pradesh - 480233",0,,H.No. 834,Lucknow,201033,Uttar Pradesh,
"217, Raman Zila, Behind School, Bangalore, Karnataka - 034035","217, Raman Zila, Behind School, Bangalore, Karnataka - 034035",0,,217,Raman Zilla,560043,Bangalore,Karnataka
"43/303 Sule Ganj, Opposite Mall, Ahmedabad, Gujarat - 524541","43/303 Sule Ganj, Opposite Mall, Ahmedabad, Gujarat - 524541",0,,43/303,,382415,Ahmedabad,Gujarat
"74 Oak Road, Opposite Mall, Dehradun, Uttarakhand - 339500","Oak Road, Opposite Mall, Uttarakhand",1,,,Uttarakhand,201301,,
"738 Devan, Opposite Mall, Chandigarh, Chandigarh - 860774","Devan, Opposite Chandigarh, Chandigarh",1,Devan,,Chandigarh,700150,Chandigarh,
"86/950 Kala, Behind School, Varanasi, Uttar Pradesh - 065574","86/950 Kala, Behind School, Varanasi, Uttar Pradesh - 065574",0,,86/950,Kala,201574,Varanasi,Uttar Pradesh
"30 Bahri Road, Near Park, Surat, Gujarat - 513363","30 Bahri Road, Near Park, Surat, Gujarat - 513363",0,,30,Surat,395003,Surat,Gujarat
"H.No. 234, Arora, Above Shop, Vijayawada, Andhra Pradesh - 093939","H.No. 234, Arora, Above Shop, Vijayawada, Andhra Pradesh - 093939",0,,H.No. 234,Vijayawada,093939,Andhra Pradesh,
"72 Ratta Zila, Behind School, Raipur, Chhattisgarh - 668144","72 Ratta Zila, Behind School, Raipur, Chhattisgarh - 668144",0,,,Raipur,668144,Chhattisgarh,
"H.No. 33 Dua Chowk, Opposite Mall, Coimbatore, Tamil Nadu - 439352","H.No. 33 Dua Chowk, Opposite Mall, Coimbatore, Tamil Nadu - 439352",0,,H.No. 33,Coimbatore,439352,Tamil Nadu,
"H.No. 142 Khanna Marg, Opposite Mall, Ludhiana, Punjab - 233950","H.No. 142 Khanna Marg, Opposite Mall, Ludhiana, Punjab - 233950",0,,H.No. 142,Ludhiana,123950,Punjab,
"50/72, Bedi Zila, Behind School, Varanasi, Uttar Pradesh - 497072","Bedi Behind School, Uttar -",1,,,Bedi Behind School,201003,,UTTAR PRADESH
"H.No. 613, Vasa Street, Above Shop, Shimla, Himachal Pradesh - 275361","H.No. 613, Vasa Street, Above Shop, Shimla, Himachal Pradesh - 275361",0,,H.No. 613,Shimla,122051,Himachal Pradesh,
"67/93, Korpal Zila, Opposite Mall, Chandigarh, Chandigarh - 682014","67/93, Korpal Zila, Opposite Mall, Chandigarh, Chandigarh - 682014",0,,67/93,Korpal Zila,700214,Chandigarh,
"768 Khurana Circle, Behind School, Nashik, Maharashtra - 767339","768 Khurana Circle, Behind School, Nashik, Maharashtra - 767339",0,,768,Nashik,767339,,Maharashtra
"H.No. 491 Varty Road, Near Park, Srinagar, Jammu & Kashmir - 045954","H.No. 491 Varty Road, Near Park, Srinagar, Jammu & Kashmir - 045954",0,,H.No. 491,Srinagar,454954,Jammu & Kashmir,
"38/706, Magar Marg, Behind School, Srinagar, Jammu & Kashmir - 859235","38/706, Magar Marg, Behind School, Srinagar, Jammu & Kashmir - 859235",0,,38/706,Srinagar,859235,Jammu & Kashmir,
"289 Bora Circle, Above Shop, Nashik, Maharashtra - 187485","289 Bora Circle, Above Shop, Nashik, Maharashtra - 187485",0,,289,Nashik,411043,Maharashtra,
"53/53 Sastry Path, Behind School, Bhubaneswar, Odisha - 338172","53/53 Sastry Path, Behind School, Bhubaneswar, Odisha - 338172",0,,53/53,Bhubaneswar,380172,Odisha,
"191 Dhaliwal, Opposite Mall, Shimla, Himachal Pradesh - 641724","191 Dhaliwal, Opposite Mall, Shimla, Himachal Pradesh - 641724",0,,191,Shimla,121004,Himachal Pradesh,
"H.No. 81 Cherian, Above Shop, Vizag, Andhra Pradesh - 070969","H.No. 81 Cherian, Above Shop, Vizag, Andhra Pradesh - 070969",0,,H.No. 81,Cherian,700069,Vizag,Andhra Pradesh
"H.No. 466 Chadha Zila, Opposite Mall, Surat, Gujarat - 204977","H.No. 466 Chadha Zila, Opposite Mall, Surat, Gujarat - 204977",0,,H.No. 466,Chadha Zilla,394247,Surat,Gujarat
"60/261, Sule Road, Above Shop, Ranchi, Jharkhand - 094531","Above Ranchi, Jharkhand - 094531",1,,,,094531,Ranchi,Jharkhand
"08/17, Sharaf Marg, Near Park, Varanasi, Uttar Pradesh - 129911","08/17, Sharaf Marg, Near Park, Varanasi, Uttar Pradesh - 129911",0,,08/17,Varanasi,221001,Uttar Pradesh,
"560, Chaudry Street, Opposite Mall, Pune, Maharashtra - 174235","560, Chaudry Street, Opposite Mall, Pune, Maharashtra - 174235",0,,560,,411034,Pune,Maharashtra
"02 Prakash Path, Behind School, Ahmedabad, Gujarat - 089226","02 School, Ahmedabad, Gujarat 089226",1,School,,,382026,Ahmedabad,Gujarat
"567 Bhagat Street, Opposite Mall, Ranchi, Jharkhand - 080504","567 Bhagat Street, Opposite Mall, Ranchi, Jharkhand - 080504",0,,567,Ranchi,210504,Jharkhand,
"94/501 Goswami, Near Park, Meerut, Uttar Pradesh - 656741","94/501 Goswami, Near Park, Meerut, Uttar Pradesh - 656741",0,,94/501,Goswami,201001,Meerut,Uttar Pradesh
"H.No. 11, Chadha Chowk, Near Park, Shimla, Himachal Pradesh - 420952","H.No. 11, Chadha Chowk, Near Park, Shimla, Himachal Pradesh - 420952",0,,H.No. 11,Shimla,421005,Himachal Pradesh,
"32/819, Kanda Road, Above Shop, Jaipur, Rajasthan - 283100","32/819, Kanda Road, Above Shop, Jaipur, Rajasthan - 283100",0,,32/819,Jaipur,382310,Rajasthan,
"H.No. 19 Kapur Ganj, Opposite Mall, Bhubaneswar, Odisha - 349385","H.No. Opposite Mall, Bhubaneswar, -",1,,,Bhubaneswar,700140,Opposite Mall,
"H.No. 473 Jha Road, Behind School, Thiruvananthapuram, Kerala - 618967","473 Behind School, - 618967",1,,473,,600067,,
"H.No. 92 Dewan Nagar, Behind School, Jamshedpur, Jharkhand - 997725","H.No. 92 Dewan Nagar, Behind School, Jamshedpur, Jharkhand - 997725",0,,H.No. 92,Dewan Nagar,997252,Jamshedpur,Jharkhand
"H.No. 04 Iyengar Zila, Behind School, Kochi, Kerala - 848501","H.No. 04 Iyengar Kochi, Kerala",1,,H.No. 04,Iyengar Kochi,600012,,Kerala
"447, Pant Ganj, Behind School, Patna, Bihar - 770434",Pant Behind Bihar - 770434,1,,,Pant,700434,Behind Bihar,
"H.No. 64, Chowdhury Marg, Near Park, Lucknow, Uttar Pradesh - 150767","H.No. 64, Chowdhury Marg, Near Park, Lucknow, Uttar Pradesh - 150767",0,,H.No. 64,Lucknow,201767,Uttar Pradesh,
"93/128 Banik, Opposite Mall, Vizag, Andhra Pradesh - 367723","93/128 Banik, Opposite Mall, Vizag, Andhra Pradesh - 367723",0,,93/128,Banik,367723,Vizag,Andhra Pradesh
"00/51 Tiwari Ganj, Behind School, Ludhiana, Punjab - 088661","00/51 Tiwari Ganj, Behind School, Ludhiana, Punjab - 088661",0,,00/51,Ludhiana,088661,Punjab,
"15/490 Kant Circle, Opposite Mall, Ahmedabad, Gujarat - 227900","15/490 Kant Circle, Opposite Mall, Ahmedabad, Gujarat - 227900",0,,15/490,,382270,Ahmedabad,Gujarat
"14/26 Dora Nagar, Above Shop, Bangalore, Karnataka - 943164","14/26 Dora Shop, Bangalore, -",1,,14/26,,-,Bangalore,
"46/776, Dalal Road, Opposite Mall, Vizag, Andhra Pradesh - 280489","46/776, Dalal Road, Opposite Mall, Vizag, Andhra Pradesh - 280489",0,,46/776,Vizag,280489,Andhra Pradesh,
"98, Pall Nagar, Near Park, Chennai, Tamil Nadu - 861578","98, Pall Nagar, Near Park, Chennai, Tamil Nadu - 861578",0,,98,Pall Nagar,600078,Chennai,Tamil Nadu
"82/056, Tak Ganj, Near Park, Shimla, Himachal Pradesh - 688120","82/056, Tak Ganj, Near Park, Shimla, Himachal Pradesh - 688120",0,,82/056,Shimla,122120,Himachal Pradesh,
"36 Goyal Road, Near Park, Aurangabad, Maharashtra - 641914","36 Goyal Park, Aurangabad, 641914",1,Goyal Park,36,Aurangabad,421514,,
"H.No. 24 Deep Path, Opposite Mall, Guwahati, Assam - 655185","H.No. 24 Deep Path, Opposite Mall, Guwahati, Assam - 655185",0,,H.No. 24,Guwahati,655185,Assam,
"H.No. 076, Kaul Path, Behind School, Meerut, Uttar Pradesh - 258219","H.No. 076, Kaul Path, Behind School, Meerut, Uttar Pradesh - 258219",0,,H.No. 076,Meerut,201219,Uttar Pradesh,
"25/93, Pau Nagar, Near Park, Hyderabad, Telangana - 272348","Nagar, Near Hyderabad, - 272348",1,,,Nagar,272348,Near Hyderabad,
"447 Venkatesh Nagar, Opposite Mall, Surat, Gujarat - 192516","447 Venkatesh Nagar, Opposite Mall, Surat, Gujarat - 192516",0,,447,Venkatesh Nagar,394216,Surat,Gujarat
"H.No. 69 Batta Street, Opposite Mall, Varanasi, Uttar Pradesh - 738848","H.No. 69 Batta Street, Opposite Mall, Varanasi, Uttar Pradesh - 738848",0,,H.No. 69,Varanasi,201008,Uttar Pradesh,
"027, Majumdar Circle, Behind School, Lucknow, Uttar Pradesh - 075059","Majumdar Lucknow, Uttar Pradesh 075059",1,,,,201059,Majumdar Lucknow,Uttar Pradesh
"331 Chada Road, Above Shop, Ludhiana, Punjab - 794960","331 Chada Road, Above Shop, Ludhiana, Punjab - 794960",0,,331,Ludhiana,394960,Punjab,
"25, Madan Zila, Behind School, Kochi, Kerala - 123804","25, Madan Zila, Behind School, Kochi, Kerala - 123804",0,,25,Madan Zila,123804,Kochi,Kerala
"56/78, Sane Ganj, Near Park, Meerut, Uttar Pradesh - 664860","56/78, Sane Ganj, Near Park, Meerut, Uttar Pradesh - 664860",0,,56/78,Meerut,201003,Uttar Pradesh,
"H.No. 01 Krish Street, Opposite Mall, Ludhiana, Punjab - 837359","H.No. 01 Krish Street, Opposite Mall, Ludhiana, Punjab - 837359",0,,H.No. 01,Ludhiana,837359,Punjab,
"H.No. 46, Majumdar Chowk, Opposite Mall, Vijayawada, Andhra Pradesh - 389390","Chowk, Opposite Mall, Vijayawada, Andhra -",1,,,Vijayawada,500043,,Andhra
"H.No. 12 Lanka Nagar, Near Park, Srinagar, Jammu & Kashmir - 899289","Nagar, Park, & Kashmir - 899289",1,,,Nagar,899289,Park & Kashmir,
"61/630, Natt, Above Shop, Bhopal, Madhya Pradesh - 619833","61/630, Natt, Above Shop, Bhopal, Madhya Pradesh - 619833",0,,61/630,Natt,619833,Bhopal,Madhya Pradesh
"42/64 Pau Street, Behind School, Thiruvananthapuram, Kerala - 595225","42/64 Pau Street, Behind School, Thiruvananthapuram, Kerala - 595225",0,,42/64,Thiruvananthapuram,595225,Kerala,
"18/354, Lall Marg, Near Park, Mumbai, Maharashtra - 640555","18/354, Lall Marg, Near Park, Mumbai, Maharashtra - 640555",0,,18/354,,400055,Mumbai,Maharashtra
"16/80 Kaur Ganj, Opposite Mall, Aurangabad, Maharashtra - 383081","16/80 Kaur Ganj, Opposite Mall, Aurangabad, Maharashtra - 383081",0,,16/80,Aurangabad,383081,,Maharashtra
"164, Bath Nagar, Behind School, Raipur, Chhattisgarh - 728921","164, Bath Nagar, Behind School, Raipur, Chhattisgarh - 728921",0,,164,Bath Nagar,728921,Raipur,Chhattisgarh
"221, Buch Marg, Opposite Mall, Varanasi, Uttar Pradesh - 813685","221, Buch Marg, Opposite Mall, Varanasi, Uttar Pradesh - 813685",0,,221,Varanasi,201005,Uttar Pradesh,
"47/25, Kamdar Nagar, Above Shop, Agra, Uttar Pradesh - 751529","Nagar, Above Shop, - 751529",1,,,Nagar,751529,Above Shop,
"H.No. 83, Dhar Chowk, Near Park, Coimbatore, Tamil Nadu - 222026","H.No. Dhar Coimbatore, Tamil - 222026",1,,,Dhar,222006,Coimbatore,Tamil Nadu
"H.No. 404, Sani Street, Opposite Mall, Bhopal, Madhya Pradesh - 959271","H.No. 404, Sani Street, Opposite Mall, Bhopal, Madhya Pradesh - 959271",0,,H.No. 404,Bhopal,959271,Madhya Pradesh,
"87/75, Dugar Zila, Near Park, Indore, Madhya Pradesh - 772718","87/75, Dugar Zila, Near Park, Indore, Madhya Pradesh - 772718",0,,87/75,Dugar Zila,772118,Indore,Madhya Pradesh
"H.No. 906 Balay Nagar, Near Park, Hyderabad, Telangana - 287427","H.No. 906 Balay Nagar, Near Park, Hyderabad, Telangana - 287427",0,,H.No. 906,Balay Nagar,500027,Hyderabad,Telangana
"H.No. 148, Sachar Path, Opposite Mall, Surat, Gujarat - 557950","H.No. 148, Sachar Path, Opposite Mall, Surat, Gujarat - 557950",0,,H.No. 148,,395005,Surat,Gujarat
"H.No. 79 Pingle Nagar, Near Park, Bhopal, Madhya Pradesh - 982739","H.No. 79 Pingle Nagar, Near Park, Bhopal, Madhya Pradesh - 982739",0,,H.No. 79,Pingle Nagar,982739,Bhopal,Madhya Pradesh
"H.No. 340, Prashad, Near Park, Agra, Uttar Pradesh - 256440","340, Near Park, Uttar Pradesh",1,,340,Park,201005,Uttar Pradesh,
"14 Vora Marg, Above Shop, Varanasi, Uttar Pradesh - 516270","Marg, Above Uttar Pradesh 516270",1,,,Marg,201270,,UTTAR PRADESH
"161, Seshadri Road, Opposite Mall, Bhubaneswar, Odisha - 572956","161, Seshadri Road, Opposite Mall, Bhubaneswar, Odisha - 572956",0,,161,Bhubaneswar,122506,,Odisha
"H.No. 62, Parsa Marg, Above Shop, Thiruvananthapuram, Kerala - 199380","H.No. 62, Parsa Marg, Above Shop, Thiruvananthapuram, Kerala - 199380",0,,H.No. 62,Thiruvananthapuram,600038,Kerala,
"H.No. 545, Shere Chowk, Near Park, Varanasi, Uttar Pradesh - 125629","H.No. 545, Shere Chowk, Near Park, Varanasi, Uttar Pradesh - 125629",0,,H.No. 545,Varanasi,210029,Uttar Pradesh,
"H.No. 92 Balasubramanian Marg, Above Shop, Agra, Uttar Pradesh - 412102","H.No. 92 Balasubramanian Marg, Above Shop, Agra, Uttar Pradesh - 412102",0,,H.No. 92,Agra,412102,Uttar Pradesh,
"H.No. 57, Sant Marg, Above Shop, Hyderabad, Telangana - 391459","57, Above Shop, Hyderabad, -",1,,57,,-,Hyderabad,
"962 Pingle Path, Opposite Mall, Chennai, Tamil Nadu - 060089","962 Pingle Path, Opposite Mall, Chennai, Tamil Nadu - 060089",0,,962,,600089,Chennai,Tamil Nadu
"754 Nadkarni, Opposite Mall, Chandigarh, Chandigarh - 222002","754 Nadkarni, Opposite Mall, Chandigarh, Chandigarh - 222002",0,,754,Nadkarni,220002,Chandigarh,
"70/03, Bala Ganj, Behind School, Nashik, Maharashtra - 045422","70/03, Bala Ganj, Behind School, Nashik, Maharashtra - 045422",0,,70/03,Bala Ganj,421004,Nashik,Maharashtra
"23/96 Gill Zila, Near Park, Ludhiana, Punjab - 350281","23/96 Gill Zila, Near Park, Ludhiana, Punjab - 350281",0,,23/96,Ludhiana,350281,Punjab,
"H.No. 74, Jaggi, Above Shop, Thiruvananthapuram, Kerala - 561580","74, Jaggi, Above Thiruvananthapuram, Kerala",1,,74,Jaggi,600019,Thiruvananthapuram,Kerala
"71/531, Pant Nagar, Above Shop, Ranchi, Jharkhand - 026417","71/531, Pant Nagar, Above Shop, Ranchi, Jharkhand - 026417",0,,71/531,Pant Nagar,026417,Ranchi,Jharkhand
"H.No. 788, Baral Nagar, Behind School, Chandigarh, Chandigarh - 209133","H.No. 788, Baral Nagar, Behind School, Chandigarh, Chandigarh - 209133",0,,H.No. 788,Baral Nagar,210913,Chandigarh,
"H.No. 492 Kale Ganj, Opposite Mall, Thiruvananthapuram, Kerala - 291831","H.No. 492 Kale Ganj, Opposite Mall, Thiruvananthapuram, Kerala - 291831",0,,H.No. 492,Kale Ganj,600131,Thiruvananthapuram,Kerala
"27/63 Rana Ganj, Opposite Mall, Delhi, Delhi - 190924","27/63 Rana Ganj, Opposite Mall, Delhi, Delhi - 190924",0,,27/63,,110002,Delhi,Delhi
"77, Dugal Circle, Opposite Mall, Mumbai, Maharashtra - 768448","77, Dugal Opposite Maharashtra 768448",1,,77,,400648,,
"82/70 Nath Ganj, Near Park, Ludhiana, Punjab - 523401","82/70 Nath Ganj, Near Park, Ludhiana, Punjab - 523401",0,,82/70,Ludhiana,523401,Punjab,
"03/938 Bhatti Path, Behind School, Amritsar, Punjab - 782636","03/938 Bhatti Path, Behind School, Amritsar, Punjab - 782636",0,,03/938,Amritsar,782306,Punjab,
"397 Parmar Street, Above Shop, Kolkata, West Bengal - 810428","397 Parmar Street, Above Shop, Kolkata, West Bengal - 810428",0,,397,,700028,Kolkata,West Bengal
"21 Bassi Circle, Near Park, Meerut, Uttar Pradesh - 588895","21 Bassi Circle, Near Park, Meerut, Uttar Pradesh - 588895",0,,,Meerut,201395,Uttar Pradesh,
"H.No. 92 Ganguly Ganj, Above Shop, Mumbai, Maharashtra - 388727","H.No. 92 Ganguly Ganj, Above Shop, Mumbai, Maharashtra - 388727",0,,H.No. 92,Ganguly Ganj,400027,Mumbai,Maharashtra
"00/561 Mani, Opposite Mall, Varanasi, Uttar Pradesh - 193401","00/561 Mani, Opposite Mall, Varanasi, Uttar Pradesh - 193401",0,,00/561,Mani,201301,Varanasi,Uttar Pradesh
"41 Suri Path, Above Shop, Chandigarh, Chandigarh - 053938","41 Suri Path, Above Shop, Chandigarh, Chandigarh - 053938",0,,41,Chandigarh,700093,Chandigarh,
"28/928, Soni Circle, Opposite Mall, Amritsar, Punjab - 089773","28/928, Soni Circle, Opposite Mall, Amritsar, Punjab - 089773",0,,28/928,Amritsar,089773,Punjab,
"669 Varty, Near Park, Pune, Maharashtra - 775209","669 Varty, Near Park, Pune, Maharashtra - 775209",0,,669,Pune,411009,Pune,Maharashtra
"92/237 Devi Ganj, Near Park, Bhubaneswar, Odisha - 938194","92/237 Devi Ganj, Near Park, Bhubaneswar, Odisha - 938194",0,,92/237,Bhubaneswar,938194,Odisha,
"536 De Ganj, Near Park, Srinagar, Jammu & Kashmir - 206519","536 De Ganj, Near Park, Srinagar, Jammu & Kashmir - 206519",0,,536,Srinagar,206519,Jammu & Kashmir,
"93/44 Venkatesh, Opposite Mall, Patna, Bihar - 313734","93/44 Venkatesh, Opposite Mall, Patna, Bihar - 313734",0,,93/44,Venkatesh,313174,Patna,Bihar
"21/74, Gour Ganj, Behind School, Lucknow, Uttar Pradesh - 256240","21/74, Gour Ganj, Behind School, Lucknow, Uttar Pradesh - 256240",0,,21/74,Lucknow,201240,Lucknow,Uttar Pradesh
"90/74 Bir Nagar, Behind School, Delhi, Delhi - 628187","90/74 Bir Nagar, Behind School, Delhi, Delhi - 628187",0,,90/74,Bir Nagar,110087,Delhi,Delhi
"H.No. 467 Kulkarni Ganj, Above Shop, Nashik, Maharashtra - 089047","467 Kulkarni Ganj, - 089047",1,,467,,089047,,
"845, Dube Ganj, Near Park, Raipur, Chhattisgarh - 998675","845, Dube Near Raipur, -",1,,845,Dube Near Raipur,110081,,
"H.No. 24, Borah Path, Near Park, Kochi, Kerala - 291772","H.No. 24, Borah Path, Near Park, Kochi, Kerala - 291772",0,,H.No. 24,Kochi,700172,Kochi,Kerala
"H.No. 433, Dani, Near Park, Vijayawada, Andhra Pradesh - 072034","H.No. 433, Dani, Near Park, Vijayawada, Andhra Pradesh - 072034",0,,H.No. 433,Dani,502034,Vijayawada,Andhra Pradesh
"43/64 Sen Nagar, Above Shop, Agra, Uttar Pradesh - 557693","43/64 Nagar, Uttar Pradesh -",1,,43/64,Nagar,201001,Uttar Pradesh,
"343, Bhatnagar Circle, Opposite Mall, Aurangabad, Maharashtra - 419214","343, Bhatnagar Circle, Opposite Mall, Aurangabad, Maharashtra - 419214",0,,343,Aurangabad,421214,,Maharashtra
"91/20, Sarraf Street, Near Park, Varanasi, Uttar Pradesh - 082372","91/20, Near Park, Uttar -",1,,91/20,Uttar,110059,,
"379, Srinivas Circle, Near Park, Patna, Bihar - 359354","379, Srinivas Circle, Near Park, Patna, Bihar - 359354",0,Srinivas Circle,379,Patna,359354,Bihar,
"H.No. 037, Sheth Street, Opposite Mall, Shimla, Himachal Pradesh - 125925","H.No. 037, Sheth Street, Opposite Mall, Shimla, Himachal Pradesh - 125925",0,,H.No. 037,Shimla,122505,Himachal Pradesh,
"075 Wagle Path, Opposite Mall, Varanasi, Uttar Pradesh - 057536","Mall, Varanasi, Uttar Pradesh 057536",1,,,Mall,201306,Varanasi,Uttar Pradesh
"H.No. 588 Mittal Chowk, Behind School, Vijayawada, Andhra Pradesh - 538382","H.No. 588 Mittal Chowk, Behind School, Vijayawada, Andhra Pradesh - 538382",0,,H.No. 588,Vijayawada,380382,Andhra Pradesh,
"09/881 Luthra Street, Behind School, Ahmedabad, Gujarat - 464149","09/881 Luthra Street, Behind School, Ahmedabad, Gujarat - 464149",0,,09/881,Ahmedabad,394149,Ahmedabad,Gujarat
"H.No. 47, Mahal Marg, Above Shop, Bhubaneswar, Odisha - 543117","H.No. 47, Mahal Marg, Above Shop, Bhubaneswar, Odisha - 543117",0,,H.No. 47,Bhubaneswar,543117,,Odisha
"66, Chowdhury Road, Opposite Mall, Aurangabad, Maharashtra - 246849","66, Chowdhury Road, Opposite Mall, Aurangabad, Maharashtra - 246849",0,,66,Aurangabad,421004,,Maharashtra
"39, Mander Path, Above Shop, Surat, Gujarat - 662430","Mander Path, Above Shop, Surat,",1,,,,395009,Surat,
"H.No. 16, Nayar Street, Near Park, Mumbai, Maharashtra - 397475","Nayar Near Park, Mumbai, -",1,,,Nayar Near Park,-400067,Mumbai,
"H.No. 981 Bhatia, Above Shop, Srinagar, Jammu & Kashmir - 341449","H.No. 981 Bhatia, Above Shop, Srinagar, Jammu & Kashmir - 341449",0,,H.No. 981 Bhatia,Srinagar,123114,Jammu & Kashmir,
"48 Tiwari Street, Behind School, Thiruvananthapuram, Kerala - 106315","48 Tiwari Street, Behind School, Thiruvananthapuram, Kerala - 106315",0,,48,Thiruvananthapuram,600115,Kanchipuram,Kerala
"57/03, Salvi Zila, Behind School, Dehradun, Uttarakhand - 938170","57/03, Salvi Zila, Behind School, Dehradun, Uttarakhand - 938170",0,,57/03,Salvi Zilla,938170,Dehradun,Uttarakhand
"79, Chawla Circle, Opposite Mall, Amritsar, Punjab - 657025","79, Chawla Circle, Opposite Mall, Amritsar, Punjab - 657025",0,,79,Amritsar,122005,Punjab,
"98/05, Luthra Road, Near Park, Kolkata, West Bengal - 757340","98/05, Luthra Road, Near Park, Kolkata, West Bengal - 757340",0,,98/05,,700034,Kolkata,West Bengal
"99/816, Butala Path, Near Park, Mumbai, Maharashtra - 467844","99/816, Butala Path, Near Park, Mumbai, Maharashtra - 467844",0,,99/816,,400084,Mumbai,Maharashtra
"38, Tata Street, Opposite Mall, Vijayawada, Andhra Pradesh - 722421","38, Tata Street, Opposite Mall, Vijayawada, Andhra Pradesh - 722421",0,,38,Vijayawada,722421,Andhra Pradesh,
"40 Chad Path, Opposite Mall, Jaipur, Rajasthan - 457010","Path, Opposite Mall, Rajasthan -",1,,,Rajasthan,110006,Mall,
"H.No. 91, Gola Chowk, Opposite Mall, Mumbai, Maharashtra - 163502","H.No. 91, Gola Chowk, Opposite Mall, Mumbai, Maharashtra - 163502",0,,H.No. 91,,400352,Mumbai,Maharashtra
"28/637 Dara Nagar, Above Shop, Jaipur, Rajasthan - 459737","28/637 Dara Nagar, Jaipur, Rajasthan",1,,28/637,Dara Nagar,122001,Jaipur,Rajasthan
"09/925 Wagle Circle, Above Shop, Chandigarh, Chandigarh - 900553","Circle, Shop, Chandigarh, - 900553",1,,,Chandigarh,900553,Circle,Shop
"037, Bala, Near Park, Vijayawada, Andhra Pradesh - 787623","037, Bala, Near Park, Vijayawada, Andhra Pradesh - 787623",0,,037,Bala,500062,Vijayawada,Andhra Pradesh
"H.No. 06 Johal Chowk, Opposite Mall, Pune, Maharashtra - 771735","H.No. 06 Johal Chowk, Opposite Mall, Pune, Maharashtra - 771735",0,,H.No. 06,Pune,411035,Pune,Maharashtra
"787 Purohit Chowk, Near Park, Ranchi, Jharkhand - 292624","787 Purohit Chowk, Near Park, Ranchi, Jharkhand - 292624",0,,,Ranchi,292624,Jharkhand,
"11/557, Sachar Ganj, Behind School, Guwahati, Assam - 361051","11/557, Sachar Ganj, Behind School, Guwahati, Assam - 361051",0,,11/557,Guwahati,361051,Assam,
"05 Acharya Nagar, Near Park, Pune, Maharashtra - 427153","05 Acharya Nagar, Near Park, Pune, Maharashtra - 427153",0,,05,Pune,411053,Pune,Maharashtra
"19 Badal, Behind School, Amritsar, Punjab - 053708","Behind School, Punjab 053708",1,,,Behind School,553708,,PUNJAB
"44/16 Bansal Ganj, Behind School, Shimla, Himachal Pradesh - 175474","44/16 Bansal Ganj, Behind School, Shimla, Himachal Pradesh - 175474",0,,44/16,Shimla,122154,Himachal Pradesh,
"193 Lal Street, Opposite Mall, Bhubaneswar, Odisha - 044593","193 Lal Street, Opposite Mall, Bhubaneswar, Odisha - 044593",0,,193,Bhubaneswar,400593,Odisha,
"H.No. 142 Bora Path, Near Park, Ranchi, Jharkhand - 501747","H.No. 142 Bora Path, Near Park, Ranchi, Jharkhand - 501747",0,,H.No. 142,Ranchi,501747,Jharkhand,
"35/268, Balay Marg, Near Park, Shimla, Himachal Pradesh - 555094","35/268, Balay Marg, Near Park, Shimla, Himachal Pradesh - 555094",0,,35/268,Shimla,394514,Himachal Pradesh,
"654 Nayar Zila, Opposite Mall, Patna, Bihar - 702505","654 Nayar Zila, Opposite Mall, Patna, Bihar - 702505",0,,654,Nayar Zila,210505,Patna,Bihar
"61, Sharaf Road, Above Shop, Thiruvananthapuram, Kerala - 365400","Sharaf Road, Above Kerala 365400",1,,,,600040,Kanchipuram,
"H.No. 409 Sachdeva Street, Near Park, Chandigarh, Chandigarh - 999864","H.No. 409 Sachdeva Street, Near Park, Chandigarh, Chandigarh - 999864",0,,H.No. 409,Chandigarh,700164,Chandigarh,
"H.No. 096 Sant Chowk, Near Park, Kolkata, West Bengal - 098233","H.No. 096 Sant Chowk, Near Park, Kolkata, West Bengal - 098233",0,,H.No. 096,,700023,Kolkata,West Bengal
"92 Deshmukh Circle, Opposite Mall, Aurangabad, Maharashtra - 279984","92 Deshmukh Circle, Opposite Mall, Aurangabad, Maharashtra - 279984",0,Deshmukh Circle,92,Aurangabad,421004,,Maharashtra
"H.No. 42, Rout Path, Near Park, Nagpur, Maharashtra - 900349","H.No. 42, Rout Path, Near Park, Nagpur, Maharashtra - 900349",0,,H.No. 42,Nagpur,400349,Maharashtra,
"09/561 Rao Path, Opposite Mall, Dehradun, Uttarakhand - 914846","09/561 Rao Path, Opposite Mall, Dehradun, Uttarakhand - 914846",0,,09/561,Dehradun,914846,Uttarakhand,
"03/853, Kade Chowk, Above Shop, Nashik, Maharashtra - 713941","03/853, Kade Chowk, Above Shop, Nashik, Maharashtra - 713941",0,,03/853,Nashik,713941,,Maharashtra
"24/391 Balay Path, Above Shop, Chandigarh, Chandigarh - 182990","24/391 Balay Path, Above Shop, Chandigarh, Chandigarh - 182990",0,,24/391,Chandigarh,210099,Chandigarh,
"68, Bhat Road, Above Shop, Ranchi, Jharkhand - 034828","68, Bhat Road, Above Shop, Ranchi, Jharkhand - 034828",0,,68,Ranchi,034828,Jharkhand,
"89/89, Oommen Circle, Behind School, Chandigarh, Chandigarh - 589426","89/89, Oommen Circle, Behind School, Chandigarh, Chandigarh - 589426",0,,89/89,Chandigarh,210426,Chandigarh,
"H.No. 20, Shroff Chowk, Near Park, Kochi, Kerala - 504600","H.No. 20, Shroff Chowk, Near Park, Kochi, Kerala - 504600",0,,H.No. 20,Kochi,504600,Kanchipuram,Kerala
"13/39 Chawla Marg, Behind School, Jaipur, Rajasthan - 598418","13/39 Chawla Marg, Behind School, Jaipur, Rajasthan - 598418",0,,13/39,Jaipur,382418,Rajasthan,
"07/881 Ganesh Marg, Near Park, Ahmedabad, Gujarat - 243262","07/881 Ganesh Marg, Near Park, Ahmedabad, Gujarat - 243262",0,,07/881,,382262,Ahmedabad,Gujarat
"218 Batra Zila, Opposite Mall, Amritsar, Punjab - 840031","Zila, Opposite Mall, Amritsar, 840031",1,,,Zila,380301,Amritsar,
"H.No. 274, Tailor Ganj, Above Shop, Hyderabad, Telangana - 577456","H.No. 274, Tailor Ganj, Above Shop, Hyderabad, Telangana - 577456",0,,H.No. 274,Tailor Ganj,500056,Hyderabad,Telangana
"H.No. 44 Khalsa Ganj, Opposite Mall, Patna, Bihar - 023585","H.No. 44 Khalsa Ganj, Opposite Mall, Patna, Bihar - 023585",0,,H.No. 44,Patna,203585,Bihar,
"20 Bhardwaj, Behind School, Varanasi, Uttar Pradesh - 482291","20 Bhardwaj, Behind School, Varanasi, Uttar Pradesh - 482291",0,,20 Bhardwaj,Varanasi,482291,Uttar Pradesh,
"14/18, Sabharwal Path, Opposite Mall, Kolkata, West Bengal - 344711","14/18, Sabharwal Path, Opposite Mall, Kolkata, West Bengal - 344711",0,,14/18,,700071,Kolkata,West Bengal
"28, Rajagopalan Road, Behind School, Srinagar, Jammu & Kashmir - 494712","28, Rajagopalan Road, Behind School, Srinagar, Jammu & Kashmir - 494712",0,,28,Srinagar,194412,Jammu & Kashmir,
"71 Bir, Opposite Mall, Indore, Madhya Pradesh - 611792","71 Bir, Opposite Mall, Indore, Madhya Pradesh - 611792",0,,71 BIR,INDORE,611292,MADHYA PRADESH,
"H.No. 542 Rana Nagar, Near Park, Varanasi, Uttar Pradesh - 036578","H.No. 542 Rana Near Park, Uttar",1,,H.No. 542,Uttar,201005,,
"171 Khosla Nagar, Behind School, Guwahati, Assam - 249069","171 Khosla Nagar, Behind School, Guwahati, Assam - 249069",0,,171,Khosla Nagar,249069,Guwahati,Assam
"63 Pandya Road, Above Shop, Shimla, Himachal Pradesh - 405358","63 Pandya Road, Above Shop, Shimla, Himachal Pradesh - 405358",0,,63,Shimla,411358,Himachal Pradesh,
"63/54, Shukla Road, Behind School, Aurangabad, Maharashtra - 981546","Road, Behind School, - 981546",1,,,,981546,,
"H.No. 805, Soni, Opposite Mall, Meerut, Uttar Pradesh - 890448","H.No. 805, Soni, Opposite Mall, Meerut, Uttar Pradesh - 890448",0,,H.No. 805,Soni,210408,Meerut,Uttar Pradesh
"10/722 Andra Zila, Near Park, Hyderabad, Telangana - 407403","10/722 Andra Zila, Near Park, Hyderabad, Telangana - 407403",0,,10/722,Andhra Zilla,500043,Hyderabad,Telangana
"35/096, Magar Road, Behind School, Shimla, Himachal Pradesh - 678970","Behind School, Shimla, Himachal 678970",1,,,Behind School,122001,Shimla,Himachal
"H.No. 65 Sant, Opposite Mall, Chandigarh, Chandigarh - 073651","H.No. 65 Sant, Opposite Mall, Chandigarh, Chandigarh - 073651",0,,H.No. 65,Chandigarh,700135,Chandigarh,
"183, Prashad Chowk, Behind School, Vijayawada, Andhra Pradesh - 869110","183, Prashad Chowk, Behind School, Vijayawada, Andhra Pradesh - 869110",0,,183,Vijayawada,500010,Andhra Pradesh,
"29/785 Mody Ganj, Near Park, Patna, Bihar - 346423","Mody Ganj, Near Bihar 346423",1,,,Mody Ganj,246324,Bihar,
"03/03, Sarkar Nagar, Behind School, Dehradun, Uttarakhand - 833132","03/03, Sarkar Nagar, Behind 833132",1,,03/03,Sarkar Nagar,700032,,
"16/09 Kara Street, Opposite Mall, Patna, Bihar - 121721","16/09 Kara Street, Opposite Mall, Patna, Bihar - 121721",0,,16/09,Patna,121221,Bihar,
"78, Suresh Circle, Above Shop, Chennai, Tamil Nadu - 174143","78, Suresh Circle, Above Shop, Chennai, Tamil Nadu - 174143",0,,78,,600143,Chennai,Tamil Nadu
"91/417 Chauhan Nagar, Opposite Mall, Srinagar, Jammu & Kashmir - 526078","91/417 Chauhan Nagar, Opposite Mall, Srinagar, Jammu & Kashmir - 526078",0,,91/417,Chauhan Nagar,572678,Srinagar,Jammu & Kashmir
"H.No. 859 Kalla Chowk, Above Shop, Coimbatore, Tamil Nadu - 263297","H.No. 859 Kalla Chowk, Above Shop, Coimbatore, Tamil Nadu - 263297",0,,H.No. 859,Coimbatore,263297,Tamil Nadu,
"85/48 Krishnan Ganj, Near Park, Amritsar, Punjab - 715981","85/48 Krishnan Ganj, Near Park, Amritsar, Punjab - 715981",0,,85/48,Amritsar,715981,Punjab,
"513, Deol Street, Opposite Mall, Patna, Bihar - 529798","513, Deol Street, Opposite Mall, Patna, Bihar - 529798",0,,513,Patna,209798,Bihar,
"H.No. 647 More, Near Park, Delhi, Delhi - 469394","Near Park, Delhi, Delhi -",1,,,Near Park,110001,Delhi,Delhi
"00/23, Warrior Ganj, Above Shop, Bhopal, Madhya Pradesh - 762369","00/23, Warrior Ganj, Above Shop, Bhopal, Madhya Pradesh - 762369",0,,00/23,Warrior Ganj,762369,Bhopal,Madhya Pradesh
"14/139, Bhattacharyya Nagar, Near Park, Kolkata, West Bengal - 292488","14/139, Near Kolkata, Bengal 292488",1,,14/139,,700248,Kolkata,Bengal
"001 Dada Street, Behind School, Srinagar, Jammu & Kashmir - 364157","001 Dada Street, Behind School, Srinagar, Jammu & Kashmir - 364157",0,,001,Srinagar,364157,Jammu & Kashmir,
"76/82, Dube Nagar, Opposite Mall, Chandigarh, Chandigarh - 103156","76/82, Dube Nagar, Opposite Mall, Chandigarh, Chandigarh - 103156",0,,76/82,Dube Nagar,210316,Chandigarh,
"H.No. 228, Kapoor, Behind School, Mumbai, Maharashtra - 927096","H.No. 228, Kapoor, Behind School, Mumbai, Maharashtra - 927096",0,,H.No. 228,Kapoor,400096,Mumbai,Maharashtra
"H.No. 824, Soni Chowk, Opposite Mall, Vizag, Andhra Pradesh - 596524","H.No. 824, Soni Chowk, Opposite Mall, Vizag, Andhra Pradesh - 596524",0,,H.No. 824,Vizag,560524,,Andhra Pradesh
"19/423 Dhingra Zila, Behind School, Thiruvananthapuram, Kerala - 635201","19/423 Dhingra Zila, Behind School, Thiruvananthapuram, Kerala - 635201",0,,19/423,Dhingra Zilla,600531,Thiruvananthapuram,Kerala
"341 Pathak Ganj, Near Park, Thiruvananthapuram, Kerala - 533600","Pathak Ganj, Near Kerala 533600",1,,,Pathak Ganj,600006,Near Kerala,
"H.No. 16, Narayan Chowk, Near Park, Bangalore, Karnataka - 984430","H.No. 16, Narayan Chowk, Near Park, Bangalore, Karnataka - 984430",0,,H.No. 16,,560043,Bangalore,Karnataka
"01 Bose Ganj, Behind School, Ahmedabad, Gujarat - 269679","01 Bose Ganj, Behind School, Ahmedabad, Gujarat - 269679",0,,01,,382679,Ahmedabad,Gujarat
"06/33, Shroff Street, Opposite Mall, Chennai, Tamil Nadu - 780551","06/33, Shroff Street, Opposite Mall, Chennai, Tamil Nadu - 780551",0,,06/33,,600055,Chennai,Tamil Nadu
"H.No. 95 Sathe Circle, Above Shop, Dehradun, Uttarakhand - 080326","H.No. 95 Sathe Circle, Above Shop, Dehradun, Uttarakhand - 080326",0,,H.No. 95,Dehradun,210326,Uttarakhand,
"H.No. 58 Borra Zila, Above Shop, Nashik, Maharashtra - 635700","H.No. 58 Borra Zila, Above Shop, Nashik, Maharashtra - 635700",0,,H.No. 58,Borra Zilla,413105,Nashik,Maharashtra
"H.No. 84 Sarraf Road, Above Shop, Chennai, Tamil Nadu - 588931","H.No. 84 Sarraf Road, Above Shop, Chennai, Tamil Nadu - 588931",0,,H.No. 84,,600091,Chennai,Tamil Nadu
"H.No. 794 Goyal Chowk, Above Shop, Surat, Gujarat - 325277","H.No. 794 Goyal Chowk, Above Shop, Surat, Gujarat - 325277",0,,H.No. 794,Surat,395277,Surat,Gujarat
"06/910, Prashad Circle, Behind School, Dehradun, Uttarakhand - 054573","06/910, Prashad Circle, Behind School, Dehradun, Uttarakhand - 054573",0,,06/910,Dehradun,054573,Uttarakhand,
"475 Sengupta Marg, Opposite Mall, Kochi, Kerala - 926103","475 Sengupta Marg, Opposite Mall, Kochi, Kerala - 926103",0,,475,Kochi,600103,Kanchipuram,Kerala
"98/29 Khurana Nagar, Opposite Mall, Hyderabad, Telangana - 055832","98/29 Khurana Opposite Hyderabad, Telangana",1,,98/29,,500082,Hyderabad,Telangana
"19/70 De Marg, Opposite Mall, Lucknow, Uttar Pradesh - 482872","19/70 De Marg, Opposite Mall, Lucknow, Uttar Pradesh - 482872",0,,19/70,Lucknow,482872,Lucknow,Uttar Pradesh
"241 Thaker Circle, Near Park, Shimla, Himachal Pradesh - 226236","241 Thaker Circle, Near Park, Shimla, Himachal Pradesh - 226236",0,,241,Shimla,122236,Himachal Pradesh,
"H.No. 72 Contractor Path, Above Shop, Nagpur, Maharashtra - 062659","H.No. 72 Contractor Path, Above Shop, Nagpur, Maharashtra - 062659",0,,H.No. 72,Nagpur,062659,Maharashtra,
"H.No. 577, Manne Path, Opposite Mall, Bangalore, Karnataka - 947938","H.No. 577, Manne Path, Opposite Mall, Bangalore, Karnataka - 947938",0,,H.No. 577,,560047,Bangalore,Karnataka
"H.No. 470 Chatterjee Nagar, Near Park, Patna, Bihar - 629153","H.No. 470 Chatterjee Nagar, Near Park, Patna, Bihar - 629153",0,,H.No. 470,Chatterjee Nagar,629153,Patna,Bihar
"H.No. 110 Karan Nagar, Behind School, Nagpur, Maharashtra - 518315","H.No. 110 Karan Nagar, Behind School, Nagpur, Maharashtra - 518315",0,,H.No. 110,Karan Nagar,411315,Nagpur,Maharashtra
"396 Dhar Chowk, Behind School, Ranchi, Jharkhand - 683771","396 Dhar Chowk, Behind School, Ranchi, Jharkhand - 683771",0,,,Ranchi,683171,Jharkhand,
"78 Taneja Chowk, Behind School, Ludhiana, Punjab - 675643","78 Taneja Chowk, Behind School, Ludhiana, Punjab - 675643",0,,78,Ludhiana,122643,Punjab,
"61/916 Bhakta Marg, Opposite Mall, Ranchi, Jharkhand - 655607","61/916 Bhakta Marg, Opposite Mall, Ranchi, Jharkhand - 655607",0,,61/916,Ranchi,655607,Jharkhand,
"21/529 Trivedi Marg, Opposite Mall, Pune, Maharashtra - 165060","21/529 Trivedi Marg, Opposite Mall, Pune, Maharashtra - 165060",0,,21/529,,411005,Pune,Maharashtra
"H.No. 435 Varughese Street, Above Shop, Nagpur, Maharashtra - 733949","H.No. 435 Varughese Street, Above Shop, Nagpur, Maharashtra - 733949",0,,H.No. 435,Nagpur,733949,Maharashtra,
"34/55, Hans Street, Near Park, Nashik, Maharashtra - 090639","34/55, Hans Street, Near Park, Nashik, Maharashtra - 090639",0,,34/55,Nashik,400639,,Maharashtra
"96 Rajan Ganj, Near Park, Mumbai, Maharashtra - 267670","96 Rajan Park, Maharashtra 267670",1,,96,,267670,,Maharashtra
"14 Brahmbhatt Circle, Behind School, Amritsar, Punjab - 684160","14 Brahmbhatt Circle, Behind School, Amritsar, Punjab - 684160",0,Brahmbhatt Circle,14,Amritsar,684160,Punjab,
"851 Bera Marg, Above Shop, Ahmedabad, Gujarat - 586152","851 Marg, Above Gujarat 586152",1,,851,,382152,Gujarat,
"637, Chada Zila, Behind School, Patna, Bihar - 467650","637, Chada Zila, Behind School, Patna, Bihar - 467650",0,,637,Chada Zila,467050,Patna,Bihar
"029 Saraf Street, Opposite Mall, Mumbai, Maharashtra - 469386","Saraf Street, Opposite Mall, Mumbai,",1,,,,400008,Mumbai,
"18, Saha Path, Above Shop, Patna, Bihar - 667352","18, Path, Above Bihar 667352",1,,18,,667352,Bihar,
"25/587 Dhillon, Above Shop, Varanasi, Uttar Pradesh - 036244","25/587 Dhillon, Above Shop, Varanasi, Uttar Pradesh - 036244",0,,25/587,Dhillon,210024,Varanasi,Uttar Pradesh
"044, Sastry Circle, Behind School, Raipur, Chhattisgarh - 576682","044, Sastry Circle, Behind School, Raipur, Chhattisgarh - 576682",0,,044,Raipur,576682,Chhattisgarh,
"H.No. 375 Choudhry Path, Above Shop, Aurangabad, Maharashtra - 653541","H.No. 375 Choudhry Path, Above Shop, Aurangabad, Maharashtra - 653541",0,,H.No. 375,Aurangabad,421501,,Maharashtra
"H.No. 40, Biswas Path, Behind School, Bhopal, Madhya Pradesh - 421475","H.No. 40, Biswas Path, Behind School, Bhopal, Madhya Pradesh - 421475",0,,H.No. 40,Bhopal,421475,Madhya Pradesh,
"45/004, Dixit Street, Behind School, Thiruvananthapuram, Kerala - 599021","Dixit Behind Thiruvananthapuram, Kerala -",1,,,Dixit,600019,Thiruvananthapuram,Kerala
"60/52 Mistry Ganj, Above Shop, Dehradun, Uttarakhand - 857783","60/52 Mistry Ganj, Above Shop, Dehradun, Uttarakhand - 857783",0,,60/52,Dehradun,857783,Uttarakhand,
"H.No. 05 Hora Ganj, Near Park, Vijayawada, Andhra Pradesh - 911092","H.No. 05 Hora Ganj, Near Park, Vijayawada, Andhra Pradesh - 911092",0,,H.No. 05,Vijayawada,500092,Andhra Pradesh,
"H.No. 88, Pillai, Near Park, Kochi, Kerala - 275223","H.No. 88, Pillai, Near Park, Kochi, Kerala - 275223",0,,H.No. 88,Kochi,600023,Kanchipuram,Kerala
"88/08, Bajaj Chowk, Behind School, Dehradun, Uttarakhand - 229704","88/08, Bajaj Chowk, Behind School, Dehradun, Uttarakhand - 229704",0,,88/08,Dehradun,229704,Uttarakhand,
"H.No. 375 Chauhan Circle, Behind School, Ludhiana, Punjab - 663004","H.No. 375 Chauhan Circle, Behind School, Ludhiana, Punjab - 663004",0,,H.No. 375,Ludhiana,363004,Punjab,
"13/30, Ghose Ganj, Behind School, Surat, Gujarat - 402882","13/30, Ghose Ganj, Behind School, Surat, Gujarat - 402882",0,,13/30,,394220,Surat,Gujarat
"861 Naidu Road, Near Park, Mumbai, Maharashtra - 741943","Naidu Road, Near - 741943",1,,,,110027,,
"58 Dyal Nagar, Opposite Mall, Bangalore, Karnataka - 651343","58 Dyal Nagar, Opposite Mall, Bangalore, Karnataka - 651343",0,,58,Dyal Nagar,560043,Bangalore,Karnataka
"091 Dube Road, Above Shop, Nagpur, Maharashtra - 697687","091 Dube Road, Above Shop, Nagpur, Maharashtra - 697687",0,,091,Nagpur,697167,Maharashtra,
"552, Bahl Ganj, Above Shop, Dehradun, Uttarakhand - 310175","552, Bahl Ganj, Above Shop, Dehradun, Uttarakhand - 310175",0,,552,Bahl Ganj,210175,Dehradun,Uttarakhand
"297 Sen Nagar, Opposite Mall, Jamshedpur, Jharkhand - 374446","297 Sen Nagar, Opposite Mall, Jamshedpur, Jharkhand - 374446",0,,297,Jamshedpur,374446,Jharkhand,
"H.No. 54 Korpal Nagar, Behind School, Srinagar, Jammu & Kashmir - 943651","H.No. 54 Korpal Nagar, Behind School, Srinagar, Jammu & Kashmir - 943651",0,,H.No. 54,Korpal Nagar,943651,Srinagar,Jammu & Kashmir
"148 Dugar Chowk, Behind School, Jamshedpur, Jharkhand - 555367","Dugar School, Jamshedpur, Jharkhand -",1,,,Dugar School,700102,Jamshedpur,Jharkhand
"25/234 Trivedi Circle, Above Shop, Hyderabad, Telangana - 206311","25/234 Trivedi Circle, Above Shop, Hyderabad, Telangana - 206311",0,,25/234,,500006,Hyderabad,Telangana
"08, Dutt Nagar, Behind School, Meerut, Uttar Pradesh - 852037","08, Dutt Nagar, Behind School, Meerut, Uttar Pradesh - 852037",0,,08,Dutt Nagar,201037,Meerut,Uttar Pradesh
"16, Dube, Opposite Mall, Chennai, Tamil Nadu - 050714","16, Dube, Opposite Mall, Chennai, Tamil Nadu - 050714",0,,16,,600114,Chennai,Tamil Nadu
"H.No. 014, Grewal Street, Near Park, Hyderabad, Telangana - 953706","H.No. 014, Grewal Street, Near Park, Hyderabad, Telangana - 953706",0,,H.No. 014,,500006,Hyderabad,Telangana
"89 Bajaj Ganj, Behind School, Indore, Madhya Pradesh - 907115","89 Ganj, Madhya - 907115",1,,89,Ganj,907115,Madhya,
"H.No. 221 Bhasin Circle, Behind School, Jamshedpur, Jharkhand - 128976","H.No. 221 Bhasin Circle, Behind School, Jamshedpur, Jharkhand - 128976",0,Bhasin Circle,H.No. 221,Jamshedpur,201009,Jharkhand,
"76/74 Madan Road, Behind School, Aurangabad, Maharashtra - 508212","76/74 Madan Road, Behind School, Aurangabad, Maharashtra - 508212",0,,76/74,Aurangabad,412212,,Maharashtra
"741, Subramaniam Street, Near Park, Surat, Gujarat - 404975","741, Subramaniam Street, Near Park, Surat, Gujarat - 404975",0,,741,Surat,394507,Surat,Gujarat
"01/398 Kalita Nagar, Behind School, Pune, Maharashtra - 012072","01/398 Kalita Nagar, Behind School, Pune, Maharashtra - 012072",0,,01/398,Kalita Nagar,411027,Pune,Maharashtra
"01 Arora Zila, Above Shop, Nashik, Maharashtra - 544496","01 Zila, Maharashtra - 544496",1,,,Zila,544496,,MAHARASHTRA
"H.No. 07 Puri Street, Opposite Mall, Mumbai, Maharashtra - 796214","H.No. 07 Puri Street, Opposite Mall, Mumbai, Maharashtra - 796214",0,,H.No. 07,,400614,Mumbai,Maharashtra
"H.No. 848 Tata Ganj, Opposite Mall, Bhubaneswar, Odisha - 954338","848 Opposite Mall, Bhubaneswar, -",1,,848,Bhubaneswar,-,,
"60, Dutta Nagar, Behind School, Srinagar, Jammu & Kashmir - 488411","60, Dutta Nagar, Behind School, Srinagar, Jammu & Kashmir - 488411",0,,60,Dutta Nagar,488141,Jammu & Kashmir,
"47/86 Saini Chowk, Above Shop, Aurangabad, Maharashtra - 164943","47/86 Saini Chowk, Above Shop, Aurangabad, Maharashtra - 164943",0,,47/86,Aurangabad,412403,,Maharashtra
"54 Randhawa Zila, Near Park, Aurangabad, Maharashtra - 101455","54 Randhawa Zila, Near Park, Aurangabad, Maharashtra - 101455",0,,54,Randhawa Zila,410505,Aurangabad,Maharashtra
"717, Modi Ganj, Near Park, Guwahati, Assam - 773819","Ganj, Near Park, Guwahati, Assam",1,,,Ganj,700150,Guwahati,Assam
"H.No. 596 Kakar Circle, Above Shop, Dehradun, Uttarakhand - 837693","H.No. 596 Kakar Circle, Above Shop, Dehradun, Uttarakhand - 837693",0,,H.No. 596,Dehradun,837693,Uttarakhand,
"H.No. 40, Ramaswamy Ganj, Behind School, Hyderabad, Telangana - 220450","H.No. 40, Ramaswamy Ganj, Behind School, Hyderabad, Telangana - 220450",0,,H.No. 40,Ramaswamy Ganj,500045,Hyderabad,Telangana
"H.No. 370, Ray Chowk, Above Shop, Vizag, Andhra Pradesh - 561280","H.No. 370, Ray Chowk, Above Shop, Vizag, Andhra Pradesh - 561280",0,,H.No. 370,Vizag,561280,Andhra Pradesh,
"90 Kohli Chowk, Behind School, Bhopal, Madhya Pradesh - 370892","90 Kohli Chowk, Behind School, Bhopal, Madhya Pradesh - 370892",0,,,Bhopal,370892,Madhya Pradesh,
"32, Sarna, Behind School, Pune, Maharashtra - 128928","32, Sarna, Maharashtra 128928",1,,32,Sarna,412308,,Maharashtra
"550, Upadhyay Ganj, Behind School, Vijayawada, Andhra Pradesh - 794089","550, Upadhyay Ganj, Behind School, Vijayawada, Andhra Pradesh - 794089",0,,550,Vijayawada,594089,Andhra Pradesh,
"80/97 Jayaraman Road, Opposite Mall, Chandigarh, Chandigarh - 800849","80/97 Jayaraman Road, Opposite Mall, Chandigarh, Chandigarh - 800849",0,,80/97,Chandigarh,700084,Chandigarh,
"25, Joshi Chowk, Behind School, Coimbatore, Tamil Nadu - 955655","25, Joshi Chowk, Behind School, Coimbatore, Tamil Nadu - 955655",0,,25,Coimbatore,600055,Tamil Nadu,
"H.No. 15 Wadhwa Nagar, Behind School, Chennai, Tamil Nadu - 242392","H.No. Wadhwa Nagar, Behind School, Tamil",1,,,Wadhwa Nagar,600042,Tamil Nadu,
"H.No. 127, Ranganathan Marg, Opposite Mall, Aurangabad, Maharashtra - 932472","H.No. 127, Ranganathan Marg, Opposite Mall, Aurangabad, Maharashtra - 932472",0,,H.No. 127,Aurangabad,412412,,Maharashtra
"H.No. 843 Mohan Chowk, Near Park, Vijayawada, Andhra Pradesh - 599761","H.No. 843 Mohan Chowk, Near Park, Vijayawada, Andhra Pradesh - 599761",0,,H.No. 843,Vijayawada,599761,Andhra Pradesh,
"H.No. 11 Dasgupta Nagar, Behind School, Dehradun, Uttarakhand - 744466","H.No. 11 Dasgupta Nagar, Behind School, Dehradun, Uttarakhand - 744466",0,,H.No. 11,Dasgupta Nagar,744466,Dehradun,Uttarakhand
"893 De Path, Opposite Mall, Agra, Uttar Pradesh - 843375","893 De Path, Opposite Mall, Agra, Uttar Pradesh - 843375",0,,893 De Path,Agra,843375,Uttar Pradesh,
"04/909, Mukhopadhyay Road, Above Shop, Chennai, Tamil Nadu - 606846","04/909, Mukhopadhyay Road, Above Shop, Chennai, Tamil Nadu - 606846",0,,04/909,,600084,Chennai,Tamil Nadu
"H.No. 37 Lad Circle, Behind School, Patna, Bihar - 893517","H.No. 37 Lad Circle, Behind School, Patna, Bihar - 893517",0,,H.No. 37,Patna,893517,Bihar,
"H.No. 975, Mahajan Path, Opposite Mall, Nagpur, Maharashtra - 568860","H.No. 975, Mahajan Path, Opposite Mall, Nagpur, Maharashtra - 568860",0,,H.No. 975,Nagpur,421306,Maharashtra,
"494 Pandya Chowk, Near Park, Guwahati, Assam - 157577","494 Pandya Chowk, Near Park, Guwahati, Assam - 157577",0,,,,157577,Guwahati,Assam
"388 Balakrishnan Ganj, Near Park, Jaipur, Rajasthan - 269266","388 Balakrishnan Ganj, Near Park, Jaipur, Rajasthan - 269266",0,,388,Jaipur,382265,Rajasthan,
"48/194, Khosla Chowk, Near Park, Ranchi, Jharkhand - 053296","48/194, Khosla Chowk, Near Park, Ranchi, Jharkhand - 053296",0,,48/194,Ranchi,053296,Jharkhand,
"H.No. 01 Jhaveri Ganj, Near Park, Bhopal, Madhya Pradesh - 911188","H.No. 01 Jhaveri Ganj, Near Park, Bhopal, Madhya Pradesh - 911188",0,,H.No. 01,Bhopal,911188,Madhya Pradesh,
"00 Chandran Ganj, Above Shop, Chandigarh, Chandigarh - 243923","00 Chandran Ganj, Above Shop, Chandigarh, Chandigarh - 243923",0,,00,Chandigarh,700023,Chandigarh,
"H.No. 56 Zachariah Circle, Near Park, Coimbatore, Tamil Nadu - 380260","56 Circle, Park, Coimbatore, Tamil Nadu",1,,,,,,
"72/989 Nanda, Near Park, Meerut, Uttar Pradesh - 030768","72/989 Nanda, Near Park, Meerut, Uttar Pradesh - 030768",0,,72/989,Meerut,201306,Uttar Pradesh,
"H.No. 70 Grewal Ganj, Above Shop, Vizag, Andhra Pradesh - 270219","H.No. 70 Grewal Ganj, Above Shop, Vizag, Andhra Pradesh - 270219",0,,H.No. 70,Grewal Ganj,500219,Vizag,Andhra Pradesh
"60/61 Mahajan Road, Behind School, Amritsar, Punjab - 751176","60/61 Mahajan Road, Behind School, Amritsar, Punjab - 751176",0,,60/61,Amritsar,751176,Punjab,
"308 Kala Chowk, Opposite Mall, Nagpur, Maharashtra - 192614","308 Kala Chowk, Opposite Mall, Nagpur, Maharashtra - 192614",0,,308,Nagpur,421514,Maharashtra,
"945 Desai Road, Behind School, Vizag, Andhra Pradesh - 520961","945 Desai Road, Behind School, Vizag, Andhra Pradesh - 520961",0,,945,Vizag,520961,Andhra Pradesh,
"51/753, Suri Path, Opposite Mall, Aurangabad, Maharashtra - 569223","51/753, Suri Path, Opposite Mall, Aurangabad, Maharashtra - 569223",0,,51/753,Aurangabad,394223,,Maharashtra
"H.No. 78 Bose Path, Near Park, Ludhiana, Punjab - 768040","H.No. 78 Bose Path, Near Park, Ludhiana, Punjab - 768040",0,,H.No. 78,Ludhiana,768040,Punjab,
"03/18 Chahal Marg, Opposite Mall, Dehradun, Uttarakhand - 052976","03/18 Chahal Marg, Opposite Mall, Dehradun, Uttarakhand - 052976",0,,03/18,Dehradun,122006,Uttarakhand,
"06/64, Loyal Path, Behind School, Aurangabad, Maharashtra - 706607","06/64, Loyal Path, Behind School, Aurangabad, Maharashtra - 706607",0,,06/64,Aurangabad,410507,,Maharashtra
"H.No. 63 Doshi Nagar, Behind School, Ahmedabad, Gujarat - 563394","H.No. 63 Doshi Nagar, Behind School, Ahmedabad, Gujarat - 563394",0,,H.No. 63,Doshi Nagar,382344,Ahmedabad,Gujarat
"H.No. 08 Pathak Road, Near Park, Aurangabad, Maharashtra - 086021","Pathak Road, Aurangabad, Maharashtra 086021",1,,,Aurangabad,421601,,Maharashtra
"50, Kari Road, Above Shop, Mumbai, Maharashtra - 847488","50, Kari Road, Above Shop, Mumbai, Maharashtra - 847488",0,,50,,400048,Mumbai,Maharashtra
"H.No. 90 Batra Zila, Opposite Mall, Delhi, Delhi - 539723","H.No. 90 Batra Zila, Opposite Mall, Delhi, Delhi - 539723",0,,H.No. 90,Batra Zila,110073,Delhi,Delhi
"29 Malhotra Circle, Opposite Mall, Varanasi, Uttar Pradesh - 189313","29 Malhotra Circle, Opposite Mall, Varanasi, Uttar Pradesh - 189313",0,,29,Varanasi,219013,Uttar Pradesh,
"726, Behl Road, Behind School, Delhi, Delhi - 445108","726, Behl Road, Behind School, Delhi, Delhi - 445108",0,,726,,110108,Delhi,Delhi
"94 Gola Zila, Opposite Mall, Nashik, Maharashtra - 732133","94 Gola Zila, Opposite Mall, Nashik, Maharashtra - 732133",0,,94,Gola Zila,431313,Nashik,Maharashtra
"88, Minhas, Above Shop, Bhubaneswar, Odisha - 331168","88, Minhas, Above Shop, Bhubaneswar, Odisha - 331168",0,,88,Minhas,411168,Bhubaneswar,Odisha
"91/017 Toor Circle, Behind School, Delhi, Delhi - 401893","Circle, Delhi, Delhi - 401893",1,,,Circle,110001,Delhi,Delhi
"H.No. 81, Datta, Opposite Mall, Raipur, Chhattisgarh - 181772","H.No. 81, Datta, Opposite Mall, Raipur, Chhattisgarh - 181772",0,,H.No. 81,Raipur,121177,Chhattisgarh,
"H.No. 805, Pall Path, Opposite Mall, Agra, Uttar Pradesh - 901316","H.No. 805, Pall Path, Opposite Mall, Agra, Uttar Pradesh - 901316",0,,H.No. 805,Agra,201316,Uttar Pradesh,
"H.No. 58, Sethi, Above Shop, Jaipur, Rajasthan - 125268","H.No. 58, Sethi, - 125268",1,,H.No. 58,Sethi,125268,,
"99 Ray Nagar, Above Shop, Shimla, Himachal Pradesh - 107808","99 Ray Nagar, Above Shop, Shimla, Himachal Pradesh - 107808",0,,99,Shimla,110080,Himachal Pradesh,
"46/11, Dixit Marg, Above Shop, Agra, Uttar Pradesh - 290746","46/11, Dixit Marg, Above Shop, Agra, Uttar Pradesh - 290746",0,,46/11,Agra,210046,Uttar Pradesh,
"36/81 Pandit Chowk, Behind School, Ahmedabad, Gujarat - 588022","36/81 Pandit Chowk, Behind School, Ahmedabad, Gujarat - 588022",0,,36/81,,382022,Ahmedabad,Gujarat
"H.No. 619 Naik Path, Above Shop, Kolkata, West Bengal - 197249","H.No. 619 Naik Path, Above Shop, Kolkata, West Bengal - 197249",0,,H.No. 619,,700249,Kolkata,West Bengal
"87/860 Bera Marg, Opposite Mall, Patna, Bihar - 355905","87/860 Bera Marg, Opposite Mall, Patna, Bihar - 355905",0,,87/860,Patna,201005,Bihar,
"H.No. 414, Contractor Chowk, Near Park, Coimbatore, Tamil Nadu - 691609","414, Contractor Chowk, Park, Nadu -",1,,414,Park,400061,Nadu,
"H.No. 578 Deol Zila, Opposite Mall, Chandigarh, Chandigarh - 084800","H.No. 578 Deol Zila, Opposite Mall, Chandigarh, Chandigarh - 084800",0,,H.No. 578,Deol Zila,210080,Chandigarh,
"10, Ghosh Zila, Near Park, Bhubaneswar, Odisha - 272322","10, Ghosh Zila, Near Park, Bhubaneswar, Odisha - 272322",0,,10,Bhubaneswar,122232,Odisha,
"98/495, Sarraf Ganj, Opposite Mall, Varanasi, Uttar Pradesh - 363722","98/495, Sarraf Ganj, Opposite Mall, Varanasi, Uttar Pradesh - 363722",0,,98/495,Sarraf Ganj,221302,Varanasi,Uttar Pradesh
"079, Chahal Chowk, Above Shop, Vijayawada, Andhra Pradesh - 622474","079, Chahal Chowk, Above Shop, Vijayawada, Andhra Pradesh - 622474",0,,079,Vijayawada,562474,,Andhra Pradesh
"H.No. 337, Basak, Above Shop, Bhopal, Madhya Pradesh - 189477","H.No. 337, Basak, Above Shop, Bhopal, Madhya Pradesh - 189477",0,,H.No. 337,Basak,189477,Bhopal,Madhya Pradesh
"739 Sampath Path, Opposite Mall, Pune, Maharashtra - 360805","739 Sampath Path, Opposite Mall, Pune, Maharashtra - 360805",0,,739,,411005,Pune,Maharashtra
"929 Bassi Chowk, Above Shop, Ludhiana, Punjab - 920702","929 Bassi Chowk, Above Shop, Ludhiana, Punjab - 920702",0,,929,Ludhiana,122002,Punjab,
"00/51, Borde Zila, Opposite Mall, Bangalore, Karnataka - 809329","00/51, Borde Zila, Opposite Mall, Bangalore, Karnataka - 809329",0,,00/51,Borde Zila,560029,Bangalore,Karnataka
"H.No. 237 Ratti, Behind School, Ludhiana, Punjab - 857468","H.No. 237 Ratti, Behind School, Ludhiana, Punjab - 857468",0,,H.No. 237,Ratti,857468,Ludhiana,Punjab
"H.No. 604 Gala Road, Above Shop, Indore, Madhya Pradesh - 381953","H.No. 604 Gala Road, Above Shop, Indore, Madhya Pradesh - 381953",0,,H.No. 604,Indore,382013,Madhya Pradesh,
"H.No. 800, Sunder Street, Near Park, Ranchi, Jharkhand - 450679","H.No. 800, Sunder Street, Near Park, Ranchi, Jharkhand - 450679",0,,H.No. 800,Ranchi,450679,Jharkhand,
"31 Bansal Path, Near Park, Aurangabad, Maharashtra - 404625","31 Bansal Path, Near Park, Aurangabad, Maharashtra - 404625",0,,31,Aurangabad,410405,,Maharashtra
"520, Seshadri Chowk, Behind School, Jamshedpur, Jharkhand - 759853","Chowk, Behind School, Jharkhand -",1,,,Jharkhand,110006,,
"984, Manne Path, Opposite Mall, Delhi, Delhi - 343255","984, Manne Path, Opposite Mall, Delhi, Delhi - 343255",0,,984,,110025,Delhi,Delhi
"59/722 Trivedi Road, Behind School, Vijayawada, Andhra Pradesh - 262632","59/722 Trivedi Road, Behind School, Vijayawada, Andhra Pradesh - 262632",0,,59/722,Vijayawada,562123,Andhra Pradesh,
"674 More Nagar, Near Park, Pune, Maharashtra - 192529","674 More Nagar, Near Park, Pune, Maharashtra - 192529",0,,674,More Nagar,412259,Pune,Maharashtra
"74/811, Choudhury Path, Opposite Mall, Ranchi, Jharkhand - 194766","Choudhury Path, Opposite - 194766",1,,,,194766,,
"88/813, Zacharia Path, Above Shop, Mumbai, Maharashtra - 075752","88/813, Zacharia Path, Above Shop, Mumbai, Maharashtra - 075752",0,,88/813,,400075,Mumbai,Maharashtra
"80/768 Mahajan Circle, Above Shop, Bangalore, Karnataka - 574030","80/768 Mahajan Circle, Above Shop, Bangalore, Karnataka - 574030",0,,80/768,,560073,Bangalore,Karnataka
"75 Kar Nagar, Behind School, Ludhiana, Punjab - 043255","75 Kar Nagar, Behind School, Ludhiana, Punjab - 043255",0,,75,Ludhiana,423505,Punjab,
"88/75 Gandhi Street, Near Park, Vizag, Andhra Pradesh - 928392","88/75 Gandhi Street, Near Park, Vizag, Andhra Pradesh - 928392",0,,88/75,Vizag,500028,Andhra Pradesh,
"75 Chaudhry Chowk, Behind School, Thiruvananthapuram, Kerala - 879597","75 Chaudhry Chowk, Behind School, Thiruvananthapuram, Kerala - 879597",0,,,Thiruvananthapuram,600019,Kerala,
"H.No. 71, Gill Path, Behind School, Hyderabad, Telangana - 069321","H.No. 71, Gill Path, Behind School, Hyderabad, Telangana - 069321",0,,H.No. 71,,500032,Hyderabad,Telangana
"H.No. 03 Rajagopal Zila, Above Shop, Aurangabad, Maharashtra - 032126","H.No. 03 Rajagopal Zila, Above Shop, Aurangabad, Maharashtra - 032126",0,,H.No. 03,Rajagopal Zilla,421306,,Maharashtra
"47/470 Varughese Street, Opposite Mall, Kochi, Kerala - 404576","47/470 Varughese Street, Opposite Mall, Kochi, Kerala - 404576",0,,47/470,Kochi,400576,Kochi,Kerala
"245, Taneja Road, Near Park, Varanasi, Uttar Pradesh - 913070","245, Taneja Road, Near Park, Varanasi, Uttar Pradesh - 913070",0,,245,Varanasi,213010,Uttar Pradesh,
"79/867, Bhardwaj, Near Park, Chennai, Tamil Nadu - 568667","79/867, Bhardwaj, Near Park, Chennai, Tamil Nadu - 568667",0,,79/867,,600067,Chennai,Tamil Nadu
"H.No. 92, Parmer Marg, Behind School, Ahmedabad, Gujarat - 495943","H.No. 92, Parmer Marg, Behind School, Ahmedabad, Gujarat - 495943",0,,H.No. 92,,395943,Ahmedabad,Gujarat
"61/454, Sankar Circle, Behind School, Surat, Gujarat - 251685","61/454, Sankar Surat, - 251685",1,,61/454,,251685,,
"H.No. 58, Pau, Above Shop, Dehradun, Uttarakhand - 757907","Pau, Above Shop, Dehradun, -",1,Pau,,Dehradun,210003,Dehradun,Uttar Pradesh
"249 Randhawa Street, Behind School, Ranchi, Jharkhand - 019191","249 Randhawa Street, Behind School, Ranchi, Jharkhand - 019191",0,,249,Ranchi,019191,Jharkhand,
"58 Khurana Chowk, Behind School, Guwahati, Assam - 091800","58 Chowk, Guwahati, - 091800",1,,58,,110080,Guwahati,
"01 Maharaj Chowk, Behind School, Surat, Gujarat - 168359","01 Maharaj Chowk, Behind School, Surat, Gujarat - 168359",0,,01,Surat,395003,Surat,Gujarat
"H.No. 83, Bhavsar Ganj, Near Park, Ranchi, Jharkhand - 555213","H.No. 83, Bhavsar Ganj, Near Park, Ranchi, Jharkhand - 555213",0,,H.No. 83,Bhavsar Ganj,221313,Ranchi,Jharkhand
"629, Nadkarni Street, Near Park, Ahmedabad, Gujarat - 714714","629, Nadkarni Street, Near Park, Ahmedabad, Gujarat - 714714",0,,629,,380014,Ahmedabad,Gujarat
"23/950 Sharma Street, Above Shop, Ranchi, Jharkhand - 514718","Sharma Street, Jharkhand - 514718",1,,,,514218,Jharkhand,
"H.No. 449, Wadhwa Marg, Opposite Mall, Amritsar, Punjab - 208499","H.No. 449, Wadhwa Marg, Opposite Mall, Amritsar, Punjab - 208499",0,,H.No. 449,Amritsar,122499,Punjab,
"35/801, Balakrishnan Road, Opposite Mall, Vizag, Andhra Pradesh - 242400","35/801, Balakrishnan Road, Opposite Mall, Vizag, Andhra Pradesh - 242400",0,,35/801,Vizag,500040,Andhra Pradesh,
"851 Khatri Circle, Above Shop, Chennai, Tamil Nadu - 760735","851 Khatri Circle, Above Shop, Chennai, Tamil Nadu - 760735",0,Khatri Circle,851,,760735,Chennai,Tamil Nadu
"H.No. 432 Munshi Street, Opposite Mall, Jaipur, Rajasthan - 802685","H.No. 432 Munshi Street, Opposite Mall, Jaipur, Rajasthan - 802685",0,,H.No. 432,Jaipur,382025,Rajasthan,
"92/371, Thakkar Marg, Opposite Mall, Hyderabad, Telangana - 104447","92/371, Thakkar Marg, Opposite Mall, Hyderabad, Telangana - 104447",0,,92/371,,500044,Hyderabad,Telangana
"H.No. 55, Prakash Path, Opposite Mall, Bhopal, Madhya Pradesh - 267839","H.No. 55, Opposite Mall, Pradesh 267839",1,,H.No. 55,Pradesh,267839,,
"40/537 Pillai Road, Behind School, Coimbatore, Tamil Nadu - 344874","40/537 Pillai Road, Behind School, Coimbatore, Tamil Nadu - 344874",0,,40/537,Coimbatore,344874,Coimbatore,Tamil Nadu
"42, Seshadri Ganj, Behind School, Patna, Bihar - 100106","42, Seshadri Ganj, Behind School, Patna, Bihar - 100106",0,,42,Patna,100106,Bihar,
"H.No. 200 Batta Path, Opposite Mall, Bhopal, Madhya Pradesh - 733619","H.No. 200 Batta Path, Opposite Mall, Bhopal, Madhya Pradesh - 733619",0,,H.No. 200,Bhopal,733619,Madhya Pradesh,
"021 Raja Road, Above Shop, Kolkata, West Bengal - 265963","021 Raja Road, Above Shop, Kolkata, West Bengal - 265963",0,,021,,700063,Kolkata,West Bengal
"H.No. 675, Karnik Marg, Behind School, Ahmedabad, Gujarat - 619799","H.No. 675, Karnik Marg, Behind School, Ahmedabad, Gujarat - 619799",0,,H.No. 675,,382019,Ahmedabad,Gujarat
"35/191 Ratta Chowk, Behind School, Hyderabad, Telangana - 536151","35/191 Ratta Chowk, Behind School, Hyderabad, Telangana - 536151",0,,35/191,,500015,Hyderabad,Telangana
"25/01, Mani Circle, Near Park, Aurangabad, Maharashtra - 276288","25/01, Mani Circle, Near Park, Aurangabad, Maharashtra - 276288",0,,25/01,Aurangabad,412216,,Maharashtra
"18/53 Zachariah Road, Near Park, Patna, Bihar - 852125","18/53 Zachariah Road, Near Park, Patna, Bihar - 852125",0,,18/53,Patna,852125,Bihar,
"31/626, Gera Marg, Opposite Mall, Bhubaneswar, Odisha - 817551","31/626, Gera Marg, Opposite Mall, Bhubaneswar, Odisha - 817551",0,,31/626,Bhubaneswar,817551,Odisha,
"H.No. 66 Baral Ganj, Opposite Mall, Bhopal, Madhya Pradesh - 587997",H.No. 66 Baral Opposite Madhya Pradesh,1,,H.No. 66,Baral,110081,Delhi,
"28 Mani Road, Near Park, Patna, Bihar - 571596","28 Mani Road, Near Park, Patna, Bihar - 571596",0,,,Patna,210096,Bihar,
"039 Parmar Marg, Opposite Mall, Hyderabad, Telangana - 096794","039 Parmar Marg, Opposite Mall, Hyderabad, Telangana - 096794",0,,,,500096,Hyderabad,Telangana
"H.No. 04, Gandhi Street, Above Shop, Indore, Madhya Pradesh - 831877","H.No. 04, Gandhi Street, Above Shop, Indore, Madhya Pradesh - 831877",0,,H.No. 04,Indore,831877,Madhya Pradesh,
"69, Bhagat, Behind School, Surat, Gujarat - 157086","69, Bhagat, Behind School, Surat, Gujarat - 157086",0,,69,Bhagat,395007,Surat,Gujarat
"64/706 Basu Ganj, Behind School, Surat, Gujarat - 466915","64/706 Basu Ganj, Behind School, Surat, Gujarat - 466915",0,,64/706,,394515,Surat,Gujarat
"230 Pandya Street, Near Park, Patna, Bihar - 562804","230 Pandya Street, Near Park, Patna, Bihar - 562804",0,,230,Patna,562104,Bihar,
"H.No. 07, Bains Road, Near Park, Nagpur, Maharashtra - 164944","H.No. 07, Bains Road, Near Park, Nagpur, Maharashtra - 164944",0,,H.No. 07,Nagpur,411044,Maharashtra,
"H.No. 664 Bhatnagar Zila, Near Park, Chandigarh, Chandigarh - 161450","H.No. 664 Bhatnagar Zila, Near Park, Chandigarh, Chandigarh - 161450",0,,H.No. 664,Bhatnagar Zila,121450,Chandigarh,
"82/116, Chaudhry Chowk, Near Park, Srinagar, Jammu & Kashmir - 501394",Chaudhry Near Jammu & - 501394,1,,,Chaudhry,194094,Jammu,
"29/01, Sehgal Zila, Behind School, Hyderabad, Telangana - 728201","29/01, Sehgal Zila, Behind School, Hyderabad, Telangana - 728201",0,,29/01,Sehgal Zilla,500218,Hyderabad,Telangana
"56/43 Kamdar Path, Opposite Mall, Delhi, Delhi - 248050","56/43 Kamdar Path, Opposite Mall, Delhi, Delhi - 248050",0,,56/43,,110050,Delhi,Delhi
"H.No. 94 Chad Zila, Above Shop, Ahmedabad, Gujarat - 665654","H.No. 94 Chad Zila, Above Shop, Ahmedabad, Gujarat - 665654",0,,H.No. 94,Chad Zila,382345,Ahmedabad,Gujarat
"14/372 Shetty Zila, Opposite Mall, Ahmedabad, Gujarat - 638033","14/372 Zila, Mall, Gujarat 638033",1,,14/372,Zila,382330,,Gujarat
"H.No. 07 Sankaran Circle, Opposite Mall, Bhubaneswar, Odisha - 852497","H.No. 07 Sankaran Circle, Opposite Mall, Bhubaneswar, Odisha - 852497",0,Sankaran Circle,H.No. 07,Bhubaneswar,852497,Odisha,
"H.No. 10, Dave Nagar, Behind School, Agra, Uttar Pradesh - 091384","H.No. 10, Dave Nagar, Behind School, Agra, Uttar Pradesh - 091384",0,,H.No. 10,Dave Nagar,201384,Agra,Uttar Pradesh
"H.No. 17 Sur, Behind School, Guwahati, Assam - 512295","17 Sur, Behind Guwahati, 512295",1,,17 SUR,GUWAHATI,122195,,
"20 Chaudhary Circle, Behind School, Patna, Bihar - 729806","20 Chaudhary Circle, Behind Bihar",1,,20,,201001,Bihar,
"H.No. 39, Mallick Zila, Opposite Mall, Vizag, Andhra Pradesh - 038614","H.No. 39, Mallick Zila, Opposite Mall, Vizag, Andhra Pradesh - 038614",0,,H.No. 39,Mallick Zilla,380614,Vizag,Andhra Pradesh
"028, Kalita Nagar, Behind School, Kochi, Kerala - 629533","028, Kalita Nagar, Behind School, Kochi, Kerala - 629533",0,,028,Kalita Nagar,629533,Kochi,Kerala
"53/10, Natarajan Street, Opposite Mall, Thiruvananthapuram, Kerala - 959098","53/10, Natarajan Street, Opposite Mall, Thiruvananthapuram, Kerala - 959098",0,,53/10,Thiruvananthapuram,600099,Kerala,
"47 Jain Marg, Behind School, Bhubaneswar, Odisha - 422342","47 Jain Marg, Behind School, Bhubaneswar, Odisha - 422342",0,,,Bhubaneswar,422342,Odisha,
"81/58, Kaul Nagar, Above Shop, Kolkata, West Bengal - 284879","81/58, Kaul Nagar, Above Shop, Kolkata, West Bengal - 284879",0,,81/58,Kaul Nagar,700024,Kolkata,West Bengal
"718, Mani Marg, Behind School, Chandigarh, Chandigarh - 387535","718, Mani Chandigarh, - 387535",1,,718,Mani Chandigarh,387535,,
"517 Sen Path, Behind School, Hyderabad, Telangana - 949473","517 Sen Path, Behind School, Hyderabad, Telangana - 949473",0,,517,,500073,Hyderabad,Telangana
"40/500, Sabharwal Zila, Opposite Mall, Jaipur, Rajasthan - 470460","40/500, Sabharwal Zila, Opposite Mall, Jaipur, Rajasthan - 470460",0,,40/500,Sabharwal Zila,394406,Jaipur,Rajasthan
"895, Ramesh Zila, Near Park, Indore, Madhya Pradesh - 958260","895, Ramesh Zila, Near Park, Indore, Madhya Pradesh - 958260",0,,895,Ramesh Zila,958260,Indore,Madhya Pradesh
"H.No. 255, Bhalla Nagar, Above Shop, Vijayawada, Andhra Pradesh - 430414","H.No. 255, Bhalla Nagar, Above Shop, Vijayawada, Andhra Pradesh - 430414",0,,H.No. 255,Bhalla Nagar,430414,Vijayawada,Andhra Pradesh
"39/36 Nigam, Above Shop, Chandigarh, Chandigarh - 738632","39/36 Nigam, Above Shop, Chandigarh, Chandigarh - 738632",0,Nigam,39/36,Chandigarh,700132,Chandigarh,
"76/67, Raval, Above Shop, Meerut, Uttar Pradesh - 962052","76/67, Raval, Above Shop, Meerut, Uttar Pradesh - 962052",0,,76/67,Raval,201002,Meerut,Uttar Pradesh
"590, Walia Chowk, Behind School, Amritsar, Punjab - 935045","590, Walia Chowk, Behind School, Amritsar, Punjab - 935045",0,,590,Amritsar,395045,Punjab,
"980 Subramaniam Marg, Opposite Mall, Agra, Uttar Pradesh - 521520","980 Subramaniam Marg, Opposite Mall, Agra, Uttar Pradesh - 521520",0,,980,Agra,201012,Uttar Pradesh,
"28/56 Reddy Ganj, Behind School, Surat, Gujarat - 446809","28/56 Reddy Ganj, Behind School, Surat, Gujarat - 446809",0,,28/56,,394180,Surat,Gujarat
"H.No. 67 Gupta Marg, Near Park, Dehradun, Uttarakhand - 184531","H.No. 67 Gupta Marg, Near Park, Dehradun, Uttarakhand - 184531",0,,H.No. 67,Dehradun,184513,Uttarakhand,
"992, Krishna, Behind School, Chennai, Tamil Nadu - 953784","992, Krishna, Behind School, Chennai, Tamil Nadu - 953784",0,,992,Krishna,600078,Chennai,Tamil Nadu
"50/402, Bhasin Chowk, Opposite Mall, Lucknow, Uttar Pradesh - 836613","Bhasin Opposite Lucknow, Pradesh 836613",1,,,Bhasin,836613,Opposite Lucknow,Pradesh
"H.No. 94, Goswami, Opposite Mall, Patna, Bihar - 767408","H.No. 94, Goswami, Opposite Mall, Patna, Bihar - 767408",0,,H.No. 94,Goswami,767408,Patna,Bihar
"287, Venkataraman Road, Opposite Mall, Vijayawada, Andhra Pradesh - 581248","287, Venkataraman Road, Opposite Mall, Vijayawada, Andhra Pradesh - 581248",0,,287,Vijayawada,521248,Andhra Pradesh,
"H.No. 54 Issac Zila, Above Shop, Bhopal, Madhya Pradesh - 033213","H.No. 54 Issac Zila, Above Shop, Bhopal, Madhya Pradesh - 033213",0,,H.No. 54,Issac Zila,033213,Bhopal,Madhya Pradesh
"H.No. 64 Bhakta Road, Opposite Mall, Vijayawada, Andhra Pradesh - 677410","H.No. 64 Bhakta Road, Opposite Mall, Vijayawada, Andhra Pradesh - 677410",0,,H.No. 64,Vijayawada,500010,Andhra Pradesh,
"07/561 Narayanan Ganj, Near Park, Patna, Bihar - 022772","07/561 Narayanan Ganj, Near Park, Patna, Bihar - 022772",0,,07/561,Patna,201022,Bihar,
"78/82, Sem Chowk, Opposite Mall, Chennai, Tamil Nadu - 791108","Sem Chowk, Opposite - 791108",1,,,,791108,,
"H.No. 059 Narayan Street, Opposite Mall, Varanasi, Uttar Pradesh - 015442","H.No. 059 Narayan Street, Opposite Mall, Varanasi, Uttar Pradesh - 015442",0,,H.No. 059,Varanasi,201044,Uttar Pradesh,
"99/74, Din Marg, Near Park, Surat, Gujarat - 054267","99/74, Din Marg, Near Park, Surat, Gujarat - 054267",0,,99/74,Surat,394267,Surat,Gujarat
"H.No. 691 Pillai Nagar, Above Shop, Pune, Maharashtra - 047829","H.No. 691 Pillai Nagar, Above Shop, Pune, Maharashtra - 047829",0,,H.No. 691,Pillai Nagar,412709,Pune,Maharashtra
"H.No. 906, Sagar Path, Behind School, Delhi, Delhi - 271937","H.No. 906, Sagar Path, Behind School, Delhi, Delhi - 271937",0,,H.No. 906,,110027,Delhi,Delhi
"88/62, Dugar, Above Shop, Kochi, Kerala - 574386","88/62, Dugar, Above Shop, Kochi, Kerala - 574386",0,,88/62,Dugar,574386,Kochi,Kerala
"04, Kuruvilla Chowk, Behind School, Coimbatore, Tamil Nadu - 652299","04, Kuruvilla Chowk, Behind School, Coimbatore, Tamil Nadu - 652299",0,,04,Coimbatore,652199,Tamil Nadu,
"55, Bassi Street, Above Shop, Lucknow, Uttar Pradesh - 244111","55, Bassi Street, Above Shop, Lucknow, Uttar Pradesh - 244111",0,,55,Lucknow,201011,Lucknow,Uttar Pradesh
"H.No. 27 Mukherjee Path, Above Shop, Bhopal, Madhya Pradesh - 177076","Mukherjee Path, Above Bhopal, Pradesh -",1,,,Mukherjee Path,421302,Bhopal,Pradesh
"579 Comar Circle, Near Park, Kolkata, West Bengal - 753688","579 Comar Circle, Near Park, Kolkata, West Bengal - 753688",0,Comar Circle,579,,700068,Kolkata,West Bengal
"H.No. 733, Bora Marg, Opposite Mall, Dehradun, Uttarakhand - 817984","H.No. 733, Bora Marg, Opposite Mall, Dehradun, Uttarakhand - 817984",0,,H.No. 733,Dehradun,817984,Uttarakhand,
"H.No. 56 Bhatti Ganj, Near Park, Agra, Uttar Pradesh - 297642","H.No. 56 Bhatti Ganj, Near Park, Agra, Uttar Pradesh - 297642",0,,H.No. 56,Bhatti Ganj,297642,Agra,Uttar Pradesh
"H.No. 841 Khalsa Zila, Behind School, Lucknow, Uttar Pradesh - 038448","H.No. 841 Khalsa Zila, Behind School, Lucknow, Uttar Pradesh - 038448",0,,H.No. 841,Khalsa Zila,203408,Lucknow,Uttar Pradesh
"54/956 Sahota, Opposite Mall, Hyderabad, Telangana - 423724","54/956 Sahota, Opposite Mall, Hyderabad, Telangana - 423724",0,,54/956,,423524,Hyderabad,Telangana
"H.No. 25 Bahl, Behind School, Bangalore, Karnataka - 706210","H.No. 25 Bahl, Behind School, Bangalore, Karnataka - 706210",0,,H.No. 25 Bahl,Bangalore,560210,Bangalore,Karnataka
"H.No. 946, Bakshi Path, Above Shop, Vizag, Andhra Pradesh - 685764","H.No. 946, Bakshi Path, Above Shop, Vizag, Andhra Pradesh - 685764",0,,H.No. 946,Vizag,500064,Andhra Pradesh,
"921, Thaman Ganj, Opposite Mall, Srinagar, Jammu & Kashmir - 064628","921, Thaman Ganj, Opposite Mall, Srinagar, Jammu & Kashmir - 064628",0,,921,Srinagar,064628,Jammu & Kashmir,
"11/020, Gade Ganj, Near Park, Aurangabad, Maharashtra - 578165","11/020, Gade Ganj, Near Park, Aurangabad, Maharashtra - 578165",0,,11/202,Aurangabad,421505,,Maharashtra
"39/34 Bahri Circle, Near Park, Raipur, Chhattisgarh - 768649","39/34 Bahri Circle, Near Park, Raipur, Chhattisgarh - 768649",0,,39/34,Raipur,768649,Chhattisgarh,
"43 Dugal Chowk, Behind School, Chandigarh, Chandigarh - 597223","43 Dugal Chowk, Behind School, Chandigarh, Chandigarh - 597223",0,,43,Chandigarh,700223,Chandigarh,
"014, Palla Chowk, Opposite Mall, Vijayawada, Andhra Pradesh - 904419","014, Palla Chowk, Opposite Mall, Vijayawada, Andhra Pradesh - 904419",0,,014,Vijayawada,500043,Andhra Pradesh,
"H.No. 25, Bhasin Path, Near Park, Vizag, Andhra Pradesh - 554802","H.No. 25, Bhasin Path, Near Park, Vizag, Andhra Pradesh - 554802",0,,H.No. 25,Vizag,500082,Andhra Pradesh,
"75/157 Sami Ganj, Near Park, Indore, Madhya Pradesh - 681684","75/157 Sami Ganj, Near Park, Indore, Madhya Pradesh - 681684",0,,75/157,Indore,421304,Madhya Pradesh,
"40/126 Chaudhary, Opposite Mall, Pune, Maharashtra - 392955","40/126 Chaudhary, Opposite Mall, Pune, Maharashtra - 392955",0,,40/126,,412195,Pune,Maharashtra
"91/96, Tank Nagar, Opposite Mall, Vizag, Andhra Pradesh - 580882","91/96, Tank Nagar, Opposite Mall, Vizag, Andhra Pradesh - 580882",0,,91/96,Tank Nagar,500088,Vizag,Andhra Pradesh
"92/202 Deol Chowk, Behind School, Surat, Gujarat - 826434","92/202 Deol Chowk, Behind School, Surat, Gujarat - 826434",0,,92/202,,394284,Surat,Gujarat
"24, Walla Circle, Near Park, Ahmedabad, Gujarat - 988761","24, Walla Circle, Near Park, Ahmedabad, Gujarat - 988761",0,,24,Ahmedabad,380001,Ahmedabad,Gujarat
"H.No. 853 Kade Path, Near Park, Shimla, Himachal Pradesh - 607292","H.No. 853 Kade Path, Near Park, Shimla, Himachal Pradesh - 607292",0,,H.No. 853,Shimla,122292,Himachal Pradesh,
"01/56 Arya Chowk, Opposite Mall, Lucknow, Uttar Pradesh - 137694","01/56 Arya Chowk, Opposite Mall, Lucknow, Uttar Pradesh - 137694",0,,01/56,Lucknow,201094,Lucknow,Uttar Pradesh
"25/38, Dass Ganj, Behind School, Amritsar, Punjab - 113293","25/38, Dass Ganj, Behind School, Amritsar, Punjab - 113293",0,,25/38,Amritsar,113293,Punjab,
"H.No. 219, Sura Zila, Behind School, Bhopal, Madhya Pradesh - 116242","H.No. Sura Zila, School, Madhya Pradesh",1,,,Sura Zila,421302,Madhya Pradesh,
"45/024, Narain, Above Shop, Srinagar, Jammu & Kashmir - 860847","45/024, Narain, Above Shop, Srinagar, Jammu & Kashmir - 860847",0,,45/024,Srinagar,860847,Jammu & Kashmir,
"H.No. 534 Borde Marg, Opposite Mall, Mumbai, Maharashtra - 391981","H.No. 534 Borde Marg, Opposite Mall, Mumbai, Maharashtra - 391981",0,,H.No. 534,,391981,Mumbai,Maharashtra
"61/512 Shah Street, Near Park, Aurangabad, Maharashtra - 203511","61/512 Shah Street, Near Park, Aurangabad, Maharashtra - 203511",0,,61/512,Aurangabad,410511,,Maharashtra
"04, Sawhney, Above Shop, Indore, Madhya Pradesh - 791085","04, Sawhney, Above Shop, Indore, Madhya Pradesh - 791085",0,,04,Sawhney,791085,Indore,Madhya Pradesh
"H.No. 149, Saxena Circle, Opposite Mall, Bhopal, Madhya Pradesh - 163258","H.No. 149, Saxena Circle, Opposite Mall, Bhopal, Madhya Pradesh - 163258",0,Saxena Circle,H.No. 149,Bhopal,163258,Madhya Pradesh,
"96/562, Nanda Marg, Opposite Mall, Guwahati, Assam - 478453","96/562, Nanda Marg, Opposite Mall, Guwahati, Assam - 478453",0,,96/562,Guwahati,784453,Assam,
"H.No. 082, Tailor Marg, Near Park, Delhi, Delhi - 010138","H.No. 082, Tailor Marg, Near Park, Delhi, Delhi - 010138",0,,H.No. 082,Delhi,110013,Delhi,
"H.No. 507 Balasubramanian Street, Opposite Mall, Bhopal, Madhya Pradesh - 954230","H.No. 507 Balasubramanian Street, Opposite Mall, Bhopal, Madhya Pradesh - 954230",0,,H.No. 507,Bhopal,954230,Madhya Pradesh,
"43/727, Sami Street, Near Park, Pune, Maharashtra - 925444","43/727, Sami Street, Near Park, Pune, Maharashtra - 925444",0,,43/727,,411004,Pune,Maharashtra
"59/293, Pandya Street, Near Park, Pune, Maharashtra - 080664","59/293, Pandya Street, Near Park, Pune, Maharashtra - 080664",0,,59/293,,411004,Pune,Maharashtra
"97, Bawa Street, Near Park, Hyderabad, Telangana - 755242","97, Bawa Street, Near Park, Hyderabad, Telangana - 755242",0,,97,,500024,Hyderabad,Telangana
"96 Basu Ganj, Opposite Mall, Jaipur, Rajasthan - 529285","96 Basu Ganj, Opposite Mall, Jaipur, Rajasthan - 529285",0,,96,Jaipur,122285,Rajasthan,
"77/763, Mukherjee, Near Park, Jaipur, Rajasthan - 902729","77/763, Mukherjee, Near Park, Jaipur, Rajasthan - 902729",0,,77/763,Mukherjee,122009,Jaipur,Rajasthan
"73/99, Ramakrishnan Street, Opposite Mall, Patna, Bihar - 533553","73/99, Ramakrishnan Street, Opposite Mall, Patna, Bihar - 533553",0,,73/99,Patna,203303,Bihar,
"52/708 Memon Zila, Opposite Mall, Shimla, Himachal Pradesh - 363429","Opposite Shimla, Himachal - 363429",1,Opposite Shimla,,,363429,,Himachal
"832 Konda Circle, Opposite Mall, Dehradun, Uttarakhand - 872946","832 Konda Circle, Opposite Mall, Dehradun, Uttarakhand - 872946",0,,832,Dehradun,872946,Uttar Pradesh,
"38/69, Dua Circle, Above Shop, Nashik, Maharashtra - 708733","38/69, Circle, Shop, Nashik, 708733",1,,38/69,Nashik,421308,,
"32 Bala Chowk, Above Shop, Chandigarh, Chandigarh - 402452","32 Bala Chowk, Above Shop, Chandigarh, Chandigarh - 402452",0,,32,Chandigarh,402452,Chandigarh,
"14, Dhar Marg, Behind School, Indore, Madhya Pradesh - 788476","14, Dhar Marg, Behind School, Indore, Madhya Pradesh - 788476",0,,14,Indore,478245,Madhya Pradesh,
"750, Shan Road, Above Shop, Nagpur, Maharashtra - 267403","750, Shan Road, Above Shop, Nagpur, Maharashtra - 267403",0,,750,Nagpur,421403,Maharashtra,
"H.No. 414, Mody Road, Above Shop, Hyderabad, Telangana - 096058","H.No. 414, Mody Road, Above Shop, Hyderabad, Telangana - 096058",0,,H.No. 414,,500058,Hyderabad,Telangana
"35/866, Maharaj Zila, Near Park, Shimla, Himachal Pradesh - 495734","35/866, Maharaj Zila, Near Park, Shimla, Himachal Pradesh - 495734",0,,35/866,Maharaj Zila,395473,Shimla,Himachal Pradesh
"H.No. 896, Sood Marg, Behind School, Indore, Madhya Pradesh - 892674","H.No. 896, Sood Marg, Behind School, Indore, Madhya Pradesh - 892674",0,,H.No. 896,Indore,892674,Madhya Pradesh,
"25 Ramakrishnan Circle, Opposite Mall, Pune, Maharashtra - 858956","25 Ramakrishnan Circle, Opposite Mall, Pune, Maharashtra - 858956",0,Ramakrishnan Circle,,,411005,Pune,Maharashtra
"97/656, Kuruvilla, Behind School, Varanasi, Uttar Pradesh - 799476","97/656, Kuruvilla, Behind School, Varanasi, Uttar Pradesh - 799476",0,,97/656,Kuruvilla,201476,Varanasi,Uttar Pradesh
"105 Chauhan Road, Above Shop, Agra, Uttar Pradesh - 081365","105 Chauhan Road, Above Shop, Agra, Uttar Pradesh - 081365",0,,105,Agra,201305,Uttar Pradesh,
"019, Kapoor Circle, Near Park, Shimla, Himachal Pradesh - 463849","019, Kapoor Circle, Near Park, Shimla, Himachal Pradesh - 463849",0,Kapoor Circle,019,Shimla,463849,Himachal Pradesh,
"H.No. 491 Kapoor Circle, Near Park, Indore, Madhya Pradesh - 734976","H.No. 491 Kapoor Circle, Near Park, Indore, Madhya Pradesh - 734976",0,Kapoor Circle,H.No. 491,Indore,394326,Madhya Pradesh,
"H.No. 75, Saha Road, Behind School, Patna, Bihar - 870274","H.No. 75, Saha Road, Behind School, Patna, Bihar - 870274",0,,H.No. 75,Patna,270074,Bihar,
"25/07, Hans Road, Above Shop, Amritsar, Punjab - 438796","25/07, Hans Road, Above Shop, Amritsar, Punjab - 438796",0,,25/07,Amritsar,413796,Punjab,
"68/74 Tiwari Zila, Behind School, Aurangabad, Maharashtra - 672378","68/74 Tiwari Zila, Behind School, Aurangabad, Maharashtra - 672378",0,,68/74,Tiwari Zilla,421378,,Maharashtra
"96/572 Gola Path, Behind School, Kolkata, West Bengal - 636782","96/572 Gola Path, Behind School, Kolkata, West Bengal - 636782",0,,96/572,,700078,Kolkata,West Bengal
"H.No. 13, Magar, Behind School, Coimbatore, Tamil Nadu - 548714","13, Behind Tamil - 548714",1,,13,,110714,,
"H.No. 42 Suri Path, Behind School, Nashik, Maharashtra - 840856","H.No. 42 Suri Path, Behind School, Nashik, Maharashtra - 840856",0,,H.No. 42,Nashik,421306,,Maharashtra
"03/830 Kari Circle, Behind School, Lucknow, Uttar Pradesh - 048645","03/830 School, Lucknow, - 048645",1,,03/830,,024645,Lucknow,
"31 Arora Zila, Near Park, Chandigarh, Chandigarh - 089817","Zila, Near Park, Chandigarh, Chandigarh",1,,,Zila,122102,Chandigarh,Haryana
"H.No. 127 Sankaran Ganj, Behind School, Agra, Uttar Pradesh - 458104","H.No. 127 Sankaran Ganj, Behind School, Agra, Uttar Pradesh - 458104",0,,H.No. 127,Sankaran Ganj,201104,Agra,Uttar Pradesh
"98/62 Dani, Opposite Mall, Mumbai, Maharashtra - 653958","Dani, Mall, Maharashtra -",1,,,Dani,410506,Maval,Maharashtra
"72/25, Varughese Circle, Behind School, Lucknow, Uttar Pradesh - 793501","72/25, Varughese Circle, Behind School, Lucknow, Uttar Pradesh - 793501",0,,72/25,Lucknow,201351,Uttar Pradesh,
"H.No. 548 Bhagat Road, Behind School, Shimla, Himachal Pradesh - 499815","H.No. 548 Bhagat Road, Behind School, Shimla, Himachal Pradesh - 499815",0,,H.No. 548,Shimla,199815,Himachal Pradesh,
"022, Bhatia Circle, Near Park, Bangalore, Karnataka - 321381","022, Bhatia Circle, Near Park, Bangalore, Karnataka - 321381",0,,022,,562381,Bangalore,Karnataka
"257, Munshi Nagar, Opposite Mall, Lucknow, Uttar Pradesh - 918565","257, Munshi Nagar, Opposite Mall, Lucknow, Uttar Pradesh - 918565",0,,257,Munshi Nagar,201005,Lucknow,Uttar Pradesh
"24, Dada Nagar, Above Shop, Patna, Bihar - 739316","24, Dada Nagar, Above Shop, Patna, Bihar - 739316",0,,24,Dada Nagar,739316,Patna,Bihar
"08/442 Johal, Above Shop, Chandigarh, Chandigarh - 536857","08/442 Johal, Above Shop, Chandigarh, Chandigarh - 536857",0,,08/442,Johal,700136,Chandigarh,
"H.No. 797 Majumdar Nagar, Near Park, Delhi, Delhi - 205368","H.No. Majumdar Nagar, Park, -",1,,,Majumdar Nagar,700041,Park,
"52/68, Sha Street, Behind School, Jaipur, Rajasthan - 532809","52/68, Sha Street, Behind School, Jaipur, Rajasthan - 532809",0,,52/68,Jaipur,382009,Rajasthan,
"30/54 Bhat Chowk, Near Park, Dehradun, Uttarakhand - 869628","30/54 Bhat Chowk, Near Park, Dehradun, Uttarakhand - 869628",0,,30/54,Dehradun,869282,Uttarakhand,
"95 Lal Nagar, Above Shop, Nashik, Maharashtra - 912254","95 Lal Nagar, Above Shop, Nashik, Maharashtra - 912254",0,,95,Lal Nagar,912254,Nashik,Maharashtra
"H.No. 69 Korpal Circle, Near Park, Ludhiana, Punjab - 299825","H.No. 69 Korpal Circle, Near Park, Ludhiana, Punjab - 299825",0,,H.No. 69,Ludhiana,122025,Punjab,
"95/020 Manne Circle, Opposite Mall, Mumbai, Maharashtra - 115359","95/020 Manne Circle, Opposite Mall, Mumbai, Maharashtra - 115359",0,,95/202,,400059,Mumbai,Maharashtra
"74/30, Sane, Near Park, Bhopal, Madhya Pradesh - 709339","74/30, Sane, Near Park, Bhopal, Madhya Pradesh - 709339",0,,74/30,Bhopal,709339,Madhya Pradesh,
"35/606, Chopra Road, Above Shop, Shimla, Himachal Pradesh - 986529","35/606, Chopra Road, Above Shop, Shimla, Himachal Pradesh - 986529",0,,35/606,Shimla,986529,Himachal Pradesh,
"H.No. 91 Sampath Road, Behind School, Nagpur, Maharashtra - 927445","H.No. 91 Sampath Road, Behind School, Nagpur, Maharashtra - 927445",0,,H.No. 91,Nagpur,421445,Maharashtra,
"50 Andra Marg, Opposite Mall, Ludhiana, Punjab - 735456","50 Opposite Mall, Ludhiana, -",1,,50,Ludhiana,110071,Opposite Mall,
"H.No. 61 Choudhary, Near Park, Jaipur, Rajasthan - 875497","H.No. 61 Choudhary, Near Park, Jaipur, Rajasthan - 875497",0,,H.No. 61,Choudhary,123507,Jaipur,Rajasthan
"72/58, Thakur Ganj, Near Park, Bhubaneswar, Odisha - 662377","72/58, Thakur Ganj, Near Park, Bhubaneswar, Odisha - 662377",0,,72/58,Bhubaneswar,662377,Odisha,
"02/64, Virk Ganj, Above Shop, Agra, Uttar Pradesh - 612699","02/64, Virk Ganj, Above Shop, Agra, Uttar Pradesh - 612699",0,,02/64,Virk Ganj,201699,Agra,Uttar Pradesh
"22 Sarna Marg, Near Park, Srinagar, Jammu & Kashmir - 572345","22 Sarna Marg, Near Park, Srinagar, Jammu & Kashmir - 572345",0,,,Srinagar,572345,Jammu & Kashmir,
"390, Devi Zila, Near Park, Agra, Uttar Pradesh - 593027","390, Devi Zila, Near Park, Agra, Uttar Pradesh - 593027",0,,390,Devi Zila,203302,Agra,Uttar Pradesh
"52 Cheema Nagar, Opposite Mall, Surat, Gujarat - 389306","52 Cheema Nagar, Opposite Mall, Surat, Gujarat - 389306",0,,52,Cheema Nagar,394306,Surat,Gujarat
"H.No. 26 Kumar Path, Near Park, Bhubaneswar, Odisha - 245125","H.No. 26 Kumar Path, Near Park, Bhubaneswar, Odisha - 245125",0,,H.No. 26,Bhubaneswar,245125,Odisha,
"616, Ram Marg, Near Park, Nagpur, Maharashtra - 296061","616, Ram Marg, Near Park, Nagpur, Maharashtra - 296061",0,,616,Nagpur,296061,Nagpur,Maharashtra
"H.No. 44 Ratta Zila, Above Shop, Nagpur, Maharashtra - 799473","H.No. 44 Ratta Zila, Above Shop, Nagpur, Maharashtra - 799473",0,,H.No. 44,Ratta Zila,799473,Nagpur,Maharashtra
"83/03, Nath Circle, Opposite Mall, Agra, Uttar Pradesh - 824929","83/03, Nath Circle, Opposite Mall, Agra, Uttar Pradesh - 824929",0,,83/03,Agra,201029,Uttar Pradesh,
"H.No. 454 Yadav Road, Near Park, Ranchi, Jharkhand - 043319","Road, Park, Ranchi, Jharkhand -",1,,,Park,700135,Ranchi,Jharkhand
"H.No. 60 Sarin Zila, Behind School, Aurangabad, Maharashtra - 488860",H.No. Sarin Maharashtra - 488860,1,,H.No. Sarin,,488860,,Maharashtra
"059, Din, Opposite Mall, Hyderabad, Telangana - 570446","059, Din, Opposite Mall, Hyderabad, Telangana - 570446",0,,059,Din,500044,Hyderabad,Telangana
"H.No. 88, Madan Circle, Opposite Mall, Lucknow, Uttar Pradesh - 534854","H.No. 88, Madan Circle, Opposite Mall, Lucknow, Uttar Pradesh - 534854",0,,H.No. 88,Lucknow,201354,Uttar Pradesh,
"H.No. 544, Pillai Ganj, Behind School, Coimbatore, Tamil Nadu - 113448","H.No. 544, Pillai Ganj, Behind School, Coimbatore, Tamil Nadu - 113448",0,,H.No. 544,Pillai Ganj,600113,Coimbatore,Tamil Nadu
"02 Sandhu Chowk, Behind School, Srinagar, Jammu & Kashmir - 967071","02 Sandhu Chowk, Behind School, Srinagar, Jammu & Kashmir - 967071",0,,,Srinagar,967071,Jammu & Kashmir,
"90/971, Wagle Street, Near Park, Agra, Uttar Pradesh - 868870","90/971, Wagle Street, Near Park, Agra, Uttar Pradesh - 868870",0,,90/971,Agra,201001,Uttar Pradesh,
"H.No. 825 D’Alia Ganj, Above Shop, Vijayawada, Andhra Pradesh - 881257","H.No. 825 D’Alia Ganj, Above Shop, Vijayawada, Andhra Pradesh - 881257",0,,H.No. 825,Vijayawada,500050,Andhra Pradesh,
"14/67 Varughese Road, Behind School, Nashik, Maharashtra - 145111","14/67 Varughese Road, Behind School, Nashik, Maharashtra - 145111",0,,14/67,Nashik,421311,,Maharashtra
"248 Bahri Street, Above Shop, Kolkata, West Bengal - 463331","248 Bahri Street, Above Shop, Kolkata, West Bengal - 463331",0,,248,,700331,Kolkata,West Bengal
"25/12, Borra, Near Park, Ahmedabad, Gujarat - 351317","25/12, Borra, Near Park, Ahmedabad, Gujarat - 351317",0,,25/12,Borra,382131,Ahmedabad,Gujarat
"H.No. 086 Borde Road, Near Park, Patna, Bihar - 054897","H.No. 086 Borde Road, Near Park, Patna, Bihar - 054897",0,,H.No. 086,Patna,054897,Bihar,
"H.No. 26 Vala Road, Above Shop, Delhi, Delhi - 107044","H.No. 26 Vala Road, Above Shop, Delhi, Delhi - 107044",0,,H.No. 26,,110044,Delhi,Delhi
"40/84 Toor Road, Opposite Mall, Guwahati, Assam - 738132","Opposite Guwahati, Assam - 738132",1,,,,738132,Opposite Guwahati,Assam
"26, Dixit Chowk, Behind School, Nagpur, Maharashtra - 763604","26, Dixit Behind School, Nagpur,",1,,26,Dixit,411001,Nagpur,
"H.No. 74, Palla, Opposite Mall, Patna, Bihar - 614708","H.No. 74, Palla, Opposite Mall, Patna, Bihar - 614708",0,,H.No. 74,Patna,201308,Bihar,
"73/65 Soman, Opposite Mall, Bangalore, Karnataka - 335947","73/65 Soman, Opposite Mall, Bangalore, Karnataka - 335947",0,,73/65,,560097,Bangalore,Karnataka
"H.No. 75, Bassi Ganj, Near Park, Nashik, Maharashtra - 103633","H.No. 75, Bassi Ganj, Near Park, Nashik, Maharashtra - 103633",0,,H.No. 75,Basti Ganj,413033,Nashik,Maharashtra
"H.No. 41, Ray Zila, Behind School, Mumbai, Maharashtra - 405097","H.No. 41, Ray Zila, Behind School, Mumbai, Maharashtra - 405097",0,,H.No. 41,Ray Zila,400597,Mumbai,Maharashtra
"52, Malhotra Street, Opposite Mall, Guwahati, Assam - 421557","52, Malhotra Street, Opposite Mall, Guwahati, Assam - 421557",0,,52,Guwahati,421507,Assam,
"41 Varghese Ganj, Above Shop, Nashik, Maharashtra - 695797","41 Ganj, Above Nashik, 695797",1,,41,Ganj,394597,Nashik,
"594, Comar Marg, Behind School, Jaipur, Rajasthan - 701600","594, Comar Marg, Behind School, Jaipur, Rajasthan - 701600",0,,594,Jaipur,700160,Rajasthan,
"66, Gala Marg, Behind School, Coimbatore, Tamil Nadu - 831198","66, Gala Marg, Behind School, Coimbatore, Tamil Nadu - 831198",0,,66,Coimbatore,831198,Tamil Nadu,
"60/988, Kala Zila, Near Park, Ranchi, Jharkhand - 042529","60/988, Kala Zila, Near Park, Ranchi, Jharkhand - 042529",0,,60/988,Kala Zila,042529,Ranchi,Jharkhand
"H.No. 329 Contractor, Above Shop, Mumbai, Maharashtra - 403071","329 Contractor, Shop, Maharashtra -",1,,329,,400008,,Maharashtra
"97/576, Lall Path, Above Shop, Ranchi, Jharkhand - 250346","97/576, Lall Path, Above Shop, Ranchi, Jharkhand - 250346",0,,97/576,Ranchi,250346,Jharkhand,
"16/646, Viswanathan Nagar, Above Shop, Amritsar, Punjab - 585311","16/646, Viswanathan Nagar, Above Shop, Amritsar, Punjab - 585311",0,,16/646,Viswanathan Nagar,855311,Amritsar,Punjab
"09, Sankaran Marg, Opposite Mall, Vizag, Andhra Pradesh - 211481","Sankaran Marg, Vizag, Pradesh -",1,,,,500010,Vizag,Pradesh
"425, Ahuja Circle, Above Shop, Bangalore, Karnataka - 074434","425, Circle, Above Shop, Bangalore,",1,,425,,560001,Bangalore,
"795 Raja Chowk, Above Shop, Lucknow, Uttar Pradesh - 518691","795 Raja Chowk, Above Shop, Lucknow, Uttar Pradesh - 518691",0,,795,Lucknow,201691,Lucknow,Uttar Pradesh
"H.No. 32, Dhingra Chowk, Above Shop, Kolkata, West Bengal - 415583","32, Chowk, Above Shop, Kolkata, 415583",1,,32,,700158,Kolkata,
"25, Garg Road, Opposite Mall, Jaipur, Rajasthan - 311105","25, Garg Road, Opposite Mall, Jaipur, Rajasthan - 311105",0,,25,Jaipur,311105,Rajasthan,
"H.No. 76, Kunda Nagar, Behind School, Guwahati, Assam - 834387","H.No. 76, Kunda Nagar, Behind School, Guwahati, Assam - 834387",0,,H.No. 76,Kunda Nagar,834387,Guwahati,Assam
"73/442, Aurora Path, Opposite Mall, Shimla, Himachal Pradesh - 937118","73/442, Aurora Path, Opposite Mall, Shimla, Himachal Pradesh - 937118",0,Aurora Path,73/442,Shimla,122118,Himachal Pradesh,
"160 Sachdev Marg, Opposite Mall, Nashik, Maharashtra - 992965","160 Sachdev Marg, Opposite Mall, Nashik, Maharashtra - 992965",0,,,Nashik,400705,,Maharashtra
"80, Raval Zila, Near Park, Varanasi, Uttar Pradesh - 519322","80, Raval Zila, Near Park, Varanasi, Uttar Pradesh - 519322",0,,80,Raval Zila,221302,Varanasi,Uttar Pradesh
"66/862 Nath Circle, Behind School, Surat, Gujarat - 638510","Nath Circle, School, Gujarat 638510",1,,,Nath Circle,380510,School,Gujarat
"80, Manda Road, Opposite Mall, Mumbai, Maharashtra - 798372","80, Manda Road, Opposite Mall, Mumbai, Maharashtra - 798372",0,,80,,400372,Mumbai,Maharashtra
"49, Ray Circle, Above Shop, Indore, Madhya Pradesh - 499649","49, Circle, Shop, Indore, 499649",1,Circle,49,Indore,499649,,
"19/022, Bawa Nagar, Behind School, Delhi, Delhi - 616261","Bawa Nagar, School, Delhi, -",1,,,Bawana Nagar,-110039,Delhi,
"05, Dass Nagar, Near Park, Lucknow, Uttar Pradesh - 907176","Dass Nagar, Near Lucknow, 907176",1,,,Dass Nagar,201306,Near Lucknow,
"H.No. 41 Saraf Zila, Behind School, Delhi, Delhi - 057856","H.No. 41 Saraf Zila, Behind School, Delhi, Delhi - 057856",0,,H.No. 41,Saraf Zila,110056,Delhi,Delhi
"31/899, Sehgal Street, Opposite Mall, Agra, Uttar Pradesh - 254662","31/899, Sehgal Street, Opposite Mall, Agra, Uttar Pradesh - 254662",0,,31/899,Agra,201006,Uttar Pradesh,
"30 Pingle Road, Above Shop, Shimla, Himachal Pradesh - 618389","30 Pingle Road, Above Shop, Shimla, Himachal Pradesh - 618389",0,,30,Shimla,122389,Himachal Pradesh,
"22/29 Das Ganj, Above Shop, Vizag, Andhra Pradesh - 256500","Das Ganj, Andhra Pradesh 256500",1,,,Das Ganj,560050,,TELANGANA
"63/91, Pai Ganj, Behind School, Delhi, Delhi - 743076","Ganj, Behind Delhi, Delhi -",1,,,Ganj,110030,Behind Delhi,Delhi
"H.No. 73, Shah Path, Behind School, Ludhiana, Punjab - 117987","73, Path, School, Punjab -",1,,73,School,110036,Punjab,
"51, Shukla Marg, Near Park, Meerut, Uttar Pradesh - 695941","51, Shukla Marg, Near Park, Meerut, Uttar Pradesh - 695941",0,,51,Meerut,201009,Uttar Pradesh,
"H.No. 31, Bir Zila, Near Park, Chennai, Tamil Nadu - 139964","H.No. 31, Bir Zila, Near Park, Chennai, Tamil Nadu - 139964",0,,H.No. 31,Bir Zila,600094,Chennai,Tamil Nadu
"H.No. 96, Mangat Street, Opposite Mall, Kolkata, West Bengal - 430570","H.No. 96, Mangat Street, Opposite Mall, Kolkata, West Bengal - 430570",0,,H.No. 96,,700150,Kolkata,West Bengal
"86/874 Sule Path, Above Shop, Vizag, Andhra Pradesh - 112103","86/874 Sule Path, Above Shop, Vizag, Andhra Pradesh - 112103",0,,86/874,Vizag,112103,Andhra Pradesh,
"H.No. 95 More Street, Opposite Mall, Raipur, Chhattisgarh - 971351","H.No. 95 More Street, Opposite Mall, Raipur, Chhattisgarh - 971351",0,,H.No. 95,Raipur,971351,Chhattisgarh,
"H.No. 40, Dalal Ganj, Opposite Mall, Shimla, Himachal Pradesh - 735819","H.No. 40, Dalal Ganj, Opposite Mall, Shimla, Himachal Pradesh - 735819",0,,H.No. 40,Dalal Ganj,122001,Shimla,Himachal Pradesh
"927 Date Zila, Opposite Mall, Ranchi, Jharkhand - 472170","927 Date Zila, Opposite Mall, Ranchi, Jharkhand - 472170",0,,927,Date Zila,272170,Ranchi,Jharkhand
"07/662 Kapur Circle, Above Shop, Vijayawada, Andhra Pradesh - 625471","07/662 Kapur Circle, Above Shop, Vijayawada, Andhra Pradesh - 625471",0,,07/662,Vijayawada,562471,,Andhra Pradesh
"H.No. 93, Tiwari Ganj, Behind School, Delhi, Delhi - 319357","H.No. 93, Tiwari Ganj, Behind School, Delhi, Delhi - 319357",0,,H.No. 93,Tiwari Ganj,110035,Delhi,Delhi
"64/509 Trivedi Street, Behind School, Ludhiana, Punjab - 130810","64/509 Trivedi Street, Behind School, Ludhiana, Punjab - 130810",0,,64/509,Ludhiana,130810,Punjab,
"34/32, More Ganj, Behind School, Mumbai, Maharashtra - 739849","34/32, More Ganj, Behind School, Mumbai, Maharashtra - 739849",0,,34/32,,400009,Mumbai,Maharashtra
"964 Mohan Circle, Near Park, Raipur, Chhattisgarh - 640388","964 Mohan Circle, Near Park, Raipur, Chhattisgarh - 640388",0,Mohan Circle,964,Raipur,640388,Chhattisgarh,
"H.No. 673 Kuruvilla, Opposite Mall, Nashik, Maharashtra - 861157","H.No. 673 Mall, - 861157",1,,H.No. 673,,121007,,
"H.No. 64, Mangal Zila, Above Shop, Bhopal, Madhya Pradesh - 072581","H.No. 64, Mangal Zila, Above Shop, Bhopal, Madhya Pradesh - 072581",0,,H.No. 64,Mangal Zila,072581,Bhopal,Madhya Pradesh
"22/22, Borde Circle, Above Shop, Lucknow, Uttar Pradesh - 123832","22/22, Borde Circle, Above Shop, Lucknow, Uttar Pradesh - 123832",0,,22/22,Lucknow,201328,Lucknow,Uttar Pradesh
"H.No. 935 Upadhyay Zila, Behind School, Nagpur, Maharashtra - 171907","H.No. 935 Upadhyay Zila, Behind School, Nagpur, Maharashtra - 171907",0,,H.No. 935,Upadhyay Zila,411007,Nagpur,Maharashtra
"32 Mutti Ganj, Behind School, Indore, Madhya Pradesh - 066297","32 Mutti Ganj, Behind School, Indore, Madhya Pradesh - 066297",0,,32,Indore,421297,Madhya Pradesh,
"000 Ganesh Ganj, Near Park, Kolkata, West Bengal - 664134","000 Ganesh Ganj, Near Park, Kolkata, West Bengal - 664134",0,,000,,700134,Kolkata,West Bengal
"H.No. 911, Sehgal Ganj, Opposite Mall, Pune, Maharashtra - 808520","H.No. 911, Sehgal Ganj, Opposite Mall, Pune, Maharashtra - 808520",0,,H.No. 911,Sehgal Ganj,411002,Pune,Maharashtra
"51, Vyas Zila, Near Park, Meerut, Uttar Pradesh - 954830","51, Vyas Zila, Near Park, Meerut, Uttar Pradesh - 954830",0,,51,Vyas Zilla,201003,Meerut,Uttar Pradesh
"H.No. 392, Gera Ganj, Opposite Mall, Ludhiana, Punjab - 293599","H.No. 392, Gera Ganj, Opposite Mall, Ludhiana, Punjab - 293599",0,,H.No. 392,Gera Ganj,293599,Ludhiana,Punjab
"88/031 Kohli, Near Park, Vizag, Andhra Pradesh - 928460","88/031 Kohli, Near Park, Vizag, Andhra Pradesh - 928460",0,,88/301,Kohli,500060,Vizag,Andhra Pradesh
"496, Gopal, Behind School, Agra, Uttar Pradesh - 455258","496, Gopal, Behind School, Agra, Uttar Pradesh - 455258",0,,496,Gopal,245518,Agra,Uttar Pradesh
"377 Swaminathan Circle, Above Shop, Pune, Maharashtra - 546874","377 Swaminathan Circle, Above Shop, Pune, Maharashtra - 546874",0,,377,,411004,Pune,Maharashtra
"23/20 Ramesh Path, Opposite Mall, Chennai, Tamil Nadu - 886487","23/20 Ramesh Path, Opposite Mall, Chennai, Tamil Nadu - 886487",0,,23/20,,600087,Chennai,Tamil Nadu
"23/699 Nath Path, Behind School, Srinagar, Jammu & Kashmir - 028388","23/699 Nath Path, Behind School, Srinagar, Jammu & Kashmir - 028388",0,,23/699,Srinagar,028388,Jammu & Kashmir,
"83/00, Ganesan Street, Behind School, Dehradun, Uttarakhand - 840175","83/00, Ganesan Behind School, 840175",1,,83/00,,380015,,
"22/206 Parikh Road, Behind School, Meerut, Uttar Pradesh - 405518","22/206 Parikh Road, Behind School, Meerut, Uttar Pradesh - 405518",0,,22/206,Meerut,201518,Uttar Pradesh,
"93/39, Bahri Street, Opposite Mall, Shimla, Himachal Pradesh - 819132","93/39, Bahri Street, Opposite Mall, Shimla, Himachal Pradesh - 819132",0,,93/39,Shimla,122102,Himachal Pradesh,
"82/31, Vohra Zila, Above Shop, Kochi, Kerala - 133176","82/31, Vohra Zila, Above Shop, Kochi, Kerala - 133176",0,,82/31,Vohra Zilla,133176,Kochi,Kerala
"01 Ganesan Zila, Opposite Mall, Guwahati, Assam - 442339","01 Ganesan Zila, Opposite Mall, Guwahati, Assam - 442339",0,,01,Ganesan Zila,442339,Guwahati,Assam
"02/440 Sagar, Behind School, Chandigarh, Chandigarh - 919576","02/440 Sagar, Behind School, Chandigarh, Chandigarh - 919576",0,Sagar,02/440,Chandigarh,700136,Chandigarh,
"229, Sarna Marg, Above Shop, Nashik, Maharashtra - 970101","229, Sarna Marg, Above Shop, Nashik, Maharashtra - 970101",0,,229,Nashik,410501,,Maharashtra
"21/76, Seth Zila, Near Park, Lucknow, Uttar Pradesh - 910192","Seth Lucknow, Uttar Pradesh 910192",1,,,,201192,Seth Lucknow,Uttar Pradesh
"69 Sharma Zila, Behind School, Jamshedpur, Jharkhand - 562391","69 Sharma Zila, Behind School, Jamshedpur, Jharkhand - 562391",0,,69,Sharma Zila,562391,Jamshedpur,Jharkhand
"95/47, Oommen Marg, Near Park, Ahmedabad, Gujarat - 204011","95/47, Oommen Marg, Near Park, Ahmedabad, Gujarat - 204011",0,,95/47,,380001,Ahmedabad,Gujarat
"H.No. 405, Solanki Street, Behind School, Srinagar, Jammu & Kashmir - 742007","H.No. 405, Solanki Street, Behind School, Srinagar, Jammu & Kashmir - 742007",0,,H.No. 405,Srinagar,742007,Jammu & Kashmir,
"391 Sani Ganj, Near Park, Pune, Maharashtra - 835131","391 Sani Ganj, Near Park, Pune, Maharashtra - 835131",0,,391,,411013,Pune,Maharashtra
"069 Rana Circle, Above Shop, Guwahati, Assam - 190567","069 Rana Circle, Above Shop, Guwahati, Assam - 190567",0,,,Rana Circle,700067,Guwahati,Assam
"711 Varma Marg, Above Shop, Jamshedpur, Jharkhand - 902461","711 Varma Marg, Above Shop, Jamshedpur, Jharkhand - 902461",0,,711,Jamshedpur,201001,Jharkhand,
"H.No. 64, Halder, Near Park, Indore, Madhya Pradesh - 282452","H.No. 64, Halder, Near Park, Indore, Madhya Pradesh - 282452",0,,H.No. 64,Indore,382452,Madhya Pradesh,
"14 Padmanabhan Street, Opposite Mall, Raipur, Chhattisgarh - 241932",14 Padmanabhan Opposite Chhattisgarh 241932,1,,14,,241932,,
"H.No. 86, Chawla Street, Above Shop, Varanasi, Uttar Pradesh - 815162","Chawla Street, Above Shop, Varanasi, Uttar",1,,,Varanasi,221001,Uttar Pradesh,
"60/96, Ratta Nagar, Near Park, Patna, Bihar - 170083","60/96, Ratta Nagar, Near Park, Patna, Bihar - 170083",0,,60/96,Ratta Nagar,210083,Patna,Bihar
"56/398, Raval Road, Above Shop, Nagpur, Maharashtra - 121408","56/398, Above Nagpur, Maharashtra -",1,,56/398,Above Nagpur,411001,,Maharashtra
"01 Nayar Path, Opposite Mall, Guwahati, Assam - 644457","01 Nayar Path, Opposite Mall, Guwahati, Assam - 644457",0,,01,Guwahati,644457,Assam,
"85 Muni Marg, Above Shop, Amritsar, Punjab - 824478","Muni Marg, Shop, Amritsar, 824478",1,,,Amritsar,824478,,
"75/84 Dar Zila, Opposite Mall, Coimbatore, Tamil Nadu - 802065","Zila, Opposite Coimbatore, Tamil 802065",1,,,Zila,802065,Opposite Coimbatore,Tamil Nadu
"06/66, Solanki Road, Behind School, Ludhiana, Punjab - 409033","06/66, Solanki Road, Behind School, Ludhiana, Punjab - 409033",0,,06/66,Ludhiana,409033,Punjab,
"H.No. 442 Bahri Road, Near Park, Chennai, Tamil Nadu - 823164","H.No. Bahri Road, Chennai, Nadu 823164",1,,,,823164,Chennai,Tamil Nadu
"H.No. 530 Aurora, Behind School, Vizag, Andhra Pradesh - 919037","H.No. 530 Aurora, Behind School, Vizag, Andhra Pradesh - 919037",0,Aurora,H.No. 530,Vizag,500019,Andhra Pradesh,
"16/818 Chacko Path, Behind School, Srinagar, Jammu & Kashmir - 684013","16/818 Chacko Srinagar, Kashmir - 684013",1,,16/818,Chacko Srinagar,684013,Kashmir,
"644 Mani Zila, Behind School, Lucknow, Uttar Pradesh - 810746","644 Mani Zila, Behind School, Lucknow, Uttar Pradesh - 810746",0,,644,Mani Zila,201104,Lucknow,Uttar Pradesh
"48, Dutta Path, Opposite Mall, Aurangabad, Maharashtra - 652076","Dutta Path, Mall, Aurangabad, 652076",1,Dutta Path,,Aurangabad,562107,,
"83/530 Parsa Nagar, Near Park, Kolkata, West Bengal - 330632","83/530 Near Park, Kolkata, -",1,,83/530,,-,Kolkata,
"98, Tata Nagar, Opposite Mall, Bangalore, Karnataka - 140279","98, Tata Nagar, Opposite Mall, Bangalore, Karnataka - 140279",0,,98,Tata Nagar,560027,Bangalore,Karnataka
"H.No. 513 Chaudhari Marg, Above Shop, Vijayawada, Andhra Pradesh - 930521","H.No. 513 Chaudhari Marg, Above Shop, Vijayawada, Andhra Pradesh - 930521",0,,H.No. 513,Vijayawada,500052,Andhra Pradesh,
"H.No. 917 Mohan Marg, Near Park, Ranchi, Jharkhand - 376746","H.No. 917 Mohan Marg, Near Park, Ranchi, Jharkhand - 376746",0,,H.No. 917,Ranchi,376246,Jharkhand,
"H.No. 92 Dyal Nagar, Behind School, Kolkata, West Bengal - 823576","H.No. 92 Dyal Nagar, Behind School, Kolkata, West Bengal - 823576",0,,H.No. 92,Dyal Nagar,700023,Kolkata,West Bengal
"H.No. 362 Dutt Nagar, Near Park, Dehradun, Uttarakhand - 369887","H.No. 362 Dutt Nagar, Near Park, Dehradun, Uttarakhand - 369887",0,,H.No. 362,Dutt Nagar,369887,Dehradun,Uttarakhand
"H.No. 56 Iyengar Ganj, Above Shop, Srinagar, Jammu & Kashmir - 029010","H.No. 56 Iyengar Ganj, Above Shop, Srinagar, Jammu & Kashmir - 029010",0,,H.No. 56,Iyengar Ganj,900010,Jammu & Kashmir,
"17, Raja Path, Behind School, Bhopal, Madhya Pradesh - 350963","17, Raja Path, Behind School, Bhopal, Madhya Pradesh - 350963",0,,17,Bhopal,380963,Madhya Pradesh,
"H.No. 183 Nagarajan Road, Near Park, Chennai, Tamil Nadu - 217265","H.No. 183 Nagarajan Road, Near Park, Chennai, Tamil Nadu - 217265",0,,H.No. 183,Chennai,600125,Chennai,Tamil Nadu
"H.No. 318 Nadig Zila, Above Shop, Vijayawada, Andhra Pradesh - 812011","H.No. Vijayawada, Andhra Pradesh - 812011",1,,,Vijayawada,812011,,TELANGANA
"H.No. 137 Singhal Ganj, Near Park, Nagpur, Maharashtra - 527123","H.No. 137 Singhal Ganj, Near Park, Nagpur, Maharashtra - 527123",0,,H.No. 137,Singhal Ganj,421103,Nagpur,Maharashtra
"46/89, Bhattacharyya Nagar, Above Shop, Thiruvananthapuram, Kerala - 672964","46/89, Bhattacharyya Nagar, Above Shop, Thiruvananthapuram, Kerala - 672964",0,,46/89,Bhattacharyya Nagar,600064,Thiruvananthapuram,Kerala
"H.No. 306 Prakash, Opposite Mall, Jaipur, Rajasthan - 855346","H.No. 306 Prakash, Opposite Mall, Jaipur, Rajasthan - 855346",0,,H.No. 306,Jaipur,855346,Rajasthan,
"H.No. 41, Rajagopal Circle, Above Shop, Vijayawada, Andhra Pradesh - 099343","H.No. 41, Circle, Shop, Vijayawada, 099343",1,,H.No. 41,Vijayawada,500043,,
"H.No. 55 Chaudhry Nagar, Opposite Mall, Raipur, Chhattisgarh - 639191","H.No. 55 Chaudhry Nagar, Opposite Mall, Raipur, Chhattisgarh - 639191",0,,H.No. 55,Chaudhry Nagar,639191,Raipur,Chhattisgarh
"H.No. 125, Ram Road, Above Shop, Kochi, Kerala - 407266","H.No. 125, Ram Road, Above Shop, Kochi, Kerala - 407266",0,,H.No. 125,Kochi,700166,Kanchipuram,Kerala
"84/124, Kari Street, Near Park, Kochi, Kerala - 405234","84/124, Street, Park, Kochi, -",1,,84/124,Park,600001,Kochi,
"H.No. 94, Kapur Road, Near Park, Ludhiana, Punjab - 001433","Kapur Road, Near Ludhiana, -",1,,,,-122001,Ludhiana,
"69/086, Raval Ganj, Near Park, Amritsar, Punjab - 674453","69/086, Raval Ganj, Near Park, Amritsar, Punjab - 674453",0,,69/086,Amritsar,124453,Punjab,
"22 Narula, Behind School, Nagpur, Maharashtra - 580816","22 Narula, Behind School, Nagpur, Maharashtra - 580816",0,,22,Narula,380016,Nagpur,Maharashtra
"H.No. 86, Bhardwaj Circle, Near Park, Coimbatore, Tamil Nadu - 490139","H.No. 86, Bhardwaj Circle, Near Park, Coimbatore, Tamil Nadu - 490139",0,,H.No. 86,Coimbatore,600099,Tamil Nadu,
"39/83, Lall Chowk, Above Shop, Mumbai, Maharashtra - 860568","39/83, Lall Chowk, Above Shop, Mumbai, Maharashtra - 860568",0,,39/83,,400568,Mumbai,Maharashtra
"686, Naidu Circle, Near Park, Dehradun, Uttarakhand - 052333","686, Naidu Circle, Dehradun, Uttarakhand",1,,686,Dehradun,210003,Uttar Pradesh,Uttarakhand
"75/44, Raj Ganj, Above Shop, Jamshedpur, Jharkhand - 209718","75/44, Above Shop, Jharkhand 209718",1,,75/44,Jharkhand,209718,,
"11/435 Manne Path, Opposite Mall, Jaipur, Rajasthan - 837873","11/435 Manne Path, Opposite Mall, Jaipur, Rajasthan - 837873",0,,11/435,Jaipur,382345,Rajasthan,
"H.No. 072, Dewan, Opposite Mall, Vizag, Andhra Pradesh - 313040","H.No. 072, Dewan, Opposite Mall, Vizag, Andhra Pradesh - 313040",0,,H.No. 072,Dewan,313004,Vizag,Andhra Pradesh
"84/450, Bava Street, Behind School, Pune, Maharashtra - 276626","84/450, Bava Street, Behind School, Pune, Maharashtra - 276626",0,,84/450,,411026,Pune,Maharashtra
"H.No. 48 Khalsa Street, Above Shop, Guwahati, Assam - 147500","H.No. 48 Khalsa Street, Above Shop, Guwahati, Assam - 147500",0,,H.No. 48,Guwahati,147500,Assam,
"H.No. 240, Balakrishnan Circle, Opposite Mall, Agra, Uttar Pradesh - 594116","H.No. 240, Balakrishnan Circle, Opposite Mall, Agra, Uttar Pradesh - 594116",0,,H.No. 240,Agra,394516,Uttar Pradesh,
"01/975, Gulati Street, Behind School, Delhi, Delhi - 178426","01/975, Gulati Street, Behind School, Delhi, Delhi - 178426",0,,01/975,,110026,Delhi,Delhi
"647, Edwin, Near Park, Thiruvananthapuram, Kerala - 445988","647, Thiruvananthapuram, Kerala 445988",1,,647,Thiruvananthapuram,600088,,Kerala
"38/75 Nadig Street, Above Shop, Ranchi, Jharkhand - 349303","Nadig Street, Ranchi, Jharkhand -",1,,,Nadig Street,700135,Ranchi,Jharkhand
"H.No. 334, Sarma, Behind School, Agra, Uttar Pradesh - 481620","H.No. 334, Sarma, Behind School, Agra, Uttar Pradesh - 481620",0,,H.No. 334,Sarma,201620,Agra,Uttar Pradesh
"73/17 Venkatesh Marg, Above Shop, Kolkata, West Bengal - 672763","73/17 Venkatesh Marg, Above Shop, Kolkata, West Bengal - 672763",0,,73/17,,700763,Kolkata,West Bengal
"16/23 Gill Path, Above Shop, Bangalore, Karnataka - 144995","16/23 Gill Path, Above Shop, Bangalore, Karnataka - 144995",0,,16/23,,560995,Bangalore,Karnataka
"509, Mahajan Circle, Above Shop, Ranchi, Jharkhand - 593640","509, Mahajan Circle, Above Shop, Ranchi, Jharkhand - 593640",0,,509,Ranchi,394340,Jharkhand,
"93/435, Shere Ganj, Behind School, Guwahati, Assam - 877923","Behind School, Guwahati, Assam -",1,,,Behind School,700001,Guwahati,Assam
"67/72 Madan Zila, Above Shop, Varanasi, Uttar Pradesh - 116867","Shop, Uttar Pradesh - 116867",1,,,Shop,201867,Uttar Pradesh,
"H.No. 48 Raju Nagar, Opposite Mall, Nagpur, Maharashtra - 990479","H.No. 48 Raju Nagar, Opposite Mall, Nagpur, Maharashtra - 990479",0,,H.No. 48,Raju Nagar,399079,Nagpur,Maharashtra
"H.No. 425, Mani Marg, Behind School, Kolkata, West Bengal - 348326","H.No. 425, Mani Marg, Behind School, Kolkata, West Bengal - 348326",0,,H.No. 425,,700032,Kolkata,West Bengal
"H.No. 205, Mistry Road, Near Park, Mumbai, Maharashtra - 623074","Mistry Near Mumbai, Maharashtra 623074",1,,,Mistry Near Mumbai,412304,,MAHARASHTRA
"H.No. 68, Prabhu Road, Behind School, Chennai, Tamil Nadu - 160755","68, Chennai, Tamil Nadu - 160755",1,,68,,600075,Chennai,Tamil Nadu
"084 Maharaj Zila, Opposite Mall, Pune, Maharashtra - 575156","084 Opposite Pune, Maharashtra 575156",1,,084,,412516,Pune,Maharashtra
"24 Dutta Chowk, Opposite Mall, Thiruvananthapuram, Kerala - 381483","24 Dutta Chowk, Opposite Mall, Thiruvananthapuram, Kerala - 381483",0,,,Thiruvananthapuram,381483,Kerala,
